{
 "type": "FeatureCollection",
 "features": [
  {
   "type": "Feature",
   "geometry": {
    "type": "Polygon",
    "coordinates": [
     [
      [
       116.46031980217035,
       39.88675836887294
      ],
      [
       116.4617262033817,
       39.88675836887294
      ],
      [
       116.4617262033817,
       39.88756775720029
      ],
      [
       116.46031980217035,
       39.88756775720029
      ],
      [
       116.46031980217035,
       39.88675836887294
      ]
     ]
    ]
   },
   "properties": {
    "building": "retail",
    "shop": "mall",
    "name": "劲松购物中心",
    "pois": [
     "劲松购物中心",
     "物美超市"
    ]
   }
  },
  {
   "type": "Feature",
   "geometry": {
    "type": "Polygon",
    "coordinates": [
     [
      [
       116.45094379409467,
       39.890355650327834
      ],
      [
       116.45188139490223,
       39.890355650327834
      ],
      [
       116.45188139490223,
       39.89089524254607
      ],
      [
       116.45094379409467,
       39.89089524254607
      ],
      [
       116.45094379409467,
       39.890355650327834
      ]
     ]
    ]
   },
   "properties": {
    "building": "office",
    "name": "劲松大厦",
    "podium_pois": [
     "瑞幸咖啡",
     "便利蜂"
    ]
   }
  },
  {
   "type": "Feature",
   "geometry": {
    "type": "Polygon",
    "coordinates": [
     [
      [
       116.46530080646055,
       39.88226176705432
      ],
      [
       116.46623840726811,
       39.88226176705432
      ],
      [
       116.46623840726811,
       39.8829812233453
      ],
      [
       116.46530080646055,
       39.8829812233453
      ],
      [
       116.46530080646055,
       39.88226176705432
      ]
     ]
    ]
   },
   "properties": {
    "building": "office",
    "name": "农光里办公楼"
   }
  },
  {
   "type": "Feature",
   "geometry": {
    "type": "Polygon",
    "coordinates": [
     [
      [
       116.44666599041014,
       39.880463126326866
      ],
      [
       116.44842399192433,
       39.880463126326866
      ],
      [
       116.44842399192433,
       39.881542310763336
      ],
      [
       116.44666599041014,
       39.881542310763336
      ],
      [
       116.44666599041014,
       39.880463126326866
      ]
     ]
    ]
   },
   "properties": {
    "leisure": "park",
    "name": "劲松口袋公园"
   }
  },
  {
   "type": "Feature",
   "geometry": {
    "type": "Polygon",
    "coordinates": [
     [
      [
       116.44222263642885,
       39.8745250026901
      ],
      [
       116.44290533732521,
       39.8745250026901
      ],
      [
       116.44290533732521,
       39.874889949307956
      ],
      [
       116.44222263642885,
       39.874889949307956
      ],
      [
       116.44222263642885,
       39.8745250026901
      ]
     ]
    ]
   },
   "properties": {
    "building": "apartments",
    "name": "劲松1区"
   }
  },
  {
   "type": "Feature",
   "geometry": {
    "type": "Polygon",
    "coordinates": [
     [
      [
       116.44219681270488,
       39.88353994891685
      ],
      [
       116.44293116104919,
       39.88353994891685
      ],
      [
       116.44293116104919,
       39.883861410355706
      ],
      [
       116.44219681270488,
       39.883861410355706
      ],
      [
       116.44219681270488,
       39.88353994891685
      ]
     ]
    ]
   },
   "properties": {
    "building": "apartments",
    "name": "劲松2区"
   }
  },
  {
   "type": "Feature",
   "geometry": {
    "type": "Polygon",
    "coordinates": [
     [
      [
       116.4421821450885,
       39.88533895625783
      ],
      [
       116.44294582866557,
       39.88533895625783
      ],
      [
       116.44294582866557,
       39.885659684469616
      ],
      [
       116.4421821450885,
       39.885659684469616
      ],
      [
       116.4421821450885,
       39.88533895625783
      ]
     ]
    ]
   },
   "properties": {
    "building": "apartments",
    "name": "劲松3区"
   }
  },
  {
   "type": "Feature",
   "geometry": {
    "type": "Polygon",
    "coordinates": [
     [
      [
       116.44215673684211,
       39.8870793204062
      ],
      [
       116.44297123691197,
       39.8870793204062
      ],
      [
       116.44297123691197,
       39.88751660177614
      ],
      [
       116.44215673684211,
       39.88751660177614
      ],
      [
       116.44215673684211,
       39.8870793204062
      ]
     ]
    ]
   },
   "properties": {
    "building": "apartments",
    "name": "劲松4区"
   }
  },
  {
   "type": "Feature",
   "geometry": {
    "type": "Polygon",
    "coordinates": [
     [
      [
       116.44216739362822,
       39.88884822859338
      ],
      [
       116.44296058012586,
       39.88884822859338
      ],
      [
       116.44296058012586,
       39.88934497504386
      ],
      [
       116.44216739362822,
       39.88934497504386
      ],
      [
       116.44216739362822,
       39.88884822859338
      ]
     ]
    ]
   },
   "properties": {
    "building": "apartments",
    "name": "劲松5区"
   }
  },
  {
   "type": "Feature",
   "geometry": {
    "type": "Polygon",
    "coordinates": [
     [
      [
       116.44212932347818,
       39.89065938011059
      ],
      [
       116.44299865027588,
       39.89065938011059
      ],
      [
       116.44299865027588,
       39.891131104981554
      ],
      [
       116.44212932347818,
       39.891131104981554
      ],
      [
       116.44212932347818,
       39.89065938011059
      ]
     ]
    ]
   },
   "properties": {
    "building": "apartments",
    "name": "劲松6区"
   }
  },
  {
   "type": "Feature",
   "geometry": {
    "type": "Polygon",
    "coordinates": [
     [
      [
       116.44224365330506,
       39.892428897058835
      ],
      [
       116.44288432044901,
       39.892428897058835
      ],
      [
       116.44288432044901,
       39.892958869488204
      ],
      [
       116.44224365330506,
       39.892958869488204
      ],
      [
       116.44224365330506,
       39.892428897058835
      ]
     ]
    ]
   },
   "properties": {
    "building": "apartments",
    "name": "劲松7区"
   }
  },
  {
   "type": "Feature",
   "geometry": {
    "type": "Polygon",
    "coordinates": [
     [
      [
       116.44225468189136,
       39.89432427056142
      ],
      [
       116.44287329186271,
       39.89432427056142
      ],
      [
       116.44287329186271,
       39.89466077744052
      ],
      [
       116.44225468189136,
       39.89466077744052
      ],
      [
       116.44225468189136,
       39.89432427056142
      ]
     ]
    ]
   },
   "properties": {
    "building": "apartments",
    "name": "劲松8区"
   }
  },
  {
   "type": "Feature",
   "geometry": {
    "type": "Polygon",
    "coordinates": [
     [
      [
       116.44451793981702,
       39.88345006100958
      ],
      [
       116.44529803797488,
       39.88345006100958
      ],
      [
       116.44529803797488,
       39.883951298262964
      ],
      [
       116.44451793981702,
       39.883951298262964
      ],
      [
       116.44451793981702,
       39.88345006100958
      ]
     ]
    ]
   },
   "properties": {
    "building": "apartments",
    "name": "劲松9区"
   }
  },
  {
   "type": "Feature",
   "geometry": {
    "type": "Polygon",
    "coordinates": [
     [
      [
       116.44457492409222,
       39.89250397064878
      ],
      [
       116.44524105369969,
       39.89250397064878
      ],
      [
       116.44524105369969,
       39.89288379589826
      ],
      [
       116.44457492409222,
       39.89288379589826
      ],
      [
       116.44457492409222,
       39.89250397064878
      ]
     ]
    ]
   },
   "properties": {
    "building": "apartments",
    "name": "劲松10区"
   }
  },
  {
   "type": "Feature",
   "geometry": {
    "type": "Polygon",
    "coordinates": [
     [
      [
       116.44457406397052,
       39.89432378885704
      ],
      [
       116.44524191382139,
       39.89432378885704
      ],
      [
       116.44524191382139,
       39.8946612591449
      ],
      [
       116.44457406397052,
       39.8946612591449
      ],
      [
       116.44457406397052,
       39.89432378885704
      ]
     ]
    ]
   },
   "properties": {
    "building": "apartments",
    "name": "劲松11区"
   }
  },
  {
   "type": "Feature",
   "geometry": {
    "type": "Polygon",
    "coordinates": [
     [
      [
       116.44450323522203,
       39.89609277103878
      ],
      [
       116.44531274256987,
       39.89609277103878
      ],
      [
       116.44531274256987,
       39.896489558418054
      ],
      [
       116.44450323522203,
       39.896489558418054
      ],
      [
       116.44450323522203,
       39.89609277103878
      ]
     ]
    ]
   },
   "properties": {
    "building": "apartments",
    "name": "劲松12区"
   }
  },
  {
   "type": "Feature",
   "geometry": {
    "type": "Polygon",
    "coordinates": [
     [
      [
       116.44692215929477,
       39.872721441883925
      ],
      [
       116.44758182253497,
       39.872721441883925
      ],
      [
       116.44758182253497,
       39.873096228659236
      ],
      [
       116.44692215929477,
       39.873096228659236
      ],
      [
       116.44692215929477,
       39.872721441883925
      ]
     ]
    ]
   },
   "properties": {
    "building": "apartments",
    "name": "劲松13区"
   }
  },
  {
   "type": "Feature",
   "geometry": {
    "type": "Polygon",
    "coordinates": [
     [
      [
       116.44683081006103,
       39.88172628894641
      ],
      [
       116.44767317176873,
       39.88172628894641
      ],
      [
       116.44767317176873,
       39.88207778887124
      ],
      [
       116.44683081006103,
       39.88207778887124
      ],
      [
       116.44683081006103,
       39.88172628894641
      ]
     ]
    ]
   },
   "properties": {
    "building": "apartments",
    "name": "劲松14区"
   }
  },
  {
   "type": "Feature",
   "geometry": {
    "type": "Polygon",
    "coordinates": [
     [
      [
       116.44678503230763,
       39.883471352970524
      ],
      [
       116.44771894952211,
       39.883471352970524
      ],
      [
       116.44771894952211,
       39.88393000630203
      ],
      [
       116.44678503230763,
       39.88393000630203
      ],
      [
       116.44678503230763,
       39.883471352970524
      ]
     ]
    ]
   },
   "properties": {
    "building": "apartments",
    "name": "劲松15区"
   }
  },
  {
   "type": "Feature",
   "geometry": {
    "type": "Polygon",
    "coordinates": [
     [
      [
       116.44695334743477,
       39.89250104054113
      ],
      [
       116.44755063439497,
       39.89250104054113
      ],
      [
       116.44755063439497,
       39.89288672600591
      ],
      [
       116.44695334743477,
       39.89288672600591
      ],
      [
       116.44695334743477,
       39.89250104054113
      ]
     ]
    ]
   },
   "properties": {
    "building": "apartments",
    "name": "劲松16区"
   }
  },
  {
   "type": "Feature",
   "geometry": {
    "type": "Polygon",
    "coordinates": [
     [
      [
       116.44692189984666,
       39.89422914569891
      ],
      [
       116.44758208198309,
       39.89422914569891
      ],
      [
       116.44758208198309,
       39.894755902303025
      ],
      [
       116.44692189984666,
       39.894755902303025
      ],
      [
       116.44692189984666,
       39.89422914569891
      ]
     ]
    ]
   },
   "properties": {
    "building": "apartments",
    "name": "劲松17区"
   }
  },
  {
   "type": "Feature",
   "geometry": {
    "type": "Polygon",
    "coordinates": [
     [
      [
       116.44918776646482,
       39.87270697922978
      ],
      [
       116.45000421940276,
       39.87270697922978
      ],
      [
       116.45000421940276,
       39.87311069131338
      ],
      [
       116.44918776646482,
       39.87311069131338
      ],
      [
       116.44918776646482,
       39.87270697922978
      ]
     ]
    ]
   },
   "properties": {
    "building": "apartments",
    "name": "劲松18区"
   }
  },
  {
   "type": "Feature",
   "geometry": {
    "type": "Polygon",
    "coordinates": [
     [
      [
       116.44925963552824,
       39.8798829108934
      ],
      [
       116.44993235033935,
       39.8798829108934
      ],
      [
       116.44993235033935,
       39.88032388546935
      ],
      [
       116.44925963552824,
       39.88032388546935
      ],
      [
       116.44925963552824,
       39.8798829108934
      ]
     ]
    ]
   },
   "properties": {
    "building": "apartments",
    "name": "劲松19区"
   }
  },
  {
   "type": "Feature",
   "geometry": {
    "type": "Polygon",
    "coordinates": [
     [
      [
       116.44920022237582,
       39.881643729044896
      ],
      [
       116.44999176349175,
       39.881643729044896
      ],
      [
       116.44999176349175,
       39.88216034877276
      ],
      [
       116.44920022237582,
       39.88216034877276
      ],
      [
       116.44920022237582,
       39.881643729044896
      ]
     ]
    ]
   },
   "properties": {
    "building": "apartments",
    "name": "劲松20区"
   }
  },
  {
   "type": "Feature",
   "geometry": {
    "type": "Polygon",
    "coordinates": [
     [
      [
       116.44926443605875,
       39.88343116033723
      ],
      [
       116.44992754980882,
       39.88343116033723
      ],
      [
       116.44992754980882,
       39.883970198935316
      ],
      [
       116.44926443605875,
       39.883970198935316
      ],
      [
       116.44926443605875,
       39.88343116033723
      ]
     ]
    ]
   },
   "properties": {
    "building": "apartments",
    "name": "劲松21区"
   }
  },
  {
   "type": "Feature",
   "geometry": {
    "type": "Polygon",
    "coordinates": [
     [
      [
       116.44929470961549,
       39.88712825381555
      ],
      [
       116.44989727625209,
       39.88712825381555
      ],
      [
       116.44989727625209,
       39.887467668366796
      ],
      [
       116.44929470961549,
       39.887467668366796
      ],
      [
       116.44929470961549,
       39.88712825381555
      ]
     ]
    ]
   },
   "properties": {
    "building": "apartments",
    "name": "劲松22区"
   }
  },
  {
   "type": "Feature",
   "geometry": {
    "type": "Polygon",
    "coordinates": [
     [
      [
       116.44929182450106,
       39.892493602460426
      ],
      [
       116.44990016136651,
       39.892493602460426
      ],
      [
       116.44990016136651,
       39.89289416408661
      ],
      [
       116.44929182450106,
       39.89289416408661
      ],
      [
       116.44929182450106,
       39.892493602460426
      ]
     ]
    ]
   },
   "properties": {
    "building": "apartments",
    "name": "劲松23区"
   }
  },
  {
   "type": "Feature",
   "geometry": {
    "type": "Polygon",
    "coordinates": [
     [
      [
       116.45152029169537,
       39.8762721011607
      ],
      [
       116.45235969821005,
       39.8762721011607
      ],
      [
       116.45235969821005,
       39.876740132292255
      ],
      [
       116.45152029169537,
       39.876740132292255
      ],
      [
       116.45152029169537,
       39.8762721011607
      ]
     ]
    ]
   },
   "properties": {
    "building": "apartments",
    "name": "劲松24区"
   }
  },
  {
   "type": "Feature",
   "geometry": {
    "type": "Polygon",
    "coordinates": [
     [
      [
       116.4515343135191,
       39.881732117702505
      ],
      [
       116.45234567638632,
       39.881732117702505
      ],
      [
       116.45234567638632,
       39.88207196011514
      ],
      [
       116.4515343135191,
       39.88207196011514
      ],
      [
       116.4515343135191,
       39.881732117702505
      ]
     ]
    ]
   },
   "properties": {
    "building": "apartments",
    "name": "劲松25区"
   }
  },
  {
   "type": "Feature",
   "geometry": {
    "type": "Polygon",
    "coordinates": [
     [
      [
       116.45156723000407,
       39.883436075311764
      ],
      [
       116.45231275990135,
       39.883436075311764
      ],
      [
       116.45231275990135,
       39.883965283960784
      ],
      [
       116.45156723000407,
       39.883965283960784
      ],
      [
       116.45156723000407,
       39.883436075311764
      ]
     ]
    ]
   },
   "properties": {
    "building": "apartments",
    "name": "劲松26区"
   }
  },
  {
   "type": "Feature",
   "geometry": {
    "type": "Polygon",
    "coordinates": [
     [
      [
       116.45155899158587,
       39.88712049686825
      ],
      [
       116.45232099831955,
       39.88712049686825
      ],
      [
       116.45232099831955,
       39.88747542531409
      ],
      [
       116.45155899158587,
       39.88747542531409
      ],
      [
       116.45155899158587,
       39.88712049686825
      ]
     ]
    ]
   },
   "properties": {
    "building": "apartments",
    "name": "劲松27区"
   }
  },
  {
   "type": "Feature",
   "geometry": {
    "type": "Polygon",
    "coordinates": [
     [
      [
       116.4515346672824,
       39.89246804479586
      ],
      [
       116.45234532262302,
       39.89246804479586
      ],
      [
       116.45234532262302,
       39.89291972175118
      ],
      [
       116.4515346672824,
       39.89291972175118
      ],
      [
       116.4515346672824,
       39.89246804479586
      ]
     ]
    ]
   },
   "properties": {
    "building": "apartments",
    "name": "劲松28区"
   }
  },
  {
   "type": "Feature",
   "geometry": {
    "type": "Polygon",
    "coordinates": [
     [
      [
       116.45151294518624,
       39.89427450861912
      ],
      [
       116.45236704471918,
       39.89427450861912
      ],
      [
       116.45236704471918,
       39.894710539382814
      ],
      [
       116.45151294518624,
       39.894710539382814
      ],
      [
       116.45151294518624,
       39.89427450861912
      ]
     ]
    ]
   },
   "properties": {
    "building": "apartments",
    "name": "劲松29区"
   }
  },
  {
   "type": "Feature",
   "geometry": {
    "type": "Polygon",
    "coordinates": [
     [
      [
       116.45393401003535,
       39.874547905456495
      ],
      [
       116.4546339839079,
       39.874547905456495
      ],
      [
       116.4546339839079,
       39.87486704654156
      ],
      [
       116.45393401003535,
       39.87486704654156
      ],
      [
       116.45393401003535,
       39.874547905456495
      ]
     ]
    ]
   },
   "properties": {
    "building": "apartments",
    "name": "劲松30区"
   }
  },
  {
   "type": "Feature",
   "geometry": {
    "type": "Polygon",
    "coordinates": [
     [
      [
       116.45398081346622,
       39.88344459708361
      ],
      [
       116.45458718047703,
       39.88344459708361
      ],
      [
       116.45458718047703,
       39.88395676218894
      ],
      [
       116.45398081346622,
       39.88395676218894
      ],
      [
       116.45398081346622,
       39.88344459708361
      ]
     ]
    ]
   },
   "properties": {
    "building": "apartments",
    "name": "劲松31区"
   }
  },
  {
   "type": "Feature",
   "geometry": {
    "type": "Polygon",
    "coordinates": [
     [
      [
       116.45390555952223,
       39.88713279949911
      ],
      [
       116.45466243442104,
       39.88713279949911
      ],
      [
       116.45466243442104,
       39.887463122683236
      ],
      [
       116.45390555952223,
       39.887463122683236
      ],
      [
       116.45390555952223,
       39.88713279949911
      ]
     ]
    ]
   },
   "properties": {
    "building": "apartments",
    "name": "劲松32区"
   }
  },
  {
   "type": "Feature",
   "geometry": {
    "type": "Polygon",
    "coordinates": [
     [
      [
       116.45390744200523,
       39.892474696013906
      ],
      [
       116.45466055193803,
       39.892474696013906
      ],
      [
       116.45466055193803,
       39.89291307053313
      ],
      [
       116.45390744200523,
       39.89291307053313
      ],
      [
       116.45390744200523,
       39.892474696013906
      ]
     ]
    ]
   },
   "properties": {
    "building": "apartments",
    "name": "劲松33区"
   }
  },
  {
   "type": "Feature",
   "geometry": {
    "type": "Polygon",
    "coordinates": [
     [
      [
       116.45383762285854,
       39.89428757586653
      ],
      [
       116.45473037108472,
       39.89428757586653
      ],
      [
       116.45473037108472,
       39.894697472135405
      ],
      [
       116.45383762285854,
       39.894697472135405
      ],
      [
       116.45383762285854,
       39.89428757586653
      ]
     ]
    ]
   },
   "properties": {
    "building": "apartments",
    "name": "劲松34区"
   }
  },
  {
   "type": "Feature",
   "geometry": {
    "type": "Polygon",
    "coordinates": [
     [
      [
       116.4538961883852,
       39.89605172843045
      ],
      [
       116.45467180555806,
       39.89605172843045
      ],
      [
       116.45467180555806,
       39.89653060102639
      ],
      [
       116.4538961883852,
       39.89653060102639
      ],
      [
       116.4538961883852,
       39.89605172843045
      ]
     ]
    ]
   },
   "properties": {
    "building": "apartments",
    "name": "劲松35区"
   }
  },
  {
   "type": "Feature",
   "geometry": {
    "type": "Polygon",
    "coordinates": [
     [
      [
       116.45628019896697,
       39.872639584447754
      ],
      [
       116.45697579901412,
       39.872639584447754
      ],
      [
       116.45697579901412,
       39.87317808609541
      ],
      [
       116.45628019896697,
       39.87317808609541
      ],
      [
       116.45628019896697,
       39.872639584447754
      ]
     ]
    ]
   },
   "properties": {
    "building": "apartments",
    "name": "劲松36区"
   }
  },
  {
   "type": "Feature",
   "geometry": {
    "type": "Polygon",
    "coordinates": [
     [
      [
       116.45624400882696,
       39.876335132970645
      ],
      [
       116.45701198915414,
       39.876335132970645
      ],
      [
       116.45701198915414,
       39.87667710048231
      ],
      [
       116.45624400882696,
       39.87667710048231
      ],
      [
       116.45624400882696,
       39.876335132970645
      ]
     ]
    ]
   },
   "properties": {
    "building": "apartments",
    "name": "劲松37区"
   }
  },
  {
   "type": "Feature",
   "geometry": {
    "type": "Polygon",
    "coordinates": [
     [
      [
       116.45627556324516,
       39.87987988236639
      ],
      [
       116.45698043473593,
       39.87987988236639
      ],
      [
       116.45698043473593,
       39.88032691399636
      ],
      [
       116.45627556324516,
       39.88032691399636
      ],
      [
       116.45627556324516,
       39.87987988236639
      ]
     ]
    ]
   },
   "properties": {
    "building": "apartments",
    "name": "劲松38区"
   }
  },
  {
   "type": "Feature",
   "geometry": {
    "type": "Polygon",
    "coordinates": [
     [
      [
       116.45629628448864,
       39.88173667715418
      ],
      [
       116.45695971349244,
       39.88173667715418
      ],
      [
       116.45695971349244,
       39.882067400663466
      ],
      [
       116.45629628448864,
       39.882067400663466
      ],
      [
       116.45629628448864,
       39.88173667715418
      ]
     ]
    ]
   },
   "properties": {
    "building": "apartments",
    "name": "劲松39区"
   }
  },
  {
   "type": "Feature",
   "geometry": {
    "type": "Polygon",
    "coordinates": [
     [
      [
       116.4561758257628,
       39.88524530334747
      ],
      [
       116.4570801722183,
       39.88524530334747
      ],
      [
       116.4570801722183,
       39.88575333737998
      ],
      [
       116.4561758257628,
       39.88575333737998
      ],
      [
       116.4561758257628,
       39.88524530334747
      ]
     ]
    ]
   },
   "properties": {
    "building": "apartments",
    "name": "劲松40区"
   }
  },
  {
   "type": "Feature",
   "geometry": {
    "type": "Polygon",
    "coordinates": [
     [
      [
       116.45629315748742,
       39.88706537686016
      ],
      [
       116.45696284049367,
       39.88706537686016
      ],
      [
       116.45696284049367,
       39.887530545322186
      ],
      [
       116.45629315748742,
       39.887530545322186
      ],
      [
       116.45629315748742,
       39.88706537686016
      ]
     ]
    ]
   },
   "properties": {
    "building": "apartments",
    "name": "劲松41区"
   }
  },
  {
   "type": "Feature",
   "geometry": {
    "type": "Polygon",
    "coordinates": [
     [
      [
       116.45631173829514,
       39.888834054879084
      ],
      [
       116.45694425968595,
       39.888834054879084
      ],
      [
       116.45694425968595,
       39.88935914875816
      ],
      [
       116.45631173829514,
       39.88935914875816
      ],
      [
       116.45631173829514,
       39.888834054879084
      ]
     ]
    ]
   },
   "properties": {
    "building": "apartments",
    "name": "劲松42区"
   }
  },
  {
   "type": "Feature",
   "geometry": {
    "type": "Polygon",
    "coordinates": [
     [
      [
       116.45866196030528,
       39.87270299756966
      ],
      [
       116.45928204171365,
       39.87270299756966
      ],
      [
       116.45928204171365,
       39.8731146729735
      ],
      [
       116.45866196030528,
       39.8731146729735
      ],
      [
       116.45866196030528,
       39.87270299756966
      ]
     ]
    ]
   },
   "properties": {
    "building": "apartments",
    "name": "劲松43区"
   }
  },
  {
   "type": "Feature",
   "geometry": {
    "type": "Polygon",
    "coordinates": [
     [
      [
       116.45859689774974,
       39.874468135840615
      ],
      [
       116.45934710426918,
       39.874468135840615
      ],
      [
       116.45934710426918,
       39.87494681615745
      ],
      [
       116.45859689774974,
       39.87494681615745
      ],
      [
       116.45859689774974,
       39.874468135840615
      ]
     ]
    ]
   },
   "properties": {
    "building": "apartments",
    "name": "劲松44区"
   }
  },
  {
   "type": "Feature",
   "geometry": {
    "type": "Polygon",
    "coordinates": [
     [
      [
       116.45860821987475,
       39.88170651512736
      ],
      [
       116.4593357821442,
       39.88170651512736
      ],
      [
       116.4593357821442,
       39.88209756269029
      ],
      [
       116.45860821987475,
       39.88209756269029
      ],
      [
       116.45860821987475,
       39.88170651512736
      ]
     ]
    ]
   },
   "properties": {
    "building": "apartments",
    "name": "劲松45区"
   }
  },
  {
   "type": "Feature",
   "geometry": {
    "type": "Polygon",
    "coordinates": [
     [
      [
       116.45864556200219,
       39.885291508387695
      ],
      [
       116.45929844001674,
       39.885291508387695
      ],
      [
       116.45929844001674,
       39.88570713233975
      ],
      [
       116.45864556200219,
       39.88570713233975
      ],
      [
       116.45864556200219,
       39.885291508387695
      ]
     ]
    ]
   },
   "properties": {
    "building": "apartments",
    "name": "劲松46区"
   }
  },
  {
   "type": "Feature",
   "geometry": {
    "type": "Polygon",
    "coordinates": [
     [
      [
       116.4586300324785,
       39.88711249802432
      ],
      [
       116.45931396954045,
       39.88711249802432
      ],
      [
       116.45931396954045,
       39.88748342415802
      ],
      [
       116.4586300324785,
       39.88748342415802
      ],
      [
       116.4586300324785,
       39.88711249802432
      ]
     ]
    ]
   },
   "properties": {
    "building": "apartments",
    "name": "劲松47区"
   }
  },
  {
   "type": "Feature",
   "geometry": {
    "type": "Polygon",
    "coordinates": [
     [
      [
       116.45852757545406,
       39.8906759966374
      ],
      [
       116.45941642656487,
       39.8906759966374
      ],
      [
       116.45941642656487,
       39.89111448845474
      ],
      [
       116.45852757545406,
       39.89111448845474
      ],
      [
       116.45852757545406,
       39.8906759966374
      ]
     ]
    ]
   },
   "properties": {
    "building": "apartments",
    "name": "劲松48区"
   }
  },
  {
   "type": "Feature",
   "geometry": {
    "type": "Polygon",
    "coordinates": [
     [
      [
       116.45850332674785,
       39.89244252013088
      ],
      [
       116.45944067527108,
       39.89244252013088
      ],
      [
       116.45944067527108,
       39.89294524641616
      ],
      [
       116.45850332674785,
       39.89294524641616
      ],
      [
       116.45850332674785,
       39.89244252013088
      ]
     ]
    ]
   },
   "properties": {
    "building": "apartments",
    "name": "劲松49区"
   }
  },
  {
   "type": "Feature",
   "geometry": {
    "type": "Polygon",
    "coordinates": [
     [
      [
       116.46093762699263,
       39.87452606652302
      ],
      [
       116.46169437906414,
       39.87452606652302
      ],
      [
       116.46169437906414,
       39.87488888547504
      ],
      [
       116.46093762699263,
       39.87488888547504
      ],
      [
       116.46093762699263,
       39.87452606652302
      ]
     ]
    ]
   },
   "properties": {
    "building": "apartments",
    "name": "劲松50区"
   }
  },
  {
   "type": "Feature",
   "geometry": {
    "type": "Polygon",
    "coordinates": [
     [
      [
       116.46101269466382,
       39.87630613338243
      ],
      [
       116.46161931139294,
       39.87630613338243
      ],
      [
       116.46161931139294,
       39.87670610007053
      ],
      [
       116.46101269466382,
       39.87670610007053
      ],
      [
       116.46101269466382,
       39.87630613338243
      ]
     ]
    ]
   },
   "properties": {
    "building": "apartments",
    "name": "劲松51区"
   }
  },
  {
   "type": "Feature",
   "geometry": {
    "type": "Polygon",
    "coordinates": [
     [
      [
       116.46088516304548,
       39.88169350805887
      ],
      [
       116.4617468430113,
       39.88169350805887
      ],
      [
       116.4617468430113,
       39.88211056975878
      ],
      [
       116.46088516304548,
       39.88211056975878
      ],
      [
       116.46088516304548,
       39.88169350805887
      ]
     ]
    ]
   },
   "properties": {
    "building": "apartments",
    "name": "劲松52区"
   }
  },
  {
   "type": "Feature",
   "geometry": {
    "type": "Polygon",
    "coordinates": [
     [
      [
       116.4608547061898,
       39.883431398085726
      ],
      [
       116.46177729986697,
       39.883431398085726
      ],
      [
       116.46177729986697,
       39.88396996118682
      ],
      [
       116.4608547061898,
       39.88396996118682
      ],
      [
       116.4608547061898,
       39.883431398085726
      ]
     ]
    ]
   },
   "properties": {
    "building": "apartments",
    "name": "劲松53区"
   }
  },
  {
   "type": "Feature",
   "geometry": {
    "type": "Polygon",
    "coordinates": [
     [
      [
       116.46097084149537,
       39.88883032324767
      ],
      [
       116.46166116456139,
       39.88883032324767
      ],
      [
       116.46166116456139,
       39.88936288038958
      ],
      [
       116.46097084149537,
       39.88936288038958
      ],
      [
       116.46097084149537,
       39.88883032324767
      ]
     ]
    ]
   },
   "properties": {
    "building": "apartments",
    "name": "劲松54区"
   }
  },
  {
   "type": "Feature",
   "geometry": {
    "type": "Polygon",
    "coordinates": [
     [
      [
       116.46092030426645,
       39.89607725571611
      ],
      [
       116.4617117017903,
       39.89607725571611
      ],
      [
       116.4617117017903,
       39.89650507374073
      ],
      [
       116.46092030426645,
       39.89650507374073
      ],
      [
       116.46092030426645,
       39.89607725571611
      ]
     ]
    ]
   },
   "properties": {
    "building": "apartments",
    "name": "劲松55区"
   }
  },
  {
   "type": "Feature",
   "geometry": {
    "type": "Polygon",
    "coordinates": [
     [
      [
       116.46319809971826,
       39.87454108920137
      ],
      [
       116.46412191037635,
       39.87454108920137
      ],
      [
       116.46412191037635,
       39.87487386279669
      ],
      [
       116.46319809971826,
       39.87487386279669
      ],
      [
       116.46319809971826,
       39.87454108920137
      ]
     ]
    ]
   },
   "properties": {
    "building": "apartments",
    "name": "劲松56区"
   }
  },
  {
   "type": "Feature",
   "geometry": {
    "type": "Polygon",
    "coordinates": [
     [
      [
       116.46326239753313,
       39.876272831612916
      ],
      [
       116.46405761256148,
       39.876272831612916
      ],
      [
       116.46405761256148,
       39.87673940184004
      ],
      [
       116.46326239753313,
       39.87673940184004
      ],
      [
       116.46326239753313,
       39.876272831612916
      ]
     ]
    ]
   },
   "properties": {
    "building": "apartments",
    "name": "劲松57区"
   }
  },
  {
   "type": "Feature",
   "geometry": {
    "type": "Polygon",
    "coordinates": [
     [
      [
       116.46334592871005,
       39.87984593542883
      ],
      [
       116.46397408138455,
       39.87984593542883
      ],
      [
       116.46397408138455,
       39.880360860933926
      ],
      [
       116.46334592871005,
       39.880360860933926
      ],
      [
       116.46334592871005,
       39.87984593542883
      ]
     ]
    ]
   },
   "properties": {
    "building": "apartments",
    "name": "劲松58区"
   }
  },
  {
   "type": "Feature",
   "geometry": {
    "type": "Polygon",
    "coordinates": [
     [
      [
       116.46326248823773,
       39.881675030044526
      ],
      [
       116.46405752185689,
       39.881675030044526
      ],
      [
       116.46405752185689,
       39.88212904777312
      ],
      [
       116.46326248823773,
       39.88212904777312
      ],
      [
       116.46326248823773,
       39.881675030044526
      ]
     ]
    ]
   },
   "properties": {
    "building": "apartments",
    "name": "劲松59区"
   }
  },
  {
   "type": "Feature",
   "geometry": {
    "type": "Polygon",
    "coordinates": [
     [
      [
       116.4632643951181,
       39.88348452992989
      ],
      [
       116.4640556149765,
       39.88348452992989
      ],
      [
       116.4640556149765,
       39.88391682934266
      ],
      [
       116.4632643951181,
       39.88391682934266
      ],
      [
       116.4632643951181,
       39.88348452992989
      ]
     ]
    ]
   },
   "properties": {
    "building": "apartments",
    "name": "劲松60区"
   }
  },
  {
   "type": "Feature",
   "geometry": {
    "type": "Polygon",
    "coordinates": [
     [
      [
       116.46324109816791,
       39.887113748135306
      ],
      [
       116.46407891192669,
       39.887113748135306
      ],
      [
       116.46407891192669,
       39.88748217404704
      ],
      [
       116.46324109816791,
       39.88748217404704
      ],
      [
       116.46324109816791,
       39.887113748135306
      ]
     ]
    ]
   },
   "properties": {
    "building": "apartments",
    "name": "劲松61区"
   }
  },
  {
   "type": "Feature",
   "geometry": {
    "type": "Polygon",
    "coordinates": [
     [
      [
       116.46324892155204,
       39.888905496569606
      ],
      [
       116.46407108854257,
       39.888905496569606
      ],
      [
       116.46407108854257,
       39.88928770706764
      ],
      [
       116.46324892155204,
       39.88928770706764
      ],
      [
       116.46324892155204,
       39.888905496569606
      ]
     ]
    ]
   },
   "properties": {
    "building": "apartments",
    "name": "劲松62区"
   }
  },
  {
   "type": "Feature",
   "geometry": {
    "type": "Polygon",
    "coordinates": [
     [
      [
       116.46323482690333,
       39.8907297065449
      ],
      [
       116.46408518319129,
       39.8907297065449
      ],
      [
       116.46408518319129,
       39.891060778547235
      ],
      [
       116.46323482690333,
       39.891060778547235
      ],
      [
       116.46323482690333,
       39.8907297065449
      ]
     ]
    ]
   },
   "properties": {
    "building": "apartments",
    "name": "劲松63区"
   }
  },
  {
   "type": "Feature",
   "geometry": {
    "type": "Polygon",
    "coordinates": [
     [
      [
       116.46567353425348,
       39.87272164169125
      ],
      [
       116.46633447987895,
       39.87272164169125
      ],
      [
       116.46633447987895,
       39.87309602885191
      ],
      [
       116.46567353425348,
       39.87309602885191
      ],
      [
       116.46567353425348,
       39.87272164169125
      ]
     ]
    ]
   },
   "properties": {
    "building": "apartments",
    "name": "劲松64区"
   }
  },
  {
   "type": "Feature",
   "geometry": {
    "type": "Polygon",
    "coordinates": [
     [
      [
       116.46568327489685,
       39.88165093236819
      ],
      [
       116.4663247392356,
       39.88165093236819
      ],
      [
       116.4663247392356,
       39.88215314544946
      ],
      [
       116.46568327489685,
       39.88215314544946
      ],
      [
       116.46568327489685,
       39.88165093236819
      ]
     ]
    ]
   },
   "properties": {
    "building": "apartments",
    "name": "劲松65区"
   }
  },
  {
   "type": "Feature",
   "geometry": {
    "type": "Polygon",
    "coordinates": [
     [
      [
       116.46556735978318,
       39.890704206806376
      ],
      [
       116.46644065434927,
       39.890704206806376
      ],
      [
       116.46644065434927,
       39.89108627828576
      ],
      [
       116.46556735978318,
       39.89108627828576
      ],
      [
       116.46556735978318,
       39.890704206806376
      ]
     ]
    ]
   },
   "properties": {
    "building": "apartments",
    "name": "劲松66区"
   }
  },
  {
   "type": "Feature",
   "geometry": {
    "type": "Polygon",
    "coordinates": [
     [
      [
       116.46569071443612,
       39.896121751210465
      ],
      [
       116.46631729969633,
       39.896121751210465
      ],
      [
       116.46631729969633,
       39.89646057824637
      ],
      [
       116.46569071443612,
       39.89646057824637
      ],
      [
       116.46569071443612,
       39.896121751210465
      ]
     ]
    ]
   },
   "properties": {
    "building": "apartments",
    "name": "劲松67区"
   }
  },
  {
   "type": "Feature",
   "geometry": {
    "type": "Polygon",
    "coordinates": [
     [
      [
       116.4679486796576,
       39.87446942452873
      ],
      [
       116.46874733851269,
       39.87446942452873
      ],
      [
       116.46874733851269,
       39.87494552746932
      ],
      [
       116.4679486796576,
       39.87494552746932
      ],
      [
       116.4679486796576,
       39.87446942452873
      ]
     ]
    ]
   },
   "properties": {
    "building": "apartments",
    "name": "劲松68区"
   }
  },
  {
   "type": "Feature",
   "geometry": {
    "type": "Polygon",
    "coordinates": [
     [
      [
       116.46794350970357,
       39.876319059900524
      ],
      [
       116.46875250846671,
       39.876319059900524
      ],
      [
       116.46875250846671,
       39.87669317355243
      ],
      [
       116.46794350970357,
       39.87669317355243
      ],
      [
       116.46794350970357,
       39.876319059900524
      ]
     ]
    ]
   },
   "properties": {
    "building": "apartments",
    "name": "劲松69区"
   }
  },
  {
   "type": "Feature",
   "geometry": {
    "type": "Polygon",
    "coordinates": [
     [
      [
       116.46798054414782,
       39.88531083628011
      ],
      [
       116.46871547402246,
       39.88531083628011
      ],
      [
       116.46871547402246,
       39.88568780444733
      ],
      [
       116.46798054414782,
       39.88568780444733
      ],
      [
       116.46798054414782,
       39.88531083628011
      ]
     ]
    ]
   },
   "properties": {
    "building": "apartments",
    "name": "劲松70区"
   }
  },
  {
   "type": "Feature",
   "geometry": {
    "type": "Polygon",
    "coordinates": [
     [
      [
       116.46791944595661,
       39.88706895889825
      ],
      [
       116.46877657221367,
       39.88706895889825
      ],
      [
       116.46877657221367,
       39.8875269632841
      ],
      [
       116.46791944595661,
       39.8875269632841
      ],
      [
       116.46791944595661,
       39.88706895889825
      ]
     ]
    ]
   },
   "properties": {
    "building": "apartments",
    "name": "劲松71区"
   }
  },
  {
   "type": "Feature",
   "geometry": {
    "type": "Polygon",
    "coordinates": [
     [
      [
       116.46792470032685,
       39.88887720357535
      ],
      [
       116.46877131784343,
       39.88887720357535
      ],
      [
       116.46877131784343,
       39.889316000061896
      ],
      [
       116.46792470032685,
       39.889316000061896
      ],
      [
       116.46792470032685,
       39.88887720357535
      ]
     ]
    ]
   },
   "properties": {
    "building": "apartments",
    "name": "劲松72区"
   }
  },
  {
   "type": "Feature",
   "geometry": {
    "type": "Polygon",
    "coordinates": [
     [
      [
       116.46805330889812,
       39.890729402940465
      ],
      [
       116.46864270927216,
       39.890729402940465
      ],
      [
       116.46864270927216,
       39.89106108215167
      ],
      [
       116.46805330889812,
       39.89106108215167
      ],
      [
       116.46805330889812,
       39.890729402940465
      ]
     ]
    ]
   },
   "properties": {
    "building": "apartments",
    "name": "劲松73区"
   }
  },
  {
   "type": "Feature",
   "geometry": {
    "type": "Polygon",
    "coordinates": [
     [
      [
       116.4703766059101,
       39.8763140827864
      ],
      [
       116.47100741629801,
       39.8763140827864
      ],
      [
       116.47100741629801,
       39.876698150666556
      ],
      [
       116.4703766059101,
       39.876698150666556
      ],
      [
       116.4703766059101,
       39.8763140827864
      ]
     ]
    ]
   },
   "properties": {
    "building": "apartments",
    "name": "劲松74区"
   }
  },
  {
   "type": "Feature",
   "geometry": {
    "type": "Polygon",
    "coordinates": [
     [
      [
       116.47035514348576,
       39.887129024477865
      ],
      [
       116.47102887872236,
       39.887129024477865
      ],
      [
       116.47102887872236,
       39.88746689770448
      ],
      [
       116.47035514348576,
       39.88746689770448
      ],
      [
       116.47035514348576,
       39.887129024477865
      ]
     ]
    ]
   },
   "properties": {
    "building": "apartments",
    "name": "劲松75区"
   }
  },
  {
   "type": "Feature",
   "geometry": {
    "type": "Polygon",
    "coordinates": [
     [
      [
       116.47028989846423,
       39.89431776881676
      ],
      [
       116.47109412374388,
       39.89431776881676
      ],
      [
       116.47109412374388,
       39.89466727918518
      ],
      [
       116.47028989846423,
       39.89466727918518
      ],
      [
       116.47028989846423,
       39.89431776881676
      ]
     ]
    ]
   },
   "properties": {
    "building": "apartments",
    "name": "劲松76区"
   }
  },
  {
   "type": "Feature",
   "geometry": {
    "type": "Polygon",
    "coordinates": [
     [
      [
       116.47261352472495,
       39.88170731520069
      ],
      [
       116.47345850152101,
       39.88170731520069
      ],
      [
       116.47345850152101,
       39.88209676261696
      ],
      [
       116.47261352472495,
       39.88209676261696
      ],
      [
       116.47261352472495,
       39.88170731520069
      ]
     ]
    ]
   },
   "properties": {
    "building": "apartments",
    "name": "劲松77区"
   }
  },
  {
   "type": "Feature",
   "geometry": {
    "type": "Polygon",
    "coordinates": [
     [
      [
       116.47260459231268,
       39.892524350635114
      ],
      [
       116.47346743393327,
       39.892524350635114
      ],
      [
       116.47346743393327,
       39.892863415911926
      ],
      [
       116.47260459231268,
       39.892863415911926
      ],
      [
       116.47260459231268,
       39.892524350635114
      ]
     ]
    ]
   },
   "properties": {
    "building": "apartments",
    "name": "劲松78区"
   }
  }
 ]
}