{
 "type": "FeatureCollection",
 "features": [
  {
   "type": "Feature",
   "geometry": {
    "type": "Polygon",
    "coordinates": [
     [
      [
       116.43904798384865,
       39.87803496134481
      ],
      [
       116.47655201615136,
       39.87803496134481
      ],
      [
       116.47655201615136,
       39.87857455356304
      ],
      [
       116.43904798384865,
       39.87857455356304
      ],
      [
       116.43904798384865,
       39.87803496134481
      ]
     ]
    ]
   },
   "properties": {
    "natural": "water",
    "water": "river",
    "name": "通惠河"
   }
  }
 ]
}