{"type": "FeatureCollection", "features": [{"type": "Feature", "properties": {"highway": "trunk", "name": "北四环西路"}, "geometry": {"type": "LineString", "coordinates": [[116.300016, 39.9839792], [116.2990825, 39.983949]]}}, {"type": "Feature", "properties": {"highway": "trunk", "name": "万泉河路"}, "geometry": {"type": "LineString", "coordinates": [[116.3010245, 39.9679839], [116.300978, 39.9683268], [116.3009414, 39.968451], [116.3008752, 39.9685874], [116.3008047, 39.9686964], [116.3006778, 39.9688423], [116.3005775, 39.9689427], [116.3004772, 39.9690184], [116.3000989, 39.9692568]]}}, {"type": "Feature", "properties": {"highway": "trunk", "name": "北四环西路"}, "geometry": {"type": "LineString", "coordinates": [[116.3000348, 39.9837931], [116.3040629, 39.9838898], [116.3050943, 39.9839075]]}}, {"type": "Feature", "properties": {"highway": "trunk", "name": "万泉河路"}, "geometry": {"type": "LineString", "coordinates": [[116.2943298, 39.9824844], [116.2942361, 39.9831779], [116.2939652, 39.9851928]]}}, {"type": "Feature", "properties": {"highway": "trunk", "name": "万泉河路"}, "geometry": {"type": "LineString", "coordinates": [[116.2937729, 39.9851598], [116.2940691, 39.9832489], [116.2941576, 39.9824692]]}}, {"type": "Feature", "properties": {"highway": "trunk", "name": "万泉河路"}, "geometry": {"type": "LineString", "coordinates": [[116.2941576, 39.9824692], [116.2943485, 39.9805238], [116.2944402, 39.9795554]]}}, {"type": "Feature", "properties": {"highway": "trunk", "name": "北四环中路"}, "geometry": {"type": "LineString", "coordinates": [[116.3354479, 39.9850103], [116.3357811, 39.9850245], [116.3386877, 39.9851479], [116.3418289, 39.9852094], [116.3439853, 39.9853012]]}}, {"type": "Feature", "properties": {"highway": "trunk", "name": "北四环西路"}, "geometry": {"type": "LineString", "coordinates": [[116.3051725, 39.9841124], [116.3037456, 39.9840598], [116.300016, 39.9839792]]}}, {"type": "Feature", "properties": {"highway": "trunk", "name": "北四环中路"}, "geometry": {"type": "LineString", "coordinates": [[116.3439757, 39.9854679], [116.3417903, 39.9853893], [116.3386751, 39.9853269], [116.3354395, 39.9851704]]}}, {"type": "Feature", "properties": {"highway": "trunk", "name": "万泉河路"}, "geometry": {"type": "LineString", "coordinates": [[116.3000088, 39.969169], [116.3003397, 39.968956], [116.3004982, 39.968832], [116.3005701, 39.9687525], [116.300742, 39.9685354], [116.3008002, 39.9684279], [116.3008369, 39.9683286], [116.3008868, 39.9679719]]}}, {"type": "Feature", "properties": {"highway": "trunk", "name": "万泉河路"}, "geometry": {"type": "LineString", "coordinates": [[116.2951564, 39.9739556], [116.2949358, 39.9761619]]}}, {"type": "Feature", "properties": {"highway": "trunk", "name": "万泉河路"}, "geometry": {"type": "LineString", "coordinates": [[116.3000989, 39.9692568], [116.2976192, 39.9707884], [116.2967492, 39.9713615], [116.2963567, 39.9716678], [116.2960027, 39.9720229], [116.2957444, 39.9723244], [116.2955149, 39.9726912]]}}, {"type": "Feature", "properties": {"highway": "trunk", "name": "万泉河路"}, "geometry": {"type": "LineString", "coordinates": [[116.2953674, 39.9726485], [116.2955989, 39.9722694], [116.2958973, 39.9719169], [116.2962523, 39.9715545], [116.2966322, 39.9712622], [116.2977636, 39.9705264], [116.3000088, 39.969169]]}}, {"type": "Feature", "properties": {"highway": "trunk", "name": "万泉河路"}, "geometry": {"type": "LineString", "coordinates": [[116.2955149, 39.9726912], [116.2953447, 39.9730624], [116.2952308, 39.9734941], [116.2951564, 39.9739556]]}}, {"type": "Feature", "properties": {"highway": "trunk", "name": "万泉河路"}, "geometry": {"type": "LineString", "coordinates": [[116.2950159, 39.9739449], [116.2950767, 39.973478], [116.2951999, 39.9730353], [116.2953674, 39.9726485]]}}, {"type": "Feature", "properties": {"highway": "trunk", "name": "万泉河路"}, "geometry": {"type": "LineString", "coordinates": [[116.2944402, 39.9795554], [116.2948189, 39.9754762]]}}, {"type": "Feature", "properties": {"highway": "trunk", "name": "万泉河路"}, "geometry": {"type": "LineString", "coordinates": [[116.2946145, 39.9793765], [116.2943924, 39.9817212], [116.2943777, 39.9818885], [116.2943298, 39.9824844]]}}, {"type": "Feature", "properties": {"highway": "trunk", "name": "北四环西路"}, "geometry": {"type": "LineString", "coordinates": [[116.2949323, 39.9838182], [116.2936572, 39.9837438]]}}, {"type": "Feature", "properties": {"highway": "trunk", "name": "北四环西路"}, "geometry": {"type": "LineString", "coordinates": [[116.2936802, 39.9835573], [116.2948352, 39.9836161], [116.2949664, 39.9836222]]}}, {"type": "Feature", "properties": {"highway": "trunk", "name": "北四环西路"}, "geometry": {"type": "LineString", "coordinates": [[116.2990825, 39.983949], [116.2980849, 39.9839167], [116.2956889, 39.9838517], [116.2949323, 39.9838182]]}}, {"type": "Feature", "properties": {"highway": "trunk", "name": "北四环西路"}, "geometry": {"type": "LineString", "coordinates": [[116.2949664, 39.9836222], [116.2951837, 39.9836322], [116.2973189, 39.9837309], [116.2979838, 39.9837521], [116.2990848, 39.9837741]]}}, {"type": "Feature", "properties": {"highway": "trunk", "name": "北四环西路"}, "geometry": {"type": "LineString", "coordinates": [[116.2990848, 39.9837741], [116.3000348, 39.9837931]]}}, {"type": "Feature", "properties": {"highway": "trunk", "name": "万泉河路"}, "geometry": {"type": "LineString", "coordinates": [[116.2949358, 39.9761619], [116.29467, 39.9787977], [116.2946145, 39.9793765]]}}, {"type": "Feature", "properties": {"highway": "trunk", "name": "万泉河路"}, "geometry": {"type": "LineString", "coordinates": [[116.3013418, 39.965462], [116.3010245, 39.9679839]]}}, {"type": "Feature", "properties": {"highway": "trunk", "name": "万泉河路"}, "geometry": {"type": "LineString", "coordinates": [[116.2948189, 39.9754762], [116.2950159, 39.9739449]]}}, {"type": "Feature", "properties": {"highway": "trunk", "name": "北四环西路"}, "geometry": {"type": "LineString", "coordinates": [[116.3056844, 39.983928], [116.3097665, 39.9840702], [116.3106369, 39.9841047], [116.3120224, 39.984141], [116.3127067, 39.9841589], [116.3137873, 39.9841969], [116.3142529, 39.9842098], [116.3147378, 39.9842232], [116.3157564, 39.9842514], [116.3186074, 39.9843302], [116.3205901, 39.9843996], [116.3207665, 39.9844058], [116.3209012, 39.9844101], [116.3213295, 39.9844203], [116.3230485, 39.984479], [116.3237604, 39.9845018], [116.3267286, 39.9846056], [116.3274996, 39.9846361], [116.3307719, 39.9847899], [116.3354479, 39.9850103]]}}, {"type": "Feature", "properties": {"highway": "trunk", "name": "北四环西路"}, "geometry": {"type": "LineString", "coordinates": [[116.3354395, 39.9851704], [116.330646, 39.9849499], [116.327534, 39.9848167], [116.3274799, 39.9848144], [116.326738, 39.9847826], [116.3266868, 39.9847804], [116.3237605, 39.9846737], [116.3232123, 39.9846537], [116.3230486, 39.9846478], [116.3213324, 39.9845852], [116.3208921, 39.9845691], [116.3205028, 39.9845563], [116.3142525, 39.9843617], [116.3137645, 39.9843465], [116.3133004, 39.9843321], [116.3126894, 39.9843194], [116.3120099, 39.9843052], [116.3106215, 39.9842762], [116.3097701, 39.9842474], [116.3056864, 39.9841274]]}}, {"type": "Feature", "properties": {"highway": "trunk", "name": "北四环西路"}, "geometry": {"type": "LineString", "coordinates": [[116.3050943, 39.9839075], [116.3056844, 39.983928]]}}, {"type": "Feature", "properties": {"highway": "trunk", "name": "北四环西路"}, "geometry": {"type": "LineString", "coordinates": [[116.3056864, 39.9841274], [116.3051725, 39.9841124]]}}, {"type": "Feature", "properties": {"highway": "trunk", "name": "万泉河路"}, "geometry": {"type": "LineString", "coordinates": [[116.3008868, 39.9679719], [116.3012146, 39.9654045]]}}]}