{"type": "FeatureCollection", "features": [{"type": "Feature", "properties": {"name": "", "natural": "water", "waterway": "", "water": "", "source": "osm"}, "geometry": {"type": "MultiPolygon", "coordinates": [[[[116.2988806, 39.993647], [116.2988867, 39.9933015], [116.2989209, 39.9929767], [116.2989368, 39.9929534], [116.2991221, 39.9929498], [116.2991411, 39.9929701], [116.2991326, 39.9936491], [116.2988806, 39.993647]]]]}}, {"type": "Feature", "properties": {"name": "荷花池", "natural": "water", "waterway": "", "water": "", "source": "osm"}, "geometry": {"type": "MultiPolygon", "coordinates": [[[[116.3124618, 39.9998789], [116.312478, 39.9996552], [116.3125474, 39.9994822], [116.3126831, 39.9994439], [116.3127545, 39.9993609], [116.3130492, 39.9994906], [116.3130447, 39.9995688], [116.3129607, 39.9996576], [116.3129564, 39.9997834], [116.3129182, 39.9998289], [116.3127716, 39.9998666], [116.3127095, 39.9999887], [116.3127954, 40.0000462], [116.3133617, 40.0000557], [116.3135012, 39.9999981], [116.3144239, 40.0000228], [116.3146407, 40.0002517], [116.3147643, 40.0002188], [116.3147299, 40.0001043], [116.3146729, 40.000038], [116.3145764, 39.9998819], [116.3145764, 39.9996928], [116.3145428, 39.9995408], [116.3145741, 39.9994475], [116.3146439, 39.9993139], [116.3147694, 39.9993369], [116.3147822, 39.9993938], [116.3147203, 39.9994577], [116.3147779, 39.9996036], [116.3148852, 39.9997351], [116.3149067, 40.0000639], [116.314853, 40.0007953], [116.3147587, 40.0012376], [116.3145308, 40.0013242], [116.3143725, 40.0013366], [116.3140507, 40.0014023], [116.3137073, 40.0014179], [116.3134046, 40.0013686], [116.3129593, 40.0012078], [116.3126681, 40.0010278], [116.3125714, 40.0002884], [116.3126109, 40.0000233], [116.3124618, 39.9998789]], [[116.3129134, 40.0006955], [116.3129778, 40.0009257], [116.3131408, 40.0011008], [116.3133498, 40.0012], [116.3135679, 40.0012297], [116.3137897, 40.0012278], [116.3140055, 40.0011816], [116.314381, 40.0009844], [116.3146277, 40.0006227], [116.3146492, 40.0004255], [116.3145227, 40.0003092], [116.3142974, 40.0002599], [116.3137824, 40.0002517], [116.3136966, 40.0002024], [116.3130512, 40.0001969], [116.3130315, 40.0005353], [116.3129134, 40.0006955]]]]}}, {"type": "Feature", "properties": {"name": "一勺池", "natural": "water", "waterway": "", "water": "lake", "source": "osm"}, "geometry": {"type": "MultiPolygon", "coordinates": [[[[116.304521, 39.9694725], [116.3045478, 39.9693615], [116.30458, 39.9692052], [116.3046659, 39.9691559], [116.3047624, 39.9691066], [116.3048751, 39.9691148], [116.3049448, 39.9691847], [116.3048751, 39.9692381], [116.3048912, 39.9693162], [116.304859, 39.9694067], [116.304741, 39.9693943], [116.3046337, 39.9694272], [116.3045693, 39.969493], [116.304521, 39.9694725]]]]}}, {"type": "Feature", "properties": {"name": "荷花池", "natural": "water", "waterway": "", "water": "pond", "source": "osm"}, "geometry": {"type": "MultiPolygon", "coordinates": [[[[116.2985116, 39.995731], [116.298551, 39.9956884], [116.298641, 39.9956743], [116.298718, 39.9956719], [116.2987827, 39.9956649], [116.2988197, 39.9956295], [116.2988166, 39.9955067], [116.2988628, 39.9954595], [116.2988425, 39.9954201], [116.2987791, 39.9953843], [116.2987586, 39.9953135], [116.2987577, 39.995234], [116.2987966, 39.9951721], [116.2987884, 39.9951086], [116.2987588, 39.9950352], [116.298726, 39.9949669], [116.2987299, 39.9949032], [116.2987605, 39.9948561], [116.2988404, 39.994827], [116.2990169, 39.9948175], [116.2992849, 39.9948175], [116.2994082, 39.9948222], [116.2994566, 39.994845], [116.2994524, 39.9948931], [116.2994307, 39.994919], [116.2993865, 39.9949323], [116.2993638, 39.9949551], [116.2993517, 39.994989], [116.2993363, 39.9950181], [116.2993302, 39.9950701], [116.299347, 39.9951129], [116.2993589, 39.9951366], [116.299381, 39.9951589], [116.2993847, 39.9951761], [116.299366, 39.9951981], [116.2993261, 39.9952176], [116.2992675, 39.9952129], [116.2992206, 39.9952232], [116.2992087, 39.9952529], [116.2992048, 39.9953061], [116.2992086, 39.9953345], [116.2991995, 39.9953848], [116.2991567, 39.995465], [116.2991308, 39.9955075], [116.2991295, 39.9955481], [116.2991481, 39.995591], [116.2992079, 39.9956601], [116.2992326, 39.9956932], [116.2992079, 39.9957215], [116.2991401, 39.9957546], [116.2990477, 39.9957144], [116.2989583, 39.9957026], [116.2988752, 39.9957121], [116.2987981, 39.9957522], [116.2987396, 39.9957876], [116.2986811, 39.9957782], [116.2986441, 39.9957664], [116.2985979, 39.9957805], [116.2985732, 39.995764], [116.2985208, 39.9957546], [116.2985116, 39.995731]]]]}}, {"type": "Feature", "properties": {"name": "红湖", "natural": "water", "waterway": "", "water": "pond", "source": "osm"}, "geometry": {"type": "MultiPolygon", "coordinates": [[[[116.3005182, 39.9951877], [116.3005299, 39.9951113], [116.300657, 39.9950681], [116.3007617, 39.9950515], [116.3008634, 39.9950633], [116.3009208, 39.9950541], [116.300971, 39.9950524], [116.3009848, 39.9950787], [116.300987, 39.995122], [116.3009442, 39.9951462], [116.3009369, 39.9951756], [116.3009401, 39.9952169], [116.3009506, 39.9952589], [116.3009869, 39.9952764], [116.3010268, 39.9952838], [116.3010327, 39.9953205], [116.3010311, 39.995389], [116.3010051, 39.9955449], [116.3009854, 39.9956429], [116.3009127, 39.9956629], [116.3007648, 39.9956629], [116.3006715, 39.9956617], [116.3006293, 39.9956464], [116.3005623, 39.9956171], [116.300524, 39.9955799], [116.3005204, 39.9955138], [116.3005732, 39.995511], [116.3005696, 39.9954829], [116.3005926, 39.9954231], [116.3005923, 39.9952994], [116.3005796, 39.9952684], [116.3005245, 39.9952309], [116.3005182, 39.9951877]]]]}}, {"type": "Feature", "properties": {"name": "方池", "natural": "water", "waterway": "", "water": "pond", "source": "osm"}, "geometry": {"type": "MultiPolygon", "coordinates": [[[[116.3001398, 39.9951149], [116.3001419, 39.994985], [116.300359, 39.994987], [116.3003569, 39.9951169], [116.3001398, 39.9951149]]]]}}, {"type": "Feature", "properties": {"name": "鸣鹤园池塘", "natural": "water", "waterway": "", "water": "pond", "source": "osm"}, "geometry": {"type": "MultiPolygon", "coordinates": [[[[116.298771, 39.9940443], [116.2987748, 39.993993], [116.2988018, 39.9939003], [116.2988946, 39.99381], [116.2989495, 39.9937801], [116.2989979, 39.9937732], [116.2991808, 39.9938178], [116.2992196, 39.9939027], [116.2992583, 39.9940058], [116.2992613, 39.9941404], [116.2992549, 39.9941823], [116.2991966, 39.9942112], [116.2989624, 39.994216], [116.2988761, 39.9941782], [116.2988389, 39.9941352], [116.2988145, 39.9940791], [116.298771, 39.9940443]]]]}}, {"type": "Feature", "properties": {"name": "勺海", "natural": "water", "waterway": "", "water": "pond", "source": "osm"}, "geometry": {"type": "MultiPolygon", "coordinates": [[[[116.2989872, 39.9913884], [116.2990156, 39.9912787], [116.2990333, 39.9911922], [116.2990961, 39.991145], [116.299171, 39.9911003], [116.2992459, 39.991097], [116.2993197, 39.9911137], [116.2993791, 39.991132], [116.2994167, 39.9911398], [116.299458, 39.9911464], [116.2994978, 39.9911853], [116.2995086, 39.9912366], [116.2994914, 39.991305], [116.2994654, 39.9913568], [116.2994268, 39.9914044], [116.2993749, 39.991425], [116.2993353, 39.991457], [116.2992705, 39.9914967], [116.2991747, 39.9915217], [116.2990826, 39.9915274], [116.2990309, 39.9915162], [116.2989937, 39.9914773], [116.2989872, 39.9913884]]]]}}, {"type": "Feature", "properties": {"name": "未名湖", "natural": "water", "waterway": "", "water": "lake", "source": "osm"}, "geometry": {"type": "MultiPolygon", "coordinates": [[[[116.3009466, 39.9936881], [116.3009591, 39.9936665], [116.3012787, 39.9936641], [116.3014572, 39.9935969], [116.3016703, 39.9934361], [116.3019178, 39.9933113], [116.3022794, 39.9932277], [116.302224, 39.9930774], [116.3023058, 39.9929656], [116.3025791, 39.9928676], [116.3028988, 39.9927253], [116.3030987, 39.9926724], [116.3034079, 39.9926241], [116.3034224, 39.9924909], [116.3034271, 39.9922345], [116.3034, 39.9922064], [116.303374, 39.9921732], [116.3033799, 39.9921488], [116.3034061, 39.99211], [116.303444, 39.9920656], [116.3035205, 39.9920327], [116.3036092, 39.9920211], [116.3037169, 39.9920249], [116.3038013, 39.9920264], [116.3039008, 39.9920442], [116.3039694, 39.9920627], [116.3039929, 39.9920863], [116.3039935, 39.9921227], [116.3039795, 39.9921794], [116.3039461, 39.9922172], [116.3039113, 39.9922416], [116.3038672, 39.9922572], [116.3038189, 39.992272], [116.3037684, 39.992281], [116.3037073, 39.9922861], [116.3036392, 39.9922819], [116.3035199, 39.9926365], [116.3035856, 39.992657], [116.304006, 39.9928305], [116.3041462, 39.9928741], [116.3041786, 39.9928947], [116.3041947, 39.992916], [116.304192, 39.9929347], [116.3042026, 39.9929499], [116.304224, 39.9929587], [116.304252, 39.9929625], [116.3042815, 39.9929635], [116.3043119, 39.992954], [116.3043323, 39.9929388], [116.3043484, 39.9929167], [116.3043622, 39.9929039], [116.3043948, 39.9928963], [116.3044234, 39.9928874], [116.3044584, 39.992873], [116.3044883, 39.9928498], [116.3045132, 39.9928145], [116.3045457, 39.9927768], [116.3045865, 39.9927381], [116.3046217, 39.9927065], [116.3046504, 39.9926781], [116.304697, 39.9926603], [116.3047416, 39.992651], [116.3047989, 39.9926503], [116.3048613, 39.9926585], [116.3049132, 39.9926647], [116.3049939, 39.9926612], [116.305063, 39.992653], [116.3051162, 39.9926483], [116.3051566, 39.9926591], [116.3052043, 39.9926848], [116.3052487, 39.9927203], [116.3052816, 39.9927866], [116.305293, 39.9928397], [116.3053036, 39.9930063], [116.3052607, 39.9934913], [116.3051991, 39.993659], [116.3048723, 39.9940765], [116.3048394, 39.9941246], [116.304847, 39.9941673], [116.3048661, 39.994201], [116.3049176, 39.9942395], [116.3049891, 39.9942672], [116.3050553, 39.9942851], [116.3050529, 39.9943213], [116.3050228, 39.9943336], [116.3049646, 39.9943475], [116.3049366, 39.9943491], [116.3048765, 39.9943021], [116.3048379, 39.9942763], [116.3047955, 39.9942257], [116.3046196, 39.9942187], [116.3037314, 39.9942048], [116.3033451, 39.9941588], [116.3031927, 39.9941078], [116.3031176, 39.9940338], [116.3031337, 39.9937543], [116.30319, 39.9936783], [116.3032705, 39.9936516], [116.3033885, 39.9936742], [116.3034673, 39.993739], [116.3035132, 39.9937471], [116.303599, 39.9937379], [116.303658, 39.9937297], [116.3037144, 39.9937369], [116.3037559, 39.993781], [116.3037993, 39.9938234], [116.3038538, 39.9938375], [116.3038954, 39.9938221], [116.3039008, 39.9937913], [116.3039008, 39.9937081], [116.3038485, 39.9936331], [116.3038268, 39.993574], [116.3038236, 39.9932887], [116.303775, 39.9931212], [116.3036541, 39.9930672], [116.3035094, 39.993043], [116.3033537, 39.9931067], [116.3031629, 39.9931869], [116.3030625, 39.9931745], [116.3029589, 39.993304], [116.3028302, 39.9935341], [116.3028682, 39.9936397], [116.3029329, 39.993667], [116.3029346, 39.9937117], [116.3029993, 39.9937303], [116.3030104, 39.9937511], [116.3029854, 39.9937695], [116.3028161, 39.9937587], [116.3027322, 39.9937508], [116.3026672, 39.9937482], [116.3025905, 39.9936942], [116.3025176, 39.9936193], [116.3024288, 39.9936053], [116.3023751, 39.9936007], [116.3023452, 39.9935697], [116.302344, 39.9935365], [116.3023882, 39.9935032], [116.3024828, 39.9934425], [116.3024896, 39.9933775], [116.3024472, 39.9933222], [116.3023549, 39.9933023], [116.302146, 39.9933631], [116.3018332, 39.9934889], [116.3013727, 39.9937049], [116.3011763, 39.9937128], [116.3009637, 39.9937071], [116.3009466, 39.9936881]]]]}}, {"type": "Feature", "properties": {"name": "", "natural": "water", "waterway": "", "water": "", "source": "osm"}, "geometry": {"type": "MultiPolygon", "coordinates": [[[[116.2980267, 39.9972742], [116.2980536, 39.9972023], [116.2981528, 39.9971941], [116.2989897, 39.9974057], [116.2990487, 39.9974407], [116.2990916, 39.9975146], [116.2990969, 39.997603], [116.2991694, 39.9977694], [116.2992042, 39.9978701], [116.2992042, 39.9979318], [116.29927, 39.9980001], [116.2993551, 39.9980708], [116.2993747, 39.9980685], [116.2993785, 39.9981359], [116.2993593, 39.9981473], [116.2992793, 39.9982637], [116.299245, 39.9982734], [116.2992031, 39.9982908], [116.2991839, 39.9982732], [116.2991529, 39.9982715], [116.2991252, 39.9982937], [116.2990909, 39.9982782], [116.2991059, 39.9982502], [116.2990204, 39.9982109], [116.2991003, 39.9981114], [116.2990716, 39.998007], [116.2990996, 39.9979359], [116.2990862, 39.9978681], [116.299105, 39.9977879], [116.2990916, 39.9977078], [116.2990352, 39.99764], [116.2989709, 39.9975948], [116.2988529, 39.9975372], [116.298598, 39.9974838], [116.2981984, 39.9973975], [116.298075, 39.9973256], [116.2980267, 39.9972742]]]]}}, {"type": "Feature", "properties": {"name": "", "natural": "water", "waterway": "", "water": "", "source": "osm"}, "geometry": {"type": "MultiPolygon", "coordinates": [[[[116.3017956, 39.9952574], [116.3017979, 39.9952025], [116.3018219, 39.9951548], [116.3018506, 39.9951072], [116.3019056, 39.9950907], [116.3019582, 39.9950797], [116.3019988, 39.995076], [116.3020754, 39.9950797], [116.3021256, 39.9950797], [116.3021758, 39.9950669], [116.3022284, 39.9950522], [116.3022954, 39.9950522], [116.3023504, 39.9950614], [116.3023958, 39.9950779], [116.3024101, 39.9951109], [116.302391, 39.9951475], [116.3023695, 39.995164], [116.3023695, 39.9951915], [116.3023695, 39.9952171], [116.3023456, 39.9952336], [116.3022858, 39.9952464], [116.3022284, 39.9952464], [116.3021854, 39.9952391], [116.3021375, 39.9952263], [116.3020945, 39.9952208], [116.3020562, 39.9952464], [116.3020395, 39.9952831], [116.3020275, 39.9953252], [116.3020299, 39.9953564], [116.3020108, 39.9953875], [116.3019725, 39.995404], [116.3019175, 39.9954241], [116.301908, 39.9954498], [116.3019103, 39.9954773], [116.3019103, 39.9955231], [116.3019319, 39.9955451], [116.301963, 39.9955542], [116.301994, 39.9955689], [116.3020299, 39.9955963], [116.3020634, 39.9956165], [116.3021184, 39.9956092], [116.3021854, 39.9955835], [116.3022523, 39.9955652], [116.3023049, 39.9955597], [116.3023719, 39.9955414], [116.3024173, 39.9955249], [116.3024699, 39.9955212], [116.3025202, 39.9955011], [116.3025417, 39.9954681], [116.3025536, 39.9954168], [116.3025465, 39.9953582], [116.3025417, 39.995316], [116.3025321, 39.9952757], [116.3025058, 39.9952098], [116.302501, 39.9951713], [116.3025273, 39.9951567], [116.3025656, 39.9951512], [116.3026182, 39.9951768], [116.3026612, 39.9952244], [116.3026732, 39.9952702], [116.3026636, 39.9953289], [116.3026517, 39.9954278], [116.302623, 39.9954956], [116.3026278, 39.9955286], [116.3026756, 39.9955597], [116.302721, 39.9955762], [116.302776, 39.9955835], [116.3028263, 39.9955835], [116.3028956, 39.9955799], [116.3029458, 39.9955634], [116.3029793, 39.9955194], [116.3030247, 39.9954864], [116.3031037, 39.9954718], [116.3031682, 39.9954773], [116.3032304, 39.9954956], [116.3032806, 39.9955286], [116.3032854, 39.995578], [116.3032711, 39.9956348], [116.3032448, 39.9956678], [116.3031993, 39.9956806], [116.3031347, 39.9956971], [116.3030439, 39.9957154], [116.3029363, 39.9957264], [116.3028573, 39.9957264], [116.3027617, 39.9957136], [116.302733, 39.9956861], [116.302721, 39.9956513], [116.302666, 39.9956367], [116.3026015, 39.9956403], [116.302556, 39.9956495], [116.3025465, 39.9956696], [116.3025871, 39.9956934], [116.3025656, 39.9957136], [116.302513, 39.9957154], [116.3024604, 39.9957136], [116.3023886, 39.9957118], [116.3023097, 39.9957338], [116.3022117, 39.9957502], [116.3021662, 39.9957539], [116.3021088, 39.9957594], [116.3020706, 39.9957832], [116.3020538, 39.995807], [116.3020538, 39.9958309], [116.302049, 39.995851], [116.3020251, 39.9958675], [116.3020132, 39.9959005], [116.3020251, 39.9959206], [116.3020025, 39.9959448], [116.3019743, 39.9959758], [116.3019671, 39.9959905], [116.3019411, 39.9960032], [116.3018912, 39.9960104], [116.3018625, 39.9959976], [116.301841, 39.9959701], [116.3018266, 39.9959096], [116.3018099, 39.99584], [116.3018099, 39.9957942], [116.3018219, 39.9957649], [116.3018123, 39.9957228], [116.3018003, 39.9956641], [116.3018099, 39.995611], [116.3018243, 39.9955744], [116.3018434, 39.9955451], [116.3018601, 39.9955011], [116.3018601, 39.9954516], [116.3018506, 39.9954205], [116.301829, 39.9953783], [116.3017956, 39.995316], [116.3017956, 39.9952574]]]]}}, {"type": "Feature", "properties": {"name": "", "natural": "water", "waterway": "", "water": "", "source": "osm"}, "geometry": {"type": "MultiPolygon", "coordinates": [[[[116.2988646, 39.9917818], [116.298885, 39.9917447], [116.2989259, 39.991729], [116.2992168, 39.9916547], [116.2993163, 39.9916254], [116.2993801, 39.991598], [116.2994388, 39.9915609], [116.2994796, 39.9915159], [116.2995179, 39.9914749], [116.299546, 39.9914299], [116.2995485, 39.9913928], [116.2995531, 39.9913646], [116.2995802, 39.9913687], [116.2996253, 39.9914116], [116.2997263, 39.9914738], [116.2997877, 39.9915332], [116.2998833, 39.9915775], [116.2999573, 39.9916093], [116.300006, 39.9916507], [116.300015, 39.9916784], [116.3000024, 39.9917143], [116.299957, 39.9917543], [116.2999248, 39.9917806], [116.2998497, 39.991811], [116.2997756, 39.9918521], [116.2997016, 39.991885], [116.2996265, 39.991936], [116.2995845, 39.9919743], [116.2995526, 39.9920289], [116.2995314, 39.9920743], [116.2994919, 39.9921115], [116.2994585, 39.9921382], [116.2994176, 39.9921673], [116.2993796, 39.992187], [116.2993114, 39.9922184], [116.2992385, 39.9922405], [116.2991627, 39.9922603], [116.2990883, 39.9922672], [116.2989912, 39.9922707], [116.2989108, 39.9922684], [116.2988774, 39.9922684], [116.2988672, 39.9922549], [116.2988646, 39.9917818]]]]}}, {"type": "Feature", "properties": {"name": "", "natural": "water", "waterway": "", "water": "", "source": "osm"}, "geometry": {"type": "MultiPolygon", "coordinates": [[[[116.2988062, 39.9926213], [116.2988274, 39.9925969], [116.2988547, 39.9925992], [116.2988866, 39.9926143], [116.2989473, 39.9926434], [116.2989867, 39.9926608], [116.2990368, 39.9926852], [116.2990808, 39.9927073], [116.2991066, 39.9927236], [116.2991172, 39.9927596], [116.2991294, 39.9928026], [116.2991339, 39.9928491], [116.2991324, 39.9928828], [116.2991233, 39.9928991], [116.2991142, 39.9929096], [116.2991221, 39.9929498], [116.2989368, 39.9929534], [116.2989094, 39.9928898], [116.298876, 39.9928445], [116.2988608, 39.9928026], [116.2988593, 39.9927584], [116.2988487, 39.9927201], [116.2988274, 39.9926933], [116.2988062, 39.9926538], [116.2988062, 39.9926213]]]]}}, {"type": "Feature", "properties": {"name": "", "natural": "water", "waterway": "", "water": "", "source": "osm"}, "geometry": {"type": "MultiPolygon", "coordinates": [[[[116.2926732, 39.9974998], [116.2927013, 39.9969915], [116.2927472, 39.9969896], [116.2927855, 39.9969642], [116.2928059, 39.9969309], [116.2928237, 39.9968996], [116.2928314, 39.9968547], [116.2928212, 39.9968214], [116.2928084, 39.9967921], [116.2927651, 39.9967648], [116.2927242, 39.996753], [116.2927632, 39.996383], [116.2927839, 39.9963488], [116.2928173, 39.9963117], [116.2928488, 39.9962972], [116.2928978, 39.9963039], [116.2940716, 39.9963743], [116.2940665, 39.9964173], [116.2940665, 39.9964994], [116.2940409, 39.9965385], [116.2939746, 39.996558], [116.293602, 39.9969686], [116.2935153, 39.9969998], [116.2934336, 39.9970585], [116.2934183, 39.9971171], [116.2933622, 39.9971797], [116.2932907, 39.9972422], [116.2932703, 39.9973165], [116.2932193, 39.9973673], [116.2931019, 39.997426], [116.2930202, 39.9974807], [116.2929335, 39.9975628], [116.2929258, 39.997535], [116.2929284, 39.9975154], [116.2929488, 39.9974822], [116.2929488, 39.9974529], [116.2929335, 39.9974216], [116.2929073, 39.9973936], [116.292862, 39.9973805], [116.2928135, 39.9973805], [116.2927625, 39.9973981], [116.2927293, 39.9974216], [116.2927115, 39.9974587], [116.2926987, 39.9974841], [116.2926732, 39.9974998]]]]}}, {"type": "Feature", "properties": {"name": "", "natural": "water", "waterway": "", "water": "", "source": "osm"}, "geometry": {"type": "MultiPolygon", "coordinates": [[[[116.2929743, 39.9978795], [116.2929998, 39.9978091], [116.2930713, 39.997727], [116.2936837, 39.9972305], [116.2944543, 39.996429], [116.2947912, 39.9964446], [116.2948473, 39.9964642], [116.2948881, 39.9965228], [116.2946891, 39.9980789], [116.2944288, 39.9981727], [116.2938623, 39.9981063], [116.2930764, 39.9980163], [116.2929896, 39.9979655], [116.2929743, 39.9978795]], [[116.2939165, 39.9971347], [116.2939273, 39.997172], [116.2939501, 39.9972089], [116.2939598, 39.9972245], [116.2939742, 39.9972757], [116.2940175, 39.9973075], [116.2940843, 39.997313], [116.2941294, 39.9973185], [116.2942016, 39.9973089], [116.2942575, 39.9972909], [116.2943008, 39.9972729], [116.2943225, 39.9972384], [116.2943098, 39.9971941], [116.2942755, 39.9971485], [116.2942503, 39.9971098], [116.2942016, 39.997078], [116.294151, 39.9970642], [116.2940987, 39.9970683], [116.294084, 39.9970723], [116.294032, 39.9970863], [116.2939544, 39.9970974], [116.2939165, 39.9971347]]]]}}, {"type": "Feature", "properties": {"name": "", "natural": "water", "waterway": "", "water": "river", "source": "osm"}, "geometry": {"type": "MultiPolygon", "coordinates": [[[[116.3168007, 39.9988721], [116.3168086, 39.9988098], [116.3175683, 39.9991917], [116.3178406, 39.9993344], [116.317933, 39.9993759], [116.3182148, 39.9994064], [116.3183136, 39.9994247], [116.3194984, 39.9995406], [116.3195701, 39.9995443], [116.3199061, 39.9995577], [116.3199841, 39.9995626], [116.3200781, 39.9995919], [116.3201259, 39.9996285], [116.3202151, 39.9998017], [116.3205447, 40.0005703], [116.3205071, 40.0005899], [116.3204635, 40.000591], [116.3201705, 39.9999322], [116.3200526, 39.9996516], [116.3200128, 39.9996297], [116.3199189, 39.9996126], [116.3194873, 39.999626], [116.3186846, 39.9995235], [116.3179266, 39.9994516], [116.317796, 39.9993991], [116.3177148, 39.9993454], [116.3168007, 39.9988721]]]]}}, {"type": "Feature", "properties": {"name": "", "natural": "water", "waterway": "", "water": "", "source": "osm"}, "geometry": {"type": "MultiPolygon", "coordinates": [[[[116.3041421, 39.9951229], [116.3041912, 39.9950698], [116.304278, 39.9950299], [116.3044052, 39.9950055], [116.3045006, 39.9950299], [116.3045787, 39.9950786], [116.3046799, 39.9951561], [116.3047493, 39.9952137], [116.3048418, 39.9952514], [116.3048678, 39.9952359], [116.3048967, 39.9951783], [116.3049488, 39.9951606], [116.3050182, 39.9951606], [116.3051165, 39.9951672], [116.3051338, 39.9952093], [116.3051338, 39.9952602], [116.3051078, 39.9953821], [116.3050471, 39.9954596], [116.3049979, 39.9955238], [116.3049922, 39.9956124], [116.3049951, 39.9956789], [116.3049488, 39.9957143], [116.3048736, 39.9957011], [116.3048274, 39.9956634], [116.3048042, 39.9955859], [116.3048302, 39.9953909], [116.3048245, 39.9952935], [116.3047046, 39.9952353], [116.3046461, 39.9951932], [116.3044742, 39.9950852], [116.3043573, 39.9950588], [116.3042748, 39.9950878], [116.3041785, 39.9951484], [116.304145, 39.9951473], [116.3041421, 39.9951229]]]]}}, {"type": "Feature", "properties": {"name": "", "natural": "water", "waterway": "", "water": "pond", "source": "osm"}, "geometry": {"type": "MultiPolygon", "coordinates": [[[[116.2963548, 39.9942668], [116.2964416, 39.9941789], [116.296558, 39.994312], [116.2968612, 39.994312], [116.29712, 39.9944035], [116.2972821, 39.9944263], [116.2974423, 39.9943234], [116.2975225, 39.9941546], [116.2975526, 39.9939687], [116.2975236, 39.9939333], [116.2974442, 39.9938364], [116.2973628, 39.9938371], [116.297287, 39.9938121], [116.2972844, 39.9937773], [116.2970948, 39.9937211], [116.2968343, 39.9936785], [116.2966244, 39.9937811], [116.2965561, 39.9938238], [116.2965081, 39.9937908], [116.2964828, 39.9937308], [116.2965334, 39.9936513], [116.2966598, 39.9935758], [116.2968469, 39.9935951], [116.2974539, 39.9935835], [116.2974614, 39.9936397], [116.297641, 39.9936339], [116.2978688, 39.9937114], [116.297958, 39.993868], [116.2978583, 39.9939672], [116.2977391, 39.994028], [116.2976288, 39.9940416], [116.2975889, 39.994164], [116.2975076, 39.9943718], [116.297424, 39.9944961], [116.2973217, 39.9945862], [116.2971654, 39.9945573], [116.2970063, 39.9944856], [116.2968459, 39.9943916], [116.2965383, 39.9943817], [116.2963548, 39.9942668]]]]}}, {"type": "Feature", "properties": {"name": "中水池", "natural": "water", "waterway": "", "water": "pond", "source": "osm"}, "geometry": {"type": "MultiPolygon", "coordinates": [[[[116.3152019, 39.9991611], [116.3152023, 39.9991405], [116.3152152, 39.9991223], [116.3152376, 39.9991108], [116.3152644, 39.9991087], [116.3152895, 39.9991163], [116.3153071, 39.9991319], [116.3153132, 39.9991521], [116.3153063, 39.999172], [116.3152881, 39.9991873], [116.3152628, 39.9991943], [116.3152361, 39.9991916], [116.3152141, 39.9991796], [116.3152019, 39.9991611]]]]}}, {"type": "Feature", "properties": {"name": "", "natural": "water", "waterway": "", "water": "", "source": "osm"}, "geometry": {"type": "MultiPolygon", "coordinates": [[[[116.3010635, 39.9950607], [116.3010671, 39.9950316], [116.3011032, 39.995004], [116.3011177, 39.9949929], [116.3012945, 39.9949542], [116.3013053, 39.9948989], [116.3012927, 39.9948533], [116.3012548, 39.994798], [116.3012092, 39.9947779], [116.301188, 39.9947593], [116.3012046, 39.9947506], [116.3012313, 39.9947535], [116.3012728, 39.9947687], [116.3012981, 39.9948046], [116.301336, 39.9948738], [116.3013667, 39.9949968], [116.3013757, 39.9950742], [116.3013486, 39.9951336], [116.3013396, 39.9951765], [116.3013576, 39.9952346], [116.3013955, 39.9952954], [116.3013955, 39.9953341], [116.301354, 39.9953797], [116.3013179, 39.9953949], [116.3012945, 39.9954474], [116.3012981, 39.995547], [116.3013342, 39.9955884], [116.3013703, 39.9956022], [116.3014064, 39.9956313], [116.3014118, 39.9956506], [116.3013919, 39.9956755], [116.3013486, 39.995717], [116.3012945, 39.9957667], [116.3012365, 39.9957913], [116.3012213, 39.9957863], [116.3012043, 39.9957806], [116.3011989, 39.9957432], [116.3012259, 39.9957267], [116.3012584, 39.9957073], [116.3012367, 39.9956382], [116.3011989, 39.9955981], [116.3011952, 39.9955304], [116.3012007, 39.995493], [116.3012313, 39.9954474], [116.3012494, 39.9953424], [116.3012656, 39.9952636], [116.3012638, 39.9952028], [116.3012494, 39.995182], [116.3011555, 39.9951395], [116.3011122, 39.9951049], [116.3010635, 39.9950607]]]]}}, {"type": "Feature", "properties": {"name": "", "natural": "water", "waterway": "", "water": "basin", "source": "osm"}, "geometry": {"type": "MultiPolygon", "coordinates": [[[[116.333628, 39.9913126], [116.3336437, 39.9910215], [116.3337483, 39.9910215], [116.3337284, 39.9913154], [116.333628, 39.9913126]]]]}}, {"type": "Feature", "properties": {"name": "", "natural": "water", "waterway": "", "water": "", "source": "osm"}, "geometry": {"type": "MultiPolygon", "coordinates": [[[[116.3282539, 39.9871907], [116.328266, 39.9871548], [116.3282861, 39.9871126], [116.3283196, 39.9870551], [116.3283826, 39.9870068], [116.3284269, 39.9869893], [116.3284644, 39.9869492], [116.3285221, 39.9869287], [116.3286066, 39.9869092], [116.3287112, 39.9868968], [116.3287863, 39.9868917], [116.328861, 39.9868678], [116.3288869, 39.9868598], [116.3289486, 39.9868301], [116.329013, 39.9867766], [116.3290974, 39.9867252], [116.3291752, 39.9867283], [116.3293308, 39.9867653], [116.3293831, 39.9868383], [116.3292034, 39.9868527], [116.3290519, 39.9868999], [116.3290049, 39.9869266], [116.3289285, 39.9869688], [116.3288681, 39.9870171], [116.3288011, 39.987053], [116.3287246, 39.9870674], [116.3286442, 39.9870726], [116.3285758, 39.9870818], [116.3284805, 39.9871352], [116.3284618, 39.987202], [116.3284135, 39.9872719], [116.328333, 39.9872698], [116.3282676, 39.9872301], [116.3282539, 39.9871907]]]]}}, {"type": "Feature", "properties": {"name": "", "natural": "water", "waterway": "", "water": "", "source": "osm"}, "geometry": {"type": "MultiPolygon", "coordinates": [[[[116.3020252, 39.9962536], [116.3020287, 39.9962081], [116.3020516, 39.9961572], [116.3020746, 39.9960888], [116.3021205, 39.9960263], [116.3022022, 39.9959715], [116.3022966, 39.9959422], [116.3024395, 39.9959227], [116.3025722, 39.995907], [116.3027074, 39.9959051], [116.3027891, 39.9959266], [116.3028656, 39.9959618], [116.3029447, 39.9959774], [116.3030621, 39.9959813], [116.3032203, 39.9959989], [116.3033377, 39.9960126], [116.3034551, 39.9960263], [116.3035112, 39.9960165], [116.3035699, 39.9959872], [116.3036541, 39.9959579], [116.3036924, 39.99595], [116.3037587, 39.9959676], [116.3038021, 39.9959833], [116.3038608, 39.9960439], [116.3039348, 39.9960908], [116.3039884, 39.9961377], [116.3040496, 39.996167], [116.3041007, 39.9961846], [116.3041721, 39.9961905], [116.3042334, 39.9961885], [116.3043176, 39.9961788], [116.3043941, 39.9961533], [116.3044579, 39.9961533], [116.3045013, 39.9961905], [116.3045804, 39.9962335], [116.304611, 39.9962628], [116.3047106, 39.9963801], [116.3047208, 39.996429], [116.3047641, 39.9964994], [116.3048279, 39.9965873], [116.3049275, 39.9966323], [116.3050755, 39.9966616], [116.3051852, 39.9966987], [116.3052643, 39.9967496], [116.3053179, 39.9968434], [116.3053434, 39.996906], [116.3053459, 39.9969587], [116.3052949, 39.997035], [116.305249, 39.997162], [116.3050857, 39.9975472], [116.305027, 39.9976293], [116.3049453, 39.9976664], [116.304856, 39.9976879], [116.3047769, 39.9976605], [116.3047182, 39.9976253], [116.3046595, 39.997596], [116.3045728, 39.9975784], [116.3044783, 39.9975706], [116.3043967, 39.9975647], [116.3043074, 39.997555], [116.3042257, 39.9975647], [116.3040556, 39.9975556], [116.3038763, 39.9975367], [116.3035253, 39.9974579], [116.3034384, 39.9974025], [116.3033602, 39.9973247], [116.3033045, 39.9973106], [116.3032203, 39.997293], [116.3031438, 39.9972754], [116.3030672, 39.9972324], [116.3030289, 39.9972246], [116.3029703, 39.9972402], [116.3029141, 39.9972617], [116.3028631, 39.9972578], [116.3027942, 39.9972422], [116.3027585, 39.9972246], [116.3027278, 39.9971796], [116.3027023, 39.9971269], [116.3026794, 39.9970858], [116.302664, 39.9970448], [116.3026666, 39.9969744], [116.3026258, 39.996949], [116.3025849, 39.996863], [116.3026028, 39.9967769], [116.3025926, 39.9967066], [116.3025773, 39.9966812], [116.3025416, 39.9966518], [116.3025007, 39.9966284], [116.3024318, 39.996603], [116.3023731, 39.9965639], [116.3023323, 39.9965209], [116.302266, 39.9964915], [116.3021971, 39.9964642], [116.3021205, 39.996427], [116.3020646, 39.9963625], [116.3020406, 39.9963154], [116.3020252, 39.9962536]], [[116.3021697, 39.9963076], [116.3022121, 39.996382], [116.3022546, 39.9964075], [116.3023305, 39.9964378], [116.3023942, 39.9964494], [116.3024792, 39.9964703], [116.3025399, 39.9964912], [116.3025763, 39.9965215], [116.3026248, 39.9965726], [116.3026613, 39.9966214], [116.302643, 39.9966447], [116.302643, 39.9966772], [116.3026522, 39.996726], [116.3026946, 39.9967586], [116.3027128, 39.9968051], [116.3027128, 39.9968562], [116.3027219, 39.9969004], [116.302725, 39.9969515], [116.3027402, 39.9970166], [116.3027735, 39.9970678], [116.3027978, 39.9971026], [116.3028767, 39.9971259], [116.3031195, 39.9971863], [116.3031862, 39.9971863], [116.3032348, 39.9972282], [116.3032742, 39.9972491], [116.3033258, 39.9972514], [116.3033774, 39.9972282], [116.3034381, 39.9972119], [116.3035079, 39.9972119], [116.3035777, 39.9972165], [116.3036596, 39.9972351], [116.3037567, 39.9972468], [116.3038296, 39.9972677], [116.3038933, 39.9972863], [116.3039601, 39.9972979], [116.304039, 39.9973212], [116.3040966, 39.9973421], [116.3041603, 39.9973491], [116.3042392, 39.9973374], [116.3043363, 39.9973002], [116.3044031, 39.9972444], [116.3044911, 39.9971887], [116.30457, 39.9971166], [116.3046459, 39.9970724], [116.3047217, 39.9970631], [116.3047824, 39.9970887], [116.304837, 39.9971143], [116.3049068, 39.997105], [116.3049524, 39.9970654], [116.3050039, 39.997005], [116.3050525, 39.9969515], [116.3050828, 39.9968957], [116.3050828, 39.9968609], [116.3050798, 39.9968167], [116.3050373, 39.9967911], [116.3049918, 39.9967934], [116.3049311, 39.9968097], [116.3048583, 39.9967888], [116.3048735, 39.9967539], [116.3048431, 39.9967074], [116.3047976, 39.9966888], [116.3047703, 39.9966354], [116.3047248, 39.9965563], [116.3046792, 39.9964866], [116.3046368, 39.996454], [116.3044941, 39.9964052], [116.3044001, 39.9963913], [116.3042848, 39.9963657], [116.3041846, 39.9963517], [116.3040966, 39.9963448], [116.3040086, 39.9963448], [116.3039145, 39.9963239], [116.3038235, 39.9963006], [116.3037567, 39.9962681], [116.3036809, 39.9962099], [116.3036657, 39.9961774], [116.3036111, 39.9961472], [116.3035993, 39.9961407], [116.3035944, 39.996138], [116.3035565, 39.996117], [116.3034624, 39.9961053], [116.3033683, 39.9960937], [116.3032135, 39.9960728], [116.3029435, 39.9960519], [116.3028403, 39.9960519], [116.3028069, 39.9960147], [116.3027189, 39.996003], [116.3026613, 39.99601], [116.3025915, 39.9960333], [116.302549, 39.9960705], [116.3024822, 39.9960867], [116.3024367, 39.9961077], [116.302379, 39.9961355], [116.3023244, 39.9961565], [116.3022698, 39.9961983], [116.302203, 39.9962402], [116.3021757, 39.9962797], [116.3021697, 39.9963076]]]]}}, {"type": "Feature", "properties": {"name": "", "natural": "water", "waterway": "", "water": "pond", "source": "osm"}, "geometry": {"type": "MultiPolygon", "coordinates": [[[[116.3087172, 39.9836559], [116.3088115, 39.9835651], [116.3089181, 39.9835204], [116.3090368, 39.9835422], [116.3091203, 39.9836074], [116.3091196, 39.9836824], [116.3088764, 39.9837127], [116.3087172, 39.9836559]]]]}}, {"type": "Feature", "properties": {"name": "华宇池", "natural": "water", "waterway": "", "water": "pond", "source": "osm"}, "geometry": {"type": "MultiPolygon", "coordinates": [[[[116.3168802, 39.9937122], [116.3168963, 39.99355], [116.3171162, 39.9935628], [116.3171, 39.993725], [116.3168802, 39.9937122]]]]}}, {"type": "Feature", "properties": {"name": "", "natural": "water", "waterway": "", "water": "river", "source": "osm"}, "geometry": {"type": "MultiPolygon", "coordinates": [[[[116.309278, 39.9983977], [116.3092791, 39.9983241], [116.3095153, 39.9983275], [116.3110936, 39.9983765], [116.3113121, 39.9984027], [116.3114137, 39.9984645], [116.311396, 39.9984966], [116.3112294, 39.9984864], [116.3111764, 39.9984628], [116.3110682, 39.9984365], [116.3106709, 39.9984179], [116.3103254, 39.998407], [116.3099424, 39.998396], [116.3097084, 39.9983833], [116.3095042, 39.9983807], [116.309278, 39.9983977]]]]}}, {"type": "Feature", "properties": {"name": "", "natural": "water", "waterway": "", "water": "river", "source": "osm"}, "geometry": {"type": "MultiPolygon", "coordinates": [[[[116.3117518, 39.9983759], [116.3117664, 39.9983585], [116.311811, 39.998361], [116.3118629, 39.9983753], [116.3119238, 39.9983977], [116.3119765, 39.9983995], [116.3120519, 39.9983995], [116.3121525, 39.9984138], [116.3122393, 39.998402], [116.3123845, 39.9984008], [116.3125297, 39.9984132], [116.3126765, 39.9984182], [116.3129612, 39.9984262], [116.3137633, 39.9984697], [116.3140797, 39.9984983], [116.3146044, 39.9985238], [116.3156269, 39.9985351], [116.3159287, 39.9985632], [116.3162493, 39.9985901], [116.3163685, 39.9986145], [116.3166074, 39.9986897], [116.3168086, 39.9988098], [116.3168007, 39.9988721], [116.3165196, 39.9987338], [116.3162284, 39.9986406], [116.3159058, 39.998624], [116.3151657, 39.9985915], [116.3149565, 39.9985928], [116.3148275, 39.998589], [116.3146864, 39.9985698], [116.3144447, 39.9985698], [116.3141697, 39.9985611], [116.3138436, 39.9985474], [116.3136676, 39.9985406], [116.3131672, 39.9985157], [116.3130082, 39.9985101], [116.3126262, 39.9984884], [116.3121347, 39.9984579], [116.3117737, 39.9984461], [116.3117672, 39.9984119], [116.3117518, 39.9983759]]]]}}, {"type": "Feature", "properties": {"name": "", "natural": "water", "waterway": "", "water": "river", "source": "osm"}, "geometry": {"type": "MultiPolygon", "coordinates": [[[[116.3112381, 40.0003855], [116.3112819, 40.0001693], [116.3112993, 40.0000361], [116.3113299, 39.9998321], [116.3113605, 39.999634], [116.3113792, 39.9994934], [116.3113862, 39.9993709], [116.3114001, 39.9992372], [116.3114154, 39.9990955], [116.311421, 39.9989394], [116.311421, 39.9988537], [116.3114098, 39.9986305], [116.311487, 39.9986305], [116.3115093, 39.9986758], [116.3115183, 39.9988313], [116.3115246, 39.9989692], [116.3115225, 39.9990289], [116.3115058, 39.9993032], [116.3114856, 39.9996766], [116.3114105, 40.000165], [116.3113737, 40.0003877], [116.3113674, 40.0004686], [116.3113681, 40.0005426], [116.3113911, 40.0006449], [116.3114363, 40.000728], [116.3114891, 40.0008271], [116.3115093, 40.0009107], [116.3115107, 40.0010135], [116.3115162, 40.0011472], [116.3115058, 40.0013368], [116.3114835, 40.0016478], [116.3114863, 40.0017272], [116.3113883, 40.0017341], [116.3113869, 40.001553], [116.311389, 40.0014156], [116.3114001, 40.0010827], [116.3114057, 40.0009682], [116.3113876, 40.0008809], [116.3113563, 40.0007754], [116.3113278, 40.0007083], [116.3112895, 40.0006316], [116.3112631, 40.0005315], [116.3112513, 40.0004638], [116.3112381, 40.0003855]]]]}}, {"type": "Feature", "properties": {"name": "", "natural": "water", "waterway": "", "water": "", "source": "osm"}, "geometry": {"type": "MultiPolygon", "coordinates": [[[[116.2994483, 39.9985071], [116.299459, 39.998166], [116.2994959, 39.9980537], [116.2995636, 39.9979811], [116.299628, 39.9979071], [116.2996709, 39.9978229], [116.2997594, 39.9975681], [116.2998345, 39.9973996], [116.2999499, 39.997303], [116.3000572, 39.997264], [116.3001618, 39.9972537], [116.3002744, 39.9972753], [116.3004005, 39.9972825], [116.3006271, 39.9972814], [116.3007961, 39.9972999], [116.3010027, 39.9973472], [116.3011542, 39.9974263], [116.3013835, 39.9976102], [116.3014667, 39.9976821], [116.3014962, 39.9977396], [116.3015069, 39.9978403], [116.3014989, 39.9978835], [116.3014546, 39.9979122], [116.3012843, 39.9979379], [116.3009919, 39.9979184], [116.3007371, 39.997903], [116.3005118, 39.9978896], [116.300438, 39.9978979], [116.3003482, 39.9979287], [116.3000868, 39.9981205], [116.3000303, 39.9981978], [116.2999539, 39.9983222], [116.2999083, 39.9984629], [116.2998882, 39.9985769], [116.2998131, 39.9989304], [116.299746, 39.9992961], [116.2998372, 39.9993721], [116.2999633, 39.9993947], [116.3002101, 39.9993269], [116.3004595, 39.9992838], [116.300666, 39.9992756], [116.3008618, 39.9992694], [116.3010845, 39.9992612], [116.3012078, 39.9992242], [116.3012665, 39.9991635], [116.3015002, 39.9989982], [116.3016209, 39.9989838], [116.3022172, 39.99915], [116.302182, 39.9993658], [116.3021996, 39.9996311], [116.3023522, 39.9998199], [116.3024227, 39.9999413], [116.3024637, 40.0000222], [116.3024285, 40.0001032], [116.302499, 40.0001481], [116.3026339, 40.0001167], [116.3027748, 39.9999728], [116.3029333, 39.9999728], [116.3031518, 40.0000271], [116.303215, 40.0000132], [116.3032617, 40.0000034], [116.303312, 40.0000075], [116.3033549, 40.000024], [116.303428, 40.0000481], [116.3034837, 40.0000877], [116.3035253, 40.0001113], [116.3035662, 40.0001329], [116.3035984, 40.0001426], [116.3036359, 40.0001478], [116.3036983, 40.0001545], [116.3037613, 40.0001524], [116.3038009, 40.0001483], [116.3039075, 40.0000897], [116.3041071, 39.9999953], [116.3041892, 39.9999143], [116.3041263, 39.9997791], [116.3041322, 39.9996328], [116.3041466, 39.9994445], [116.3042004, 39.9993298], [116.3043743, 39.9992232], [116.3046308, 39.9991211], [116.3048516, 39.9991107], [116.3051695, 39.9991071], [116.3053356, 39.9991254], [116.3054305, 39.9992448], [116.3054332, 39.9993833], [116.3053699, 39.9995411], [116.3054278, 39.9995776], [116.3053827, 39.9997919], [116.3052936, 40.0000607], [116.3051371, 40.000278], [116.3049757, 40.0004538], [116.3047861, 40.0006526], [116.3046646, 40.0010113], [116.3044166, 40.0015698], [116.3045771, 40.0016795], [116.3046324, 40.001688], [116.3047742, 40.0017845], [116.3052078, 40.0019303], [116.3053529, 40.0019984], [116.3058129, 40.0021201], [116.3062339, 40.0021729], [116.3065817, 40.0022197], [116.3068665, 40.0022205], [116.3070212, 40.0022189], [116.3073278, 40.002222], [116.3075631, 40.0022289], [116.3075361, 40.0024032], [116.3074132, 40.0027235], [116.3072591, 40.0031415], [116.3071752, 40.0033213], [116.3071721, 40.0034308], [116.3071157, 40.0035461], [116.3070723, 40.0037025], [116.3069729, 40.0039267], [116.3069038, 40.0041537], [116.3068855, 40.0043415], [116.3068053, 40.0045184], [116.3066998, 40.004601], [116.3065129, 40.0046693], [116.3062472, 40.0046985], [116.306085, 40.0047153], [116.3059807, 40.0047139], [116.3058765, 40.0046918], [116.3055378, 40.0046964], [116.3056271, 40.0045135], [116.3055332, 40.0043382], [116.3055431, 40.0042188], [116.3054648, 40.0041042], [116.3054285, 40.0039852], [116.3052969, 40.0039026], [116.3049415, 40.0039657], [116.3048664, 40.0040796], [116.3048469, 40.0041629], [116.3047572, 40.0042993], [116.3047558, 40.004406], [116.3047846, 40.0044775], [116.3047483, 40.0045083], [116.3047162, 40.0045642], [116.304624, 40.0046463], [116.3045871, 40.0046831], [116.3045506, 40.0047138], [116.3045006, 40.0047262], [116.3044356, 40.0047266], [116.3043865, 40.0047015], [116.3042706, 40.004677], [116.3041715, 40.0046691], [116.3041143, 40.0046754], [116.3040557, 40.004682], [116.3039899, 40.004674], [116.3039233, 40.004665], [116.303846, 40.0046508], [116.3034372, 40.0045259], [116.3033905, 40.0045135], [116.3033259, 40.0045283], [116.3032712, 40.0045647], [116.3032042, 40.0045946], [116.3031428, 40.0046106], [116.3030819, 40.0046169], [116.303033, 40.0046084], [116.3029604, 40.0045855], [116.3029085, 40.004554], [116.3028559, 40.0045092], [116.3028265, 40.0044496], [116.301959, 40.0043292], [116.3015288, 40.0041987], [116.3013605, 40.0042533], [116.3012428, 40.0042449], [116.3011908, 40.0042047], [116.3012396, 40.0041916], [116.301331, 40.0041763], [116.3014356, 40.0040796], [116.3014425, 40.0037357], [116.3015482, 40.0034795], [116.3012665, 40.0030074], [116.3010787, 40.0027152], [116.3014602, 40.0018251], [116.3018768, 40.0012046], [116.3019414, 40.0009529], [116.3017712, 40.0006966], [116.3012841, 40.0006831], [116.3007383, 40.0005887], [116.300304, 40.0002066], [116.3000633, 39.9998514], [116.2997273, 39.9994625], [116.299628, 39.9992838], [116.2995797, 39.9991112], [116.2994805, 39.9988728], [116.2994483, 39.9985071]], [[116.301109, 39.9999828], [116.3012211, 40.0000464], [116.3017606, 40.000164], [116.3022005, 40.0001799], [116.3023042, 40.0001895], [116.3023831, 40.0000877], [116.3023831, 40.0000019], [116.3023208, 39.9998716], [116.3022212, 39.9997285], [116.30191, 39.9996109], [116.3014535, 39.9995187], [116.3012543, 39.9996014], [116.301109, 39.9999828]], [[116.3011588, 40.0026532], [116.3011713, 40.0027486], [116.3014825, 40.0032191], [116.301607, 40.0033971], [116.301744, 40.0034575], [116.3020801, 40.0034797], [116.3024204, 40.0034924], [116.3027524, 40.0034734], [116.3028935, 40.0033494], [116.3029475, 40.0031142], [116.302852, 40.0027486], [116.3026445, 40.0023894], [116.3024827, 40.0022876], [116.3023001, 40.0023131], [116.3019058, 40.0022209], [116.3018851, 40.0021478], [116.3019764, 40.0020111], [116.3020511, 40.0019252], [116.3024329, 40.0018775], [116.302657, 40.0019729], [116.3026238, 40.0021859], [116.3027151, 40.0024053], [116.3029184, 40.0027327], [116.3030139, 40.0031269], [116.3031508, 40.0032699], [116.3034289, 40.0033653], [116.3037235, 40.003378], [116.3039767, 40.0034193], [116.3040597, 40.003378], [116.3040638, 40.0032095], [116.3040721, 40.0031396], [116.3040057, 40.0030665], [116.3038439, 40.0029647], [116.3037235, 40.0028217], [116.3033293, 40.0027645], [116.3032504, 40.0027359], [116.3034081, 40.0024243], [116.303736, 40.0024243], [116.3041095, 40.0024021], [116.3042215, 40.0022431], [116.3042215, 40.0020937], [116.3040223, 40.0019793], [116.303433, 40.0019411], [116.3034579, 40.0018616], [116.3034496, 40.0016582], [116.303238, 40.0016264], [116.3029848, 40.0016137], [116.3026072, 40.00162], [116.3024163, 40.0016073], [116.3020718, 40.0016359], [116.3018187, 40.0016487], [116.3016983, 40.0017027], [116.3015157, 40.0019983], [116.3013663, 40.0023162], [116.3012916, 40.0024593], [116.3011588, 40.0026532]], [[116.3018168, 40.0015066], [116.3020013, 40.0015501], [116.3021963, 40.0015596], [116.3025823, 40.0015437], [116.3027898, 40.0015469], [116.3029516, 40.0015437], [116.3033293, 40.0015755], [116.3034704, 40.0015469], [116.3034455, 40.0014675], [116.3034745, 40.0010955], [116.3034745, 40.0009747], [116.3035202, 40.0007617], [116.3037028, 40.0006695], [116.3039186, 40.0004692], [116.3040597, 40.0001672], [116.3039149, 40.0001514], [116.3038605, 40.0001596], [116.3037707, 40.0001853], [116.3036607, 40.0001997], [116.3035588, 40.0002038], [116.3034122, 40.0002388], [116.303272, 40.0002729], [116.3031826, 40.0002491], [116.3030222, 40.000199], [116.3029405, 40.0002361], [116.3028122, 40.0002593], [116.3027348, 40.0002361], [116.3026694, 40.000199], [116.3024661, 40.0002149], [116.3022586, 40.0003453], [116.3023789, 40.0005869], [116.3023582, 40.0007712], [116.3022212, 40.0008634], [116.3020594, 40.0009143], [116.3019847, 40.0011686], [116.3018168, 40.0015066]], [[116.3028714, 40.0044326], [116.3028719, 40.0044593], [116.3028802, 40.00448], [116.3029078, 40.0044931], [116.3029425, 40.0045125], [116.302979, 40.0045464], [116.3030369, 40.0045662], [116.3030778, 40.0045713], [116.3031048, 40.0045751], [116.303139, 40.0045688], [116.3031743, 40.0045552], [116.3032163, 40.0045358], [116.3032538, 40.0045163], [116.3032808, 40.0045054], [116.3032891, 40.0044842], [116.3032819, 40.0044686], [116.3032521, 40.0044551], [116.3031909, 40.0044381], [116.3031186, 40.0044339], [116.3030811, 40.0044221], [116.3030452, 40.0044018], [116.3029872, 40.0043916], [116.302931, 40.0043984], [116.3028967, 40.0044107], [116.3028714, 40.0044326]], [[116.3035119, 40.0013816], [116.3035409, 40.0014992], [116.3038356, 40.001566], [116.3041551, 40.0015374], [116.3043709, 40.0014961], [116.3044581, 40.0011591], [116.3045491, 40.00084], [116.3041616, 40.0007991], [116.3038952, 40.0007623], [116.3036751, 40.0008024], [116.3035534, 40.0009715], [116.3035119, 40.0013816]], [[116.3038522, 40.0027867], [116.3039061, 40.0028885], [116.3039601, 40.0029838], [116.3041261, 40.0030601], [116.3041302, 40.0031873], [116.3041634, 40.0033335], [116.3041468, 40.0035433], [116.3045786, 40.0037417], [116.3049282, 40.0038113], [116.3052341, 40.0038231], [116.30523, 40.0036991], [116.305176, 40.0035115], [116.3052051, 40.0033589], [116.3052632, 40.0032445], [116.3051677, 40.0031396], [116.3049146, 40.0029934], [116.3049063, 40.0027677], [116.3049934, 40.0023798], [116.3050183, 40.0020683], [116.3049519, 40.0019793], [116.3045748, 40.001729], [116.3045763, 40.0016809], [116.3044132, 40.0015731], [116.304346, 40.001833], [116.3043709, 40.0021287], [116.3043294, 40.0023607], [116.3041842, 40.0024784], [116.3039476, 40.0026723], [116.3038522, 40.0027867]], [[116.3044229, 40.0002027], [116.3048221, 40.0002803], [116.3049199, 39.9999855], [116.3045207, 39.9999078], [116.3044229, 40.0002027]], [[116.3057985, 40.0033303], [116.3058044, 40.0035743], [116.3059102, 40.0036863], [116.306124, 40.0037098], [116.3063611, 40.0037587], [116.3064293, 40.0035338], [116.3062467, 40.0033621], [116.3061098, 40.0032191], [116.3058649, 40.0032477], [116.3057985, 40.0033303]], [[116.3064997, 40.0037006], [116.306763, 40.0037239], [116.3067966, 40.0035013], [116.3065331, 40.003478], [116.3064997, 40.0037006]], [[116.3067716, 40.0030632], [116.3067801, 40.0031379], [116.3068104, 40.0031995], [116.3068501, 40.0032321], [116.3070119, 40.003214], [116.3070706, 40.0031632], [116.3071122, 40.003127], [116.3071775, 40.0030248], [116.3072144, 40.002953], [116.307256, 40.0028654], [116.3073024, 40.0027624], [116.3073563, 40.0026501], [116.3073923, 40.0025312], [116.307432, 40.0024196], [116.3074519, 40.0023283], [116.307414, 40.0023022], [116.3072929, 40.0022689], [116.3071425, 40.002266], [116.3070356, 40.0022964], [116.3070024, 40.0023363], [116.3069987, 40.0024348], [116.3069485, 40.0026015], [116.3069305, 40.0027001], [116.3069419, 40.002761], [116.3067933, 40.0030241], [116.3067716, 40.0030632]]]]}}]}