{
 "type": "FeatureCollection",
 "features": [
  {
   "type": "Feature",
   "geometry": {
    "type": "Polygon",
    "coordinates": [
     [
      [
       116.2960473175684,
       39.99154354345538
      ],
      [
       116.33595268243161,
       39.99154354345538
      ],
      [
       116.33595268243161,
       39.99208313567362
      ],
      [
       116.2960473175684,
       39.99208313567362
      ],
      [
       116.2960473175684,
       39.99154354345538
      ]
     ]
    ]
   },
   "properties": {
    "natural": "water",
    "water": "river",
    "name": "万泉河"
   }
  }
 ]
}