{
 "type": "FeatureCollection",
 "features": [
  {
   "type": "Feature",
   "geometry": {
    "type": "Polygon",
    "coordinates": [
     [
      [
       116.38295601816993,
       39.810740951490786
      ],
      [
       116.38436093286073,
       39.810740951490786
      ],
      [
       116.38436093286073,
       39.81164027185451
      ],
      [
       116.38295601816993,
       39.81164027185451
      ],
      [
       116.38295601816993,
       39.810740951490786
      ]
     ]
    ]
   },
   "properties": {
    "building": "retail",
    "shop": "mall",
    "name": "南苑购物中心",
    "pois": [
     "南苑购物中心",
     "首航超市"
    ]
   }
  },
  {
   "type": "Feature",
   "geometry": {
    "type": "Polygon",
    "coordinates": [
     [
      [
       116.39302457345397,
       39.81469796109117
      ],
      [
       116.39396118324784,
       39.81469796109117
      ],
      [
       116.39396118324784,
       39.81523755330941
      ],
      [
       116.39302457345397,
       39.81523755330941
      ],
      [
       116.39302457345397,
       39.81469796109117
      ]
     ]
    ]
   },
   "properties": {
    "building": "office",
    "name": "南苑办公楼"
   }
  },
  {
   "type": "Feature",
   "geometry": {
    "type": "Polygon",
    "coordinates": [
     [
      [
       116.37546313981903,
       39.80660407781765
      ],
      [
       116.37721928318253,
       39.80660407781765
      ],
      [
       116.37721928318253,
       39.80768326225412
      ],
      [
       116.37546313981903,
       39.80768326225412
      ],
      [
       116.37546313981903,
       39.80660407781765
      ]
     ]
    ]
   },
   "properties": {
    "leisure": "park",
    "name": "南苑口袋公园"
   }
  },
  {
   "type": "Feature",
   "geometry": {
    "type": "Polygon",
    "coordinates": [
     [
      [
       116.36981212067205,
       39.815818752278474
      ],
      [
       116.37057729878505,
       39.815818752278474
      ],
      [
       116.37057729878505,
       39.81627513099504
      ],
      [
       116.36981212067205,
       39.81627513099504
      ],
      [
       116.36981212067205,
       39.815818752278474
      ]
     ]
    ]
   },
   "properties": {
    "building": "apartments",
    "name": "南苑1区"
   }
  },
  {
   "type": "Feature",
   "geometry": {
    "type": "Polygon",
    "coordinates": [
     [
      [
       116.36984873755658,
       39.82397325111403
      ],
      [
       116.37054068190051,
       39.82397325111403
      ],
      [
       116.37054068190051,
       39.82430839870653
      ],
      [
       116.36984873755658,
       39.82430839870653
      ],
      [
       116.36984873755658,
       39.82397325111403
      ]
     ]
    ]
   },
   "properties": {
    "building": "apartments",
    "name": "南苑2区"
   }
  },
  {
   "type": "Feature",
   "geometry": {
    "type": "Polygon",
    "coordinates": [
     [
      [
       116.37324181864919,
       39.80498926291858
      ],
      [
       116.37417217426189,
       39.80498926291858
      ],
      [
       116.37417217426189,
       39.805520931625544
      ],
      [
       116.37324181864919,
       39.805520931625544
      ],
      [
       116.37324181864919,
       39.80498926291858
      ]
     ]
    ]
   },
   "properties": {
    "building": "apartments",
    "name": "南苑3区"
   }
  },
  {
   "type": "Feature",
   "geometry": {
    "type": "Polygon",
    "coordinates": [
     [
      [
       116.37341167155049,
       39.81313220147787
      ],
      [
       116.37400232136058,
       39.81313220147787
      ],
      [
       116.37400232136058,
       39.8135657596133
      ],
      [
       116.37341167155049,
       39.8135657596133
      ],
      [
       116.37341167155049,
       39.81313220147787
      ]
     ]
    ]
   },
   "properties": {
    "building": "apartments",
    "name": "南苑4区"
   }
  },
  {
   "type": "Feature",
   "geometry": {
    "type": "Polygon",
    "coordinates": [
     [
      [
       116.37338090259712,
       39.815862362538226
      ],
      [
       116.37403309031396,
       39.815862362538226
      ],
      [
       116.37403309031396,
       39.81623152073529
      ],
      [
       116.37338090259712,
       39.81623152073529
      ],
      [
       116.37338090259712,
       39.815862362538226
      ]
     ]
    ]
   },
   "properties": {
    "building": "apartments",
    "name": "南苑5区"
   }
  },
  {
   "type": "Feature",
   "geometry": {
    "type": "Polygon",
    "coordinates": [
     [
      [
       116.37333283235243,
       39.821235960429945
      ],
      [
       116.37408116055863,
       39.821235960429945
      ],
      [
       116.37408116055863,
       39.821649767208264
      ],
      [
       116.37333283235243,
       39.821649767208264
      ],
      [
       116.37333283235243,
       39.821235960429945
      ]
     ]
    ]
   },
   "properties": {
    "building": "apartments",
    "name": "南苑6区"
   }
  },
  {
   "type": "Feature",
   "geometry": {
    "type": "Polygon",
    "coordinates": [
     [
      [
       116.37675138989039,
       39.813079668760764
      ],
      [
       116.37768717647465,
       39.813079668760764
      ],
      [
       116.37768717647465,
       39.8136182923304
      ],
      [
       116.37675138989039,
       39.8136182923304
      ],
      [
       116.37675138989039,
       39.813079668760764
      ]
     ]
    ]
   },
   "properties": {
    "building": "apartments",
    "name": "南苑7区"
   }
  },
  {
   "type": "Feature",
   "geometry": {
    "type": "Polygon",
    "coordinates": [
     [
      [
       116.38038811979041,
       39.799693899848165
      ],
      [
       116.38107502002862,
       39.799693899848165
      ],
      [
       116.38107502002862,
       39.800024450331264
      ],
      [
       116.38038811979041,
       39.800024450331264
      ],
      [
       116.38038811979041,
       39.799693899848165
      ]
     ]
    ]
   },
   "properties": {
    "building": "apartments",
    "name": "南苑8区"
   }
  },
  {
   "type": "Feature",
   "geometry": {
    "type": "Polygon",
    "coordinates": [
     [
      [
       116.38040204996432,
       39.82118315449527
      ],
      [
       116.38106108985471,
       39.82118315449527
      ],
      [
       116.38106108985471,
       39.82170257314294
      ],
      [
       116.38040204996432,
       39.82170257314294
      ],
      [
       116.38040204996432,
       39.82118315449527
      ]
     ]
    ]
   },
   "properties": {
    "building": "apartments",
    "name": "南苑9区"
   }
  },
  {
   "type": "Feature",
   "geometry": {
    "type": "Polygon",
    "coordinates": [
     [
      [
       116.38384062476925,
       39.805010199874836
      ],
      [
       116.38464708850375,
       39.805010199874836
      ],
      [
       116.38464708850375,
       39.80549999466929
      ],
      [
       116.38384062476925,
       39.80549999466929
      ],
      [
       116.38384062476925,
       39.805010199874836
      ]
     ]
    ]
   },
   "properties": {
    "building": "apartments",
    "name": "南苑10区"
   }
  },
  {
   "type": "Feature",
   "geometry": {
    "type": "Polygon",
    "coordinates": [
     [
      [
       116.38393586230536,
       39.807758289671376
      ],
      [
       116.38455185096764,
       39.807758289671376
      ],
      [
       116.38455185096764,
       39.808147827055095
      ],
      [
       116.38393586230536,
       39.808147827055095
      ],
      [
       116.38393586230536,
       39.807758289671376
      ]
     ]
    ]
   },
   "properties": {
    "building": "apartments",
    "name": "南苑11区"
   }
  },
  {
   "type": "Feature",
   "geometry": {
    "type": "Polygon",
    "coordinates": [
     [
      [
       116.38390789681979,
       39.81587820144769
      ],
      [
       116.38457981645321,
       39.81587820144769
      ],
      [
       116.38457981645321,
       39.816215681825824
      ],
      [
       116.38390789681979,
       39.816215681825824
      ],
      [
       116.38390789681979,
       39.81587820144769
      ]
     ]
    ]
   },
   "properties": {
    "building": "apartments",
    "name": "南苑12区"
   }
  },
  {
   "type": "Feature",
   "geometry": {
    "type": "Polygon",
    "coordinates": [
     [
      [
       116.38381119767206,
       39.821265509060595
      ],
      [
       116.38467651560094,
       39.821265509060595
      ],
      [
       116.38467651560094,
       39.821620218577614
      ],
      [
       116.38381119767206,
       39.821620218577614
      ],
      [
       116.38381119767206,
       39.821265509060595
      ]
     ]
    ]
   },
   "properties": {
    "building": "apartments",
    "name": "南苑13区"
   }
  },
  {
   "type": "Feature",
   "geometry": {
    "type": "Polygon",
    "coordinates": [
     [
      [
       116.38733492168593,
       39.802385032446566
      ],
      [
       116.38817736504105,
       39.802385032446566
      ],
      [
       116.38817736504105,
       39.80272923991521
      ],
      [
       116.38733492168593,
       39.80272923991521
      ],
      [
       116.38733492168593,
       39.802385032446566
      ]
     ]
    ]
   },
   "properties": {
    "building": "apartments",
    "name": "南苑14区"
   }
  },
  {
   "type": "Feature",
   "geometry": {
    "type": "Polygon",
    "coordinates": [
     [
      [
       116.38738956208442,
       39.807771747995275
      ],
      [
       116.38812272464256,
       39.807771747995275
      ],
      [
       116.38812272464256,
       39.808134368731196
      ],
      [
       116.38738956208442,
       39.808134368731196
      ],
      [
       116.38738956208442,
       39.807771747995275
      ]
     ]
    ]
   },
   "properties": {
    "building": "apartments",
    "name": "南苑15区"
   }
  },
  {
   "type": "Feature",
   "geometry": {
    "type": "Polygon",
    "coordinates": [
     [
      [
       116.38729294374106,
       39.810403322850114
      ],
      [
       116.38821934298592,
       39.810403322850114
      ],
      [
       116.38821934298592,
       39.81089871605871
      ],
      [
       116.38729294374106,
       39.81089871605871
      ],
      [
       116.38729294374106,
       39.810403322850114
      ]
     ]
    ]
   },
   "properties": {
    "building": "apartments",
    "name": "南苑16区"
   }
  },
  {
   "type": "Feature",
   "geometry": {
    "type": "Polygon",
    "coordinates": [
     [
      [
       116.38739421252419,
       39.82118943793721
      ],
      [
       116.38811807420281,
       39.82118943793721
      ],
      [
       116.38811807420281,
       39.82169628970101
      ],
      [
       116.38739421252419,
       39.82169628970101
      ],
      [
       116.38739421252419,
       39.82118943793721
      ]
     ]
    ]
   },
   "properties": {
    "building": "apartments",
    "name": "南苑17区"
   }
  },
  {
   "type": "Feature",
   "geometry": {
    "type": "Polygon",
    "coordinates": [
     [
      [
       116.39080200396884,
       39.79967782226309
      ],
      [
       116.39173485621212,
       39.79967782226309
      ],
      [
       116.39173485621212,
       39.800040527916345
      ],
      [
       116.39080200396884,
       39.800040527916345
      ],
      [
       116.39080200396884,
       39.79967782226309
      ]
     ]
    ]
   },
   "properties": {
    "building": "apartments",
    "name": "南苑18区"
   }
  },
  {
   "type": "Feature",
   "geometry": {
    "type": "Polygon",
    "coordinates": [
     [
      [
       116.39084004414282,
       39.80236277557812
      ],
      [
       116.39169681603813,
       39.80236277557812
      ],
      [
       116.39169681603813,
       39.802751496783664
      ],
      [
       116.39084004414282,
       39.802751496783664
      ],
      [
       116.39084004414282,
       39.80236277557812
      ]
     ]
    ]
   },
   "properties": {
    "building": "apartments",
    "name": "南苑19区"
   }
  },
  {
   "type": "Feature",
   "geometry": {
    "type": "Polygon",
    "coordinates": [
     [
      [
       116.39095991366237,
       39.807730169140754
      ],
      [
       116.39157694651858,
       39.807730169140754
      ],
      [
       116.39157694651858,
       39.80817594758572
      ],
      [
       116.39095991366237,
       39.80817594758572
      ],
      [
       116.39095991366237,
       39.807730169140754
      ]
     ]
    ]
   },
   "properties": {
    "building": "apartments",
    "name": "南苑20区"
   }
  },
  {
   "type": "Feature",
   "geometry": {
    "type": "Polygon",
    "coordinates": [
     [
      [
       116.39087014546675,
       39.81045185326346
      ],
      [
       116.3916667147142,
       39.81045185326346
      ],
      [
       116.3916667147142,
       39.81085018564536
      ],
      [
       116.39087014546675,
       39.81085018564536
      ],
      [
       116.39087014546675,
       39.81045185326346
      ]
     ]
    ]
   },
   "properties": {
    "building": "apartments",
    "name": "南苑21区"
   }
  },
  {
   "type": "Feature",
   "geometry": {
    "type": "Polygon",
    "coordinates": [
     [
      [
       116.39446095788514,
       39.80229763462222
      ],
      [
       116.39510047574979,
       39.80229763462222
      ],
      [
       116.39510047574979,
       39.80281663773956
      ],
      [
       116.39446095788514,
       39.80281663773956
      ],
      [
       116.39446095788514,
       39.80229763462222
      ]
     ]
    ]
   },
   "properties": {
    "building": "apartments",
    "name": "南苑22区"
   }
  },
  {
   "type": "Feature",
   "geometry": {
    "type": "Polygon",
    "coordinates": [
     [
      [
       116.3944546945389,
       39.807712554873184
      ],
      [
       116.39510673909604,
       39.807712554873184
      ],
      [
       116.39510673909604,
       39.80819356185329
      ],
      [
       116.3944546945389,
       39.80819356185329
      ],
      [
       116.3944546945389,
       39.807712554873184
      ]
     ]
    ]
   },
   "properties": {
    "building": "apartments",
    "name": "南苑23区"
   }
  },
  {
   "type": "Feature",
   "geometry": {
    "type": "Polygon",
    "coordinates": [
     [
      [
       116.39432116877974,
       39.813092428080594
      ],
      [
       116.39524026485519,
       39.813092428080594
      ],
      [
       116.39524026485519,
       39.81360553301057
      ],
      [
       116.39432116877974,
       39.81360553301057
      ],
      [
       116.39432116877974,
       39.813092428080594
      ]
     ]
    ]
   },
   "properties": {
    "building": "apartments",
    "name": "南苑24区"
   }
  },
  {
   "type": "Feature",
   "geometry": {
    "type": "Polygon",
    "coordinates": [
     [
      [
       116.39448123060168,
       39.82387522396075
      ],
      [
       116.39508020303325,
       39.82387522396075
      ],
      [
       116.39508020303325,
       39.82440642585981
      ],
      [
       116.39448123060168,
       39.82440642585981
      ],
      [
       116.39448123060168,
       39.82387522396075
      ]
     ]
    ]
   },
   "properties": {
    "building": "apartments",
    "name": "南苑25区"
   }
  },
  {
   "type": "Feature",
   "geometry": {
    "type": "Polygon",
    "coordinates": [
     [
      [
       116.3978765787295,
       39.799672905450485
      ],
      [
       116.39870942835941,
       39.799672905450485
      ],
      [
       116.39870942835941,
       39.800045444728944
      ],
      [
       116.3978765787295,
       39.800045444728944
      ],
      [
       116.3978765787295,
       39.799672905450485
      ]
     ]
    ]
   },
   "properties": {
    "building": "apartments",
    "name": "南苑26区"
   }
  },
  {
   "type": "Feature",
   "geometry": {
    "type": "Polygon",
    "coordinates": [
     [
      [
       116.39787380861232,
       39.81318386801081
      ],
      [
       116.39871219847659,
       39.81318386801081
      ],
      [
       116.39871219847659,
       39.813514093080364
      ],
      [
       116.39787380861232,
       39.813514093080364
      ],
      [
       116.39787380861232,
       39.81318386801081
      ]
     ]
    ]
   },
   "properties": {
    "building": "apartments",
    "name": "南苑27区"
   }
  },
  {
   "type": "Feature",
   "geometry": {
    "type": "Polygon",
    "coordinates": [
     [
      [
       116.3979020802348,
       39.81579373800236
      ],
      [
       116.3986839268541,
       39.81579373800236
      ],
      [
       116.3986839268541,
       39.81630014527115
      ],
      [
       116.3979020802348,
       39.81630014527115
      ],
      [
       116.3979020802348,
       39.81579373800236
      ]
     ]
    ]
   },
   "properties": {
    "building": "apartments",
    "name": "南苑28区"
   }
  },
  {
   "type": "Feature",
   "geometry": {
    "type": "Polygon",
    "coordinates": [
     [
      [
       116.40150968893957,
       39.80236949366958
      ],
      [
       116.40210089160331,
       39.80236949366958
      ],
      [
       116.40210089160331,
       39.8027447786922
      ],
      [
       116.40150968893957,
       39.8027447786922
      ],
      [
       116.40150968893957,
       39.80236949366958
      ]
     ]
    ]
   },
   "properties": {
    "building": "apartments",
    "name": "南苑29区"
   }
  },
  {
   "type": "Feature",
   "geometry": {
    "type": "Polygon",
    "coordinates": [
     [
      [
       116.40148164702107,
       39.807754220275406
      ],
      [
       116.40212893352182,
       39.807754220275406
      ],
      [
       116.40212893352182,
       39.808151896451065
      ],
      [
       116.40148164702107,
       39.808151896451065
      ],
      [
       116.40148164702107,
       39.807754220275406
      ]
     ]
    ]
   },
   "properties": {
    "building": "apartments",
    "name": "南苑30区"
   }
  },
  {
   "type": "Feature",
   "geometry": {
    "type": "Polygon",
    "coordinates": [
     [
      [
       116.4014490018295,
       39.813091444395475
      ],
      [
       116.40216157871338,
       39.813091444395475
      ],
      [
       116.40216157871338,
       39.81360651669569
      ],
      [
       116.4014490018295,
       39.81360651669569
      ],
      [
       116.4014490018295,
       39.813091444395475
      ]
     ]
    ]
   },
   "properties": {
    "building": "apartments",
    "name": "南苑31区"
   }
  }
 ]
}