{
 "type": "FeatureCollection",
 "features": [
  {
   "type": "Feature",
   "geometry": {
    "type": "Polygon",
    "coordinates": [
     [
      [
       116.3660970418804,
       39.81829524254607
      ],
      [
       116.4059029581196,
       39.81829524254607
      ],
      [
       116.4059029581196,
       39.8188348347643
      ],
      [
       116.3660970418804,
       39.8188348347643
      ],
      [
       116.3660970418804,
       39.81829524254607
      ]
     ]
    ]
   },
   "properties": {
    "natural": "water",
    "water": "river",
    "name": "小龙河"
   }
  }
 ]
}