{"type": "FeatureCollection", "features": [{"type": "Feature", "properties": {"railway": "rail", "name": ""}, "geometry": {"type": "LineString", "coordinates": [[116.3737187, 39.8278026], [116.3782593, 39.8286771], [116.3785625, 39.8287284], [116.3788578, 39.8287563], [116.3791759, 39.8287739], [116.3794358, 39.8287841], [116.3796732, 39.8288006], [116.3799018, 39.8288184], [116.3801251, 39.8288428], [116.380325, 39.8288634], [116.3804872, 39.8288783], [116.3806692, 39.8288939]]}}, {"type": "Feature", "properties": {"railway": "rail", "name": "丰双线"}, "geometry": {"type": "LineString", "coordinates": [[116.4050755, 39.8284076], [116.4070961, 39.828231], [116.4083125, 39.8282022], [116.4094545, 39.8282354], [116.4140806, 39.8284102], [116.4286062, 39.8289734], [116.4329636, 39.8291545]]}}, {"type": "Feature", "properties": {"railway": "rail", "name": ""}, "geometry": {"type": "LineString", "coordinates": [[116.3689107, 39.8265954], [116.3785492, 39.8284501]]}}, {"type": "Feature", "properties": {"railway": "rail", "name": ""}, "geometry": {"type": "LineString", "coordinates": [[116.3786784, 39.8286151], [116.37821, 39.8285637], [116.3779914, 39.8285359], [116.3778141, 39.8285088], [116.3702784, 39.827056], [116.3699435, 39.8269869], [116.3697584, 39.8269374], [116.3693166, 39.8268111], [116.3688589, 39.8266762]]}}, {"type": "Feature", "properties": {"railway": "rail", "name": ""}, "geometry": {"type": "LineString", "coordinates": [[116.3803782, 39.8288006], [116.3785492, 39.8284501]]}}, {"type": "Feature", "properties": {"railway": "rail", "name": ""}, "geometry": {"type": "LineString", "coordinates": [[116.3695971, 39.8287286], [116.3668806, 39.8265762], [116.3667743, 39.8264971], [116.3666079, 39.8263943], [116.3663852, 39.8262697], [116.3661642, 39.8261691], [116.3659738, 39.8260946], [116.3657029, 39.8260167], [116.3653444, 39.8259366]]}}, {"type": "Feature", "properties": {"railway": "rail", "name": ""}, "geometry": {"type": "LineString", "coordinates": [[116.3647457, 39.8256556], [116.3651705, 39.8257509], [116.3654897, 39.8258323], [116.3658246, 39.8259091], [116.3661455, 39.8259724], [116.3665722, 39.8260533], [116.3667046, 39.8260799], [116.3672731, 39.8261861]]}}, {"type": "Feature", "properties": {"railway": "rail", "name": ""}, "geometry": {"type": "LineString", "coordinates": [[116.3623261, 39.8252779], [116.3634435, 39.8255018], [116.3655055, 39.8259055]]}}, {"type": "Feature", "properties": {"railway": "rail", "name": ""}, "geometry": {"type": "LineString", "coordinates": [[116.3733922, 39.8281943], [116.3778444, 39.8288469], [116.3781443, 39.8288799], [116.3785249, 39.8289053], [116.3787773, 39.8289036], [116.3790991, 39.8288973], [116.3793556, 39.828891], [116.3798569, 39.8288922], [116.3802711, 39.8288853]]}}, {"type": "Feature", "properties": {"railway": "rail", "name": ""}, "geometry": {"type": "LineString", "coordinates": [[116.3645265, 39.8257789], [116.3648143, 39.8258239], [116.3652555, 39.82587], [116.3655055, 39.8259055]]}}, {"type": "Feature", "properties": {"railway": "rail", "name": ""}, "geometry": {"type": "LineString", "coordinates": [[116.3683652, 39.8265356], [116.3686627, 39.8266079], [116.3689754, 39.8266699], [116.3780176, 39.828409], [116.378265, 39.8284669], [116.3784675, 39.8285215], [116.3787488, 39.828596], [116.3791672, 39.8286621]]}}, {"type": "Feature", "properties": {"railway": "rail", "name": ""}, "geometry": {"type": "LineString", "coordinates": [[116.3643341, 39.8260159], [116.3641804, 39.8259141], [116.3639356, 39.8257803], [116.3636846, 39.8256783], [116.3635589, 39.8256225], [116.363417, 39.8255766], [116.3630796, 39.8254999]]}}, {"type": "Feature", "properties": {"railway": "rail", "name": ""}, "geometry": {"type": "LineString", "coordinates": [[116.3688589, 39.8266762], [116.3691737, 39.826752], [116.369484, 39.8268134], [116.3780211, 39.8284566], [116.3782074, 39.8284937], [116.3784474, 39.828541], [116.3787488, 39.828596]]}}, {"type": "Feature", "properties": {"railway": "rail", "name": ""}, "geometry": {"type": "LineString", "coordinates": [[116.3693166, 39.8268111], [116.3695961, 39.8268767], [116.3698456, 39.8269296], [116.3782294, 39.8285433], [116.3784598, 39.8285802], [116.3786784, 39.8286151]]}}, {"type": "Feature", "properties": {"railway": "rail", "name": ""}, "geometry": {"type": "LineString", "coordinates": [[116.3677115, 39.826352], [116.3679224, 39.8264034], [116.3680445, 39.8264286], [116.3689107, 39.8265954]]}}, {"type": "Feature", "properties": {"railway": "rail", "name": ""}, "geometry": {"type": "LineString", "coordinates": [[116.3685544, 39.828681], [116.3656421, 39.8263674], [116.3655782, 39.8263174], [116.3654582, 39.8262372], [116.3653631, 39.8261768], [116.3652737, 39.8261258], [116.3651319, 39.8260517], [116.3650042, 39.8259909], [116.3648536, 39.8259293], [116.3646716, 39.8258653], [116.3644838, 39.8258071], [116.3642639, 39.8257458], [116.3639718, 39.825672]]}}, {"type": "Feature", "properties": {"railway": "rail", "name": ""}, "geometry": {"type": "LineString", "coordinates": [[116.3700718, 39.8287201], [116.3676171, 39.8267782], [116.3674078, 39.8266174], [116.3672058, 39.8264846], [116.3669779, 39.8263685], [116.3667382, 39.8262608], [116.3665194, 39.8261889], [116.366124, 39.8260869]]}}, {"type": "Feature", "properties": {"highway": "trunk", "name": "南苑路"}, "geometry": {"type": "LineString", "coordinates": [[116.395384, 39.8284931], [116.3952684, 39.8306331], [116.3952061, 39.8317852]]}}, {"type": "Feature", "properties": {"highway": "trunk", "name": "南苑路"}, "geometry": {"type": "LineString", "coordinates": [[116.3948975, 39.8317687], [116.394959, 39.8306327], [116.3950759, 39.8284727]]}}, {"type": "Feature", "properties": {"highway": "trunk", "name": "南苑路"}, "geometry": {"type": "LineString", "coordinates": [[116.3950759, 39.8284727], [116.3950828, 39.8260487]]}}, {"type": "Feature", "properties": {"railway": "rail", "name": "大南线"}, "geometry": {"type": "LineString", "coordinates": [[116.3845355, 39.8059916], [116.3843599, 39.805208], [116.3839242, 39.803389]]}}, {"type": "Feature", "properties": {"railway": "rail", "name": "大南线"}, "geometry": {"type": "LineString", "coordinates": [[116.3846328, 39.806445], [116.3846388, 39.8064711], [116.3846585, 39.8065575]]}}, {"type": "Feature", "properties": {"railway": "rail", "name": ""}, "geometry": {"type": "LineString", "coordinates": [[116.4005488, 39.8016002], [116.4010112, 39.8016533], [116.4011617, 39.8016724], [116.4013769, 39.8016919], [116.4015418, 39.8017061], [116.4017354, 39.8017139], [116.4022006, 39.801736]]}}, {"type": "Feature", "properties": {"railway": "rail", "name": ""}, "geometry": {"type": "LineString", "coordinates": [[116.3848625, 39.8269012], [116.3862357, 39.8260776], [116.3869491, 39.8257089]]}}, {"type": "Feature", "properties": {"railway": "rail", "name": ""}, "geometry": {"type": "LineString", "coordinates": [[116.4015305, 39.8017857], [116.4017377, 39.8018171], [116.4019486, 39.8018431], [116.402157, 39.8018642], [116.4024073, 39.8018891], [116.4026034, 39.8019066], [116.4027999, 39.8019183], [116.4031022, 39.8019304], [116.40434, 39.8019625]]}}, {"type": "Feature", "properties": {"railway": "rail", "name": ""}, "geometry": {"type": "LineString", "coordinates": [[116.390521, 39.8263281], [116.3903977, 39.8261681], [116.3902399, 39.8260159], [116.3900737, 39.8258727], [116.3899511, 39.8257786], [116.3897928, 39.8256771], [116.3896855, 39.8256221], [116.3895152, 39.8255488], [116.3893712, 39.8254979], [116.3892131, 39.8254453], [116.3890049, 39.8254012], [116.3887996, 39.8253735], [116.3885826, 39.8253522], [116.3883123, 39.8253418], [116.3881307, 39.8253486], [116.3879141, 39.8253601], [116.3877398, 39.8253793], [116.3874302, 39.8254802], [116.3871184, 39.8256203], [116.3869491, 39.8257089], [116.3849256, 39.8269571]]}}, {"type": "Feature", "properties": {"railway": "rail", "name": ""}, "geometry": {"type": "LineString", "coordinates": [[116.401049, 39.8016822], [116.4011644, 39.8017038], [116.40132, 39.8017285], [116.4015339, 39.8017563], [116.4017454, 39.8017802], [116.4019521, 39.8017974], [116.4021566, 39.8018103], [116.4024083, 39.801822], [116.4026243, 39.8018294], [116.4043948, 39.8018859]]}}, {"type": "Feature", "properties": {"railway": "rail", "name": ""}, "geometry": {"type": "LineString", "coordinates": [[116.3866129, 39.8013278], [116.3864283, 39.8013195], [116.3862706, 39.8013083], [116.386087, 39.8012922], [116.3856963, 39.8012577], [116.3854647, 39.8012465], [116.3852696, 39.8012474], [116.3851502, 39.8012522], [116.3849866, 39.801269], [116.3848338, 39.8012942], [116.3846549, 39.8013333], [116.3843249, 39.8014285], [116.3838962, 39.8015746], [116.3836928, 39.8016306], [116.383495, 39.8016822], [116.383317, 39.8017172], [116.3831446, 39.8017342], [116.3829891, 39.8017393], [116.3828244, 39.8017394], [116.3826404, 39.8017326], [116.3824726, 39.8017215], [116.3820704, 39.8016776], [116.3807756, 39.8015343], [116.3805261, 39.8014982], [116.3803032, 39.8014508], [116.380099, 39.8013988], [116.3799166, 39.8013458], [116.3797588, 39.8012865], [116.379539, 39.8011988], [116.3793722, 39.8011223], [116.3791495, 39.8010068], [116.3789819, 39.800907], [116.37886, 39.8008263], [116.3786781, 39.8006899], [116.3785708, 39.8005952], [116.3784356, 39.8004763], [116.3783174, 39.8003536], [116.3781894, 39.8002022], [116.378096, 39.8000826], [116.3780075, 39.7999466], [116.3779456, 39.7998404], [116.3778788, 39.7997137], [116.3778145, 39.7995733], [116.3777655, 39.7994515], [116.3777152, 39.7992897], [116.377689, 39.7991836], [116.3776634, 39.7990576], [116.3776454, 39.798925], [116.3776369, 39.7987551], [116.3776347, 39.7986107], [116.3776436, 39.7984545], [116.3776671, 39.7982341], [116.3777081, 39.7978163], [116.3777601, 39.7972998], [116.3779504, 39.7954313]]}}, {"type": "Feature", "properties": {"railway": "rail", "name": ""}, "geometry": {"type": "LineString", "coordinates": [[116.3867854, 39.8013256], [116.3870314, 39.8013074], [116.3872368, 39.8012895], [116.3874692, 39.8012811], [116.3887, 39.8012839]]}}, {"type": "Feature", "properties": {"railway": "rail", "name": ""}, "geometry": {"type": "LineString", "coordinates": [[116.4015305, 39.8017857], [116.4019728, 39.8018727], [116.4021466, 39.8019038], [116.4024021, 39.8019328], [116.4025992, 39.8019486], [116.4027928, 39.8019595], [116.403107, 39.8019752], [116.4043388, 39.802012]]}}, {"type": "Feature", "properties": {"railway": "rail", "name": ""}, "geometry": {"type": "LineString", "coordinates": [[116.3933267, 39.799294], [116.3933173, 39.799411], [116.3932992, 39.7996352], [116.3932854, 39.7997415], [116.3932693, 39.7998373], [116.3932505, 39.7999105], [116.3932163, 39.8000073], [116.3931704, 39.8001111], [116.3931278, 39.8001938], [116.3930636, 39.8002985], [116.3929916, 39.8004077], [116.3929179, 39.8005086], [116.3928412, 39.8005938], [116.3927322, 39.8006972], [116.3926182, 39.8007865], [116.3925015, 39.8008703], [116.3923637, 39.8009502], [116.3922031, 39.8010331], [116.3920319, 39.8011075], [116.3918457, 39.8011804], [116.3916563, 39.8012369], [116.3914346, 39.8012828], [116.3912255, 39.801304], [116.3910193, 39.8013172], [116.3907755, 39.8013303], [116.3905202, 39.8013418]]}}, {"type": "Feature", "properties": {"railway": "rail", "name": ""}, "geometry": {"type": "LineString", "coordinates": [[116.3777081, 39.7978163], [116.3777138, 39.7976993], [116.3777153, 39.7975924], [116.3777111, 39.7974407], [116.3777024, 39.7972449], [116.3777031, 39.7971141], [116.3777155, 39.7969558], [116.3778672, 39.7954251]]}}, {"type": "Feature", "properties": {"railway": "rail", "name": "大南线"}, "geometry": {"type": "LineString", "coordinates": [[116.3846585, 39.8065575], [116.3852843, 39.8093484], [116.3855891, 39.8107855], [116.3856123, 39.8108949], [116.3861892, 39.8135538], [116.3865566, 39.8152074], [116.3867378, 39.8159519], [116.3867661, 39.816068], [116.3868784, 39.8165764], [116.3870971, 39.8176306], [116.3871743, 39.8180117], [116.3873339, 39.818799], [116.3876696, 39.8202375], [116.3877783, 39.820739], [116.3878804, 39.8212034], [116.3880195, 39.8218478]]}}, {"type": "Feature", "properties": {"railway": "rail", "name": ""}, "geometry": {"type": "LineString", "coordinates": [[116.3845355, 39.8059916], [116.3845048, 39.8058881], [116.3844749, 39.8057951], [116.3843954, 39.8055882]]}}, {"type": "Feature", "properties": {"highway": "trunk", "name": "南苑路"}, "geometry": {"type": "LineString", "coordinates": [[116.3965078, 39.8059881], [116.3964647, 39.8068474], [116.3964398, 39.807345], [116.396384, 39.8084887], [116.396369, 39.8087947], [116.3963288, 39.8096188], [116.3962906, 39.810379], [116.396259, 39.8110067], [116.3962498, 39.8111903]]}}, {"type": "Feature", "properties": {"highway": "trunk", "name": "南苑东路"}, "geometry": {"type": "LineString", "coordinates": [[116.4102805, 39.8040378], [116.4077484, 39.8039642], [116.4063778, 39.8039243], [116.4058519, 39.803909], [116.4047216, 39.8038595], [116.4039282, 39.8038357], [116.4026477, 39.803813], [116.4022556, 39.8037986], [116.4016338, 39.8038014]]}}, {"type": "Feature", "properties": {"highway": "trunk", "name": "南苑东路"}, "geometry": {"type": "LineString", "coordinates": [[116.4011478, 39.8035806], [116.4047228, 39.803682], [116.405199, 39.8036937], [116.4094775, 39.8038206], [116.4102937, 39.8038448]]}}, {"type": "Feature", "properties": {"railway": "rail", "name": "丰双线"}, "geometry": {"type": "LineString", "coordinates": [[116.4048872, 39.8283898], [116.399923, 39.8289665], [116.3959122, 39.8294694]]}}, {"type": "Feature", "properties": {"railway": "rail", "name": "丰双线"}, "geometry": {"type": "LineString", "coordinates": [[116.4050684, 39.8283698], [116.4048872, 39.8283898]]}}, {"type": "Feature", "properties": {"railway": "rail", "name": "丰双线"}, "geometry": {"type": "LineString", "coordinates": [[116.432989, 39.8291007], [116.4281548, 39.8289084], [116.4211081, 39.8286183], [116.413864, 39.8283349], [116.4094844, 39.828208], [116.4083219, 39.8281692], [116.4070809, 39.8281919], [116.4050684, 39.8283698]]}}, {"type": "Feature", "properties": {"highway": "trunk", "name": "南苑路"}, "geometry": {"type": "LineString", "coordinates": [[116.3951307, 39.8247053], [116.3951603, 39.8245582], [116.395325, 39.8222662], [116.3953353, 39.8221233], [116.3953586, 39.8217989], [116.3954516, 39.8199053], [116.3955924, 39.8170372], [116.3956443, 39.8159805], [116.3956843, 39.8151653], [116.3958244, 39.8123142], [116.3958275, 39.8122515], [116.395888, 39.8110193], [116.3959433, 39.8098938], [116.3959522, 39.8097117], [116.3959976, 39.8087885], [116.3960906, 39.8068348], [116.3961309, 39.8059887]]}}, {"type": "Feature", "properties": {"highway": "trunk", "name": "南苑路"}, "geometry": {"type": "LineString", "coordinates": [[116.3950828, 39.8260487], [116.3951307, 39.8247053]]}}, {"type": "Feature", "properties": {"railway": "rail", "name": "丰双线"}, "geometry": {"type": "LineString", "coordinates": [[116.4048941, 39.8284277], [116.4050755, 39.8284076]]}}, {"type": "Feature", "properties": {"railway": "rail", "name": "丰双线"}, "geometry": {"type": "LineString", "coordinates": [[116.3959251, 39.8295143], [116.3999309, 39.8290042], [116.4048941, 39.8284277]]}}, {"type": "Feature", "properties": {"railway": "rail", "name": ""}, "geometry": {"type": "LineString", "coordinates": [[116.363576, 39.8253805], [116.3638455, 39.825445], [116.3642491, 39.8255475], [116.3645529, 39.8256186]]}}, {"type": "Feature", "properties": {"railway": "rail", "name": ""}, "geometry": {"type": "LineString", "coordinates": [[116.3699103, 39.8265575], [116.3702586, 39.8265996], [116.3705121, 39.8266326], [116.3707924, 39.8266727], [116.380082, 39.8284644], [116.3803949, 39.828535], [116.3806462, 39.8286005], [116.3810006, 39.828695]]}}, {"type": "Feature", "properties": {"railway": "rail", "name": ""}, "geometry": {"type": "LineString", "coordinates": [[116.3672731, 39.8261861], [116.3676113, 39.8262669], [116.3680773, 39.8263892], [116.3689107, 39.8265954]]}}, {"type": "Feature", "properties": {"railway": "rail", "name": ""}, "geometry": {"type": "LineString", "coordinates": [[116.3793949, 39.8285633], [116.3791355, 39.8285231], [116.3787474, 39.8284785], [116.3785492, 39.8284501]]}}, {"type": "Feature", "properties": {"railway": "rail", "name": ""}, "geometry": {"type": "LineString", "coordinates": [[116.3671561, 39.8262102], [116.3680773, 39.8263892]]}}, {"type": "Feature", "properties": {"railway": "rail", "name": ""}, "geometry": {"type": "LineString", "coordinates": [[116.3655055, 39.8259055], [116.3656512, 39.825934], [116.3662493, 39.8260438], [116.3666788, 39.8261226], [116.3671561, 39.8262102]]}}, {"type": "Feature", "properties": {"railway": "rail", "name": ""}, "geometry": {"type": "LineString", "coordinates": [[116.3656512, 39.825934], [116.3659779, 39.8259823], [116.3663159, 39.8260147], [116.3665722, 39.8260533]]}}, {"type": "Feature", "properties": {"railway": "rail", "name": ""}, "geometry": {"type": "LineString", "coordinates": [[116.3667046, 39.8260799], [116.3669622, 39.8261217], [116.3673538, 39.826167], [116.3675961, 39.8262032]]}}, {"type": "Feature", "properties": {"railway": "rail", "name": ""}, "geometry": {"type": "LineString", "coordinates": [[116.3678584, 39.8262536], [116.3682041, 39.8263051], [116.3685997, 39.8263545], [116.3688481, 39.8263977]]}}, {"type": "Feature", "properties": {"railway": "rail", "name": ""}, "geometry": {"type": "LineString", "coordinates": [[116.3637944, 39.8253671], [116.3655485, 39.8257639]]}}, {"type": "Feature", "properties": {"railway": "rail", "name": ""}, "geometry": {"type": "LineString", "coordinates": [[116.366124, 39.8260869], [116.36667, 39.8261892], [116.3671126, 39.826273], [116.3674484, 39.8263534], [116.3678345, 39.8264527], [116.3681617, 39.8265445], [116.3698271, 39.8270211], [116.370112, 39.8271023], [116.3703257, 39.8271696], [116.3705318, 39.8272434], [116.3707685, 39.827346], [116.3709439, 39.8274431], [116.3711467, 39.8275695], [116.371384, 39.8277406], [116.3716727, 39.827957], [116.372144, 39.8283132]]}}, {"type": "Feature", "properties": {"railway": "rail", "name": "大李线"}, "geometry": {"type": "LineString", "coordinates": [[116.3622568, 39.8250729], [116.3628396, 39.8251855], [116.3632413, 39.8252597], [116.3637944, 39.8253671], [116.3682319, 39.8262287], [116.3699103, 39.8265575]]}}, {"type": "Feature", "properties": {"railway": "rail", "name": "大南线"}, "geometry": {"type": "LineString", "coordinates": [[116.3846328, 39.806445], [116.3845355, 39.8059916]]}}, {"type": "Feature", "properties": {"railway": "rail", "name": ""}, "geometry": {"type": "LineString", "coordinates": [[116.3839683, 39.804138], [116.3841451, 39.8048895], [116.3841946, 39.8050518], [116.3842539, 39.8052133], [116.3843954, 39.8055882]]}}, {"type": "Feature", "properties": {"railway": "rail", "name": ""}, "geometry": {"type": "LineString", "coordinates": [[116.3839242, 39.803389], [116.3839453, 39.803513], [116.3839573, 39.8036171], [116.3839721, 39.8037828], [116.3839923, 39.8039156]]}}, {"type": "Feature", "properties": {"railway": "rail", "name": "大南线"}, "geometry": {"type": "LineString", "coordinates": [[116.3866129, 39.8013278], [116.3860677, 39.8013247], [116.3857576, 39.8013317], [116.3855149, 39.8013599], [116.3852439, 39.8014195], [116.3850228, 39.8014965], [116.3848285, 39.8015752], [116.3846896, 39.8016512], [116.3845669, 39.8017278], [116.3844499, 39.8018145], [116.3843395, 39.8019032], [116.3842124, 39.8020299], [116.3841324, 39.8021206], [116.3840617, 39.8022169], [116.3839902, 39.802334], [116.3839232, 39.8024816], [116.3838759, 39.802629], [116.3838425, 39.8028039], [116.383842, 39.8029538], [116.3838575, 39.8030967], [116.3838849, 39.8032472], [116.3839242, 39.803389]]}}, {"type": "Feature", "properties": {"highway": "trunk", "name": "南苑路"}, "geometry": {"type": "LineString", "coordinates": [[116.3955708, 39.82469], [116.3955009, 39.8260791], [116.395384, 39.8284931]]}}, {"type": "Feature", "properties": {"highway": "trunk", "name": "南苑路"}, "geometry": {"type": "LineString", "coordinates": [[116.3961151, 39.8138456], [116.3960734, 39.8146842]]}}, {"type": "Feature", "properties": {"highway": "trunk", "name": "南苑路"}, "geometry": {"type": "LineString", "coordinates": [[116.3960734, 39.8146842], [116.3960488, 39.8151789], [116.396008, 39.8159982], [116.395958, 39.8169915], [116.3958118, 39.8198995], [116.3957162, 39.8218001]]}}, {"type": "Feature", "properties": {"railway": "rail", "name": ""}, "geometry": {"type": "LineString", "coordinates": [[116.3688589, 39.8266762], [116.3683652, 39.8265356], [116.3677115, 39.826352], [116.3674651, 39.8262845], [116.3671561, 39.8262102]]}}, {"type": "Feature", "properties": {"railway": "rail", "name": ""}, "geometry": {"type": "LineString", "coordinates": [[116.366124, 39.8260869], [116.3653444, 39.8259366], [116.3645265, 39.8257789], [116.3639718, 39.825672], [116.3630796, 39.8254999]]}}, {"type": "Feature", "properties": {"railway": "rail", "name": ""}, "geometry": {"type": "LineString", "coordinates": [[116.3793949, 39.8285633], [116.3680773, 39.8263892]]}}, {"type": "Feature", "properties": {"railway": "rail", "name": ""}, "geometry": {"type": "LineString", "coordinates": [[116.3672731, 39.8261861], [116.3803768, 39.8287048]]}}, {"type": "Feature", "properties": {"railway": "rail", "name": "丰双线"}, "geometry": {"type": "LineString", "coordinates": [[116.3816858, 39.82891], [116.3678584, 39.8262536]]}}, {"type": "Feature", "properties": {"railway": "rail", "name": "丰双线"}, "geometry": {"type": "LineString", "coordinates": [[116.3817039, 39.828867], [116.3690877, 39.8264437]]}}, {"type": "Feature", "properties": {"railway": "rail", "name": "大李线"}, "geometry": {"type": "LineString", "coordinates": [[116.3699103, 39.8265575], [116.372767, 39.827107]]}}, {"type": "Feature", "properties": {"railway": "rail", "name": ""}, "geometry": {"type": "LineString", "coordinates": [[116.372767, 39.827107], [116.3805013, 39.8285946], [116.3810006, 39.828695]]}}, {"type": "Feature", "properties": {"railway": "rail", "name": "丰双线"}, "geometry": {"type": "LineString", "coordinates": [[116.3678584, 39.8262536], [116.3675961, 39.8262032], [116.366931, 39.8260754], [116.3647457, 39.8256556], [116.3645529, 39.8256186], [116.3635407, 39.82542], [116.3632098, 39.8253554], [116.3628356, 39.8252905], [116.362299, 39.8251976]]}}, {"type": "Feature", "properties": {"railway": "rail", "name": "丰双线"}, "geometry": {"type": "LineString", "coordinates": [[116.3690877, 39.8264437], [116.3688481, 39.8263977], [116.3659295, 39.8258371], [116.3655485, 39.8257639]]}}, {"type": "Feature", "properties": {"railway": "rail", "name": "丰双线"}, "geometry": {"type": "LineString", "coordinates": [[116.3655485, 39.8257639], [116.363576, 39.8253805], [116.3632141, 39.8253136], [116.3628383, 39.8252442], [116.3622808, 39.8251439]]}}, {"type": "Feature", "properties": {"railway": "rail", "name": ""}, "geometry": {"type": "LineString", "coordinates": [[116.366931, 39.8260754], [116.3666517, 39.8260079], [116.3662145, 39.8259013], [116.3659295, 39.8258371]]}}, {"type": "Feature", "properties": {"railway": "rail", "name": ""}, "geometry": {"type": "LineString", "coordinates": [[116.3690877, 39.8264437], [116.3699103, 39.8265575]]}}, {"type": "Feature", "properties": {"highway": "trunk", "name": "南苑路"}, "geometry": {"type": "LineString", "coordinates": [[116.3961309, 39.8059887], [116.3962068, 39.8036903], [116.3962278, 39.8036135], [116.3962761, 39.8035414], [116.3963639, 39.8034427]]}}, {"type": "Feature", "properties": {"highway": "trunk", "name": "南苑路"}, "geometry": {"type": "LineString", "coordinates": [[116.3962498, 39.8111903], [116.3961965, 39.8122504], [116.3961931, 39.8123174], [116.3961151, 39.8138456]]}}, {"type": "Feature", "properties": {"highway": "trunk", "name": "南苑路"}, "geometry": {"type": "LineString", "coordinates": [[116.3966365, 39.803614], [116.3966081, 39.803651], [116.3965872, 39.8036918], [116.3965765, 39.8037886], [116.3965078, 39.8059881]]}}, {"type": "Feature", "properties": {"highway": "trunk", "name": "南苑路"}, "geometry": {"type": "LineString", "coordinates": [[116.3957162, 39.8218001], [116.395699, 39.8221419], [116.3956922, 39.8222761], [116.3956484, 39.8231469], [116.3955708, 39.82469]]}}, {"type": "Feature", "properties": {"highway": "trunk", "name": "南苑东路"}, "geometry": {"type": "LineString", "coordinates": [[116.3963639, 39.8034427], [116.4007436, 39.8035689], [116.4011478, 39.8035806]]}}, {"type": "Feature", "properties": {"highway": "trunk", "name": "南苑东路"}, "geometry": {"type": "LineString", "coordinates": [[116.4016338, 39.8038014], [116.401312, 39.8038028], [116.401043, 39.8037895], [116.4005988, 39.803782], [116.4000897, 39.8037733], [116.3993965, 39.8036978], [116.397703, 39.8036135], [116.3967642, 39.8036011], [116.3966365, 39.803614]]}}, {"type": "Feature", "properties": {"railway": "rail", "name": "大南线"}, "geometry": {"type": "LineString", "coordinates": [[116.3880719, 39.8220874], [116.3881128, 39.8222644], [116.3881647, 39.8224318], [116.3882214, 39.8225899], [116.3883121, 39.8227987], [116.3884212, 39.823004], [116.3884767, 39.8230989], [116.3885695, 39.8232505], [116.388731, 39.8234976], [116.3890453, 39.8239814], [116.3892434, 39.8243086], [116.390521, 39.8263281], [116.3907802, 39.8267628], [116.3908986, 39.8270497], [116.3909371, 39.8272218], [116.3909715, 39.8274333], [116.3909748, 39.8276154], [116.3909632, 39.8278364], [116.3909044, 39.8281312], [116.3908264, 39.8283295], [116.3907352, 39.8285131], [116.3906069, 39.82869], [116.3904238, 39.8288958], [116.3902241, 39.8290784], [116.3900774, 39.82921], [116.389924, 39.8293127], [116.3897678, 39.8294033], [116.3893479, 39.8295864], [116.3889362, 39.8297224], [116.3886352, 39.8297816], [116.3884241, 39.8298264], [116.3881012, 39.8298829], [116.3877763, 39.8299096], [116.3875729, 39.8299084], [116.3873484, 39.8298975], [116.3871011, 39.8298719], [116.3868262, 39.8298327], [116.3863862, 39.8297676]]}}, {"type": "Feature", "properties": {"railway": "rail", "name": "大南线"}, "geometry": {"type": "LineString", "coordinates": [[116.3880195, 39.8218478], [116.3880356, 39.8219197]]}}, {"type": "Feature", "properties": {"railway": "rail", "name": "大南线"}, "geometry": {"type": "LineString", "coordinates": [[116.3880356, 39.8219197], [116.3880558, 39.8220155]]}}, {"type": "Feature", "properties": {"railway": "rail", "name": "大南线"}, "geometry": {"type": "LineString", "coordinates": [[116.3880558, 39.8220155], [116.3880719, 39.8220874]]}}, {"type": "Feature", "properties": {"railway": "rail", "name": ""}, "geometry": {"type": "LineString", "coordinates": [[116.4011296, 39.8015845], [116.4015533, 39.8015977], [116.4024228, 39.8016249], [116.4044124, 39.8016873]]}}, {"type": "Feature", "properties": {"railway": "rail", "name": ""}, "geometry": {"type": "LineString", "coordinates": [[116.4011296, 39.8015845], [116.4012613, 39.8015923], [116.401385, 39.8016008], [116.4016103, 39.8016229], [116.4017726, 39.801642], [116.4019469, 39.8016616], [116.4021555, 39.8016796], [116.4023499, 39.8016914], [116.4024177, 39.8016945], [116.4044139, 39.8017563]]}}, {"type": "Feature", "properties": {"railway": "rail", "name": ""}, "geometry": {"type": "LineString", "coordinates": [[116.3999819, 39.8015351], [116.4000754, 39.8015427], [116.4001941, 39.8015513], [116.4003289, 39.801559], [116.4004824, 39.8015642], [116.4010249, 39.8015812], [116.4011296, 39.8015845]]}}, {"type": "Feature", "properties": {"railway": "rail", "name": ""}, "geometry": {"type": "LineString", "coordinates": [[116.3962466, 39.8014328], [116.3964048, 39.8014371], [116.3975225, 39.8014799], [116.398129, 39.8015001]]}}, {"type": "Feature", "properties": {"railway": "rail", "name": ""}, "geometry": {"type": "LineString", "coordinates": [[116.398129, 39.8015001], [116.3982535, 39.8015002], [116.3983591, 39.8014972], [116.3986491, 39.8014859], [116.3988637, 39.8014828], [116.3991232, 39.8014879], [116.3995658, 39.8015039], [116.399716, 39.8015122], [116.3999265, 39.8015286], [116.3999819, 39.8015351], [116.4001378, 39.8015534], [116.4005488, 39.8016002], [116.4006937, 39.8016198], [116.4008211, 39.8016384], [116.401005, 39.8016737], [116.401049, 39.8016822], [116.4011438, 39.8017051], [116.4013636, 39.8017502], [116.4015305, 39.8017857]]}}, {"type": "Feature", "properties": {"railway": "rail", "name": ""}, "geometry": {"type": "LineString", "coordinates": [[116.3975225, 39.8014799], [116.3976316, 39.8014794], [116.3977466, 39.8014756], [116.3979766, 39.8014596], [116.3982528, 39.8014364], [116.3985506, 39.8014138], [116.3988443, 39.8014035], [116.3991306, 39.8014086], [116.4005207, 39.8014447]]}}, {"type": "Feature", "properties": {"railway": "rail", "name": ""}, "geometry": {"type": "LineString", "coordinates": [[116.398129, 39.8015001], [116.3985626, 39.8015106], [116.3987504, 39.8015189], [116.3989221, 39.8015292], [116.399022, 39.8015348], [116.3991158, 39.8015395], [116.3995175, 39.8015477], [116.3997214, 39.8015518], [116.3999131, 39.8015652], [116.4001304, 39.8015899], [116.4003584, 39.8016229], [116.4006226, 39.8016652], [116.4009895, 39.8017422], [116.4010423, 39.8017533]]}}, {"type": "Feature", "properties": {"railway": "rail", "name": ""}, "geometry": {"type": "LineString", "coordinates": [[116.3905202, 39.8013418], [116.3901948, 39.8013401], [116.3898702, 39.8013373], [116.3891171, 39.8013248], [116.3890533, 39.8013245], [116.3889026, 39.8013258], [116.3879904, 39.8013274], [116.3867854, 39.8013256], [116.3866129, 39.8013278]]}}, {"type": "Feature", "properties": {"railway": "rail", "name": ""}, "geometry": {"type": "LineString", "coordinates": [[116.3905202, 39.8013418], [116.3928031, 39.8013482], [116.3930829, 39.8013514], [116.3933845, 39.8013578], [116.3962466, 39.8014328]]}}, {"type": "Feature", "properties": {"railway": "rail", "name": ""}, "geometry": {"type": "LineString", "coordinates": [[116.3901948, 39.8013401], [116.3903913, 39.8013488], [116.3905348, 39.8013592], [116.390695, 39.801371], [116.390854, 39.8013767], [116.3928147, 39.8013901], [116.3930849, 39.8013932], [116.3933773, 39.8013983], [116.3953172, 39.8014539], [116.3955693, 39.8014534], [116.3958201, 39.8014442], [116.3960326, 39.8014375], [116.3962466, 39.8014328]]}}, {"type": "Feature", "properties": {"railway": "rail", "name": ""}, "geometry": {"type": "LineString", "coordinates": [[116.3843954, 39.8055882], [116.3842923, 39.8052106], [116.3839923, 39.8039156]]}}]}