{"type": "FeatureCollection", "features": [{"type": "Feature", "properties": {"name": "", "natural": "water", "waterway": "", "water": "pond", "source": "osm"}, "geometry": {"type": "MultiPolygon", "coordinates": [[[[116.4069036, 39.8096766], [116.4069522, 39.8095741], [116.4070038, 39.8095438], [116.4071434, 39.8096137], [116.4072678, 39.809595], [116.4073285, 39.8094389], [116.407547, 39.8094995], [116.4077533, 39.8095414], [116.4079081, 39.8095694], [116.4080841, 39.8095508], [116.408254, 39.8093922], [116.4086151, 39.8093992], [116.4088094, 39.8094389], [116.4087881, 39.8095764], [116.408688, 39.809679], [116.4086698, 39.8098282], [116.4081964, 39.8098724], [116.4080295, 39.8097839], [116.4079779, 39.8096766], [116.4078535, 39.809637], [116.4077655, 39.8096277], [116.4076957, 39.809609], [116.4074069, 39.8095325], [116.4073991, 39.8095429], [116.4073116, 39.8096335], [116.406937, 39.8096929], [116.4069036, 39.8096766]]]]}}, {"type": "Feature", "properties": {"name": "", "natural": "water", "waterway": "", "water": "canal", "source": "osm"}, "geometry": {"type": "MultiPolygon", "coordinates": [[[[116.4077589, 39.8120992], [116.4078418, 39.8109883], [116.4081412, 39.8110298], [116.4087326, 39.8112431], [116.4084622, 39.812041], [116.4077589, 39.8120992]]]]}}, {"type": "Feature", "properties": {"name": "", "natural": "water", "waterway": "", "water": "river", "source": "osm"}, "geometry": {"type": "MultiPolygon", "coordinates": [[[[116.4052392, 39.8051395], [116.4052901, 39.804959], [116.4053949, 39.8049807], [116.4055053, 39.8050177], [116.4056072, 39.8050547], [116.4057318, 39.8051308], [116.4065491, 39.8056017], [116.4074679, 39.8061239], [116.4077655, 39.8062951], [116.4083233, 39.8066074], [116.4088811, 39.8069097], [116.4090063, 39.8069559], [116.4091331, 39.8069909], [116.4094389, 39.8070671], [116.410278, 39.8072445], [116.4108943, 39.8073732], [116.4111935, 39.8074381], [116.4114488, 39.8075081], [116.4116017, 39.8075605], [116.4117367, 39.8076218], [116.4119058, 39.8077105], [116.412392, 39.807974], [116.4129726, 39.8083038], [116.4137922, 39.8087648], [116.4138865, 39.8087998], [116.414293, 39.8089135], [116.414615, 39.8089859], [116.4160352, 39.8093697], [116.4159652, 39.8095383], [116.4158801, 39.8094961], [116.4157778, 39.8094554], [116.415641, 39.8093986], [116.4155178, 39.8093636], [116.4153354, 39.8093143], [116.4150531, 39.8092339], [116.4148658, 39.8091827], [116.4147463, 39.8091515], [116.4138989, 39.808922], [116.4138348, 39.8088936], [116.4137505, 39.8088487], [116.4120701, 39.8078678], [116.4120248, 39.8079113], [116.411828, 39.8078461], [116.4116921, 39.8077928], [116.4115038, 39.8077199], [116.4113269, 39.8076666], [116.411048, 39.8076046], [116.4099168, 39.8073599], [116.4086413, 39.8071011], [116.4069652, 39.806118], [116.4056186, 39.8052896], [116.4055308, 39.8052374], [116.4054289, 39.805196], [116.4053354, 39.8051591], [116.4052392, 39.8051395]]]]}}, {"type": "Feature", "properties": {"name": "", "natural": "water", "waterway": "", "water": "pond", "source": "osm"}, "geometry": {"type": "MultiPolygon", "coordinates": [[[[116.3764188, 39.8195061], [116.3764253, 39.8194861], [116.3764311, 39.8194682], [116.3769323, 39.8195897], [116.3771623, 39.8195628], [116.3775855, 39.8198279], [116.3778381, 39.8198942], [116.3780353, 39.8200093], [116.3781811, 39.8200772], [116.378178, 39.8201096], [116.378175, 39.8201403], [116.3779696, 39.8202444], [116.3778011, 39.8202412], [116.3774828, 39.820003], [116.377226, 39.8198531], [116.3769302, 39.8197111], [116.3764188, 39.8195061]]]]}}, {"type": "Feature", "properties": {"name": "", "natural": "water", "waterway": "", "water": "pond", "source": "osm"}, "geometry": {"type": "MultiPolygon", "coordinates": [[[[116.3714727, 39.8161409], [116.371524, 39.8160068], [116.3718855, 39.8158837], [116.3720088, 39.8159058], [116.3720293, 39.8161125], [116.3719143, 39.8163255], [116.3719595, 39.8164848], [116.3718383, 39.8170149], [116.3718794, 39.817179], [116.3722758, 39.8172942], [116.3725161, 39.8172674], [116.3726476, 39.8171585], [116.3728982, 39.8170891], [116.3729844, 39.8171569], [116.3729598, 39.8172295], [116.3729208, 39.8172216], [116.3728674, 39.8172847], [116.3728756, 39.8173131], [116.372779, 39.8174109], [116.3726825, 39.817381], [116.3726866, 39.8173273], [116.3725613, 39.8172973], [116.3724196, 39.8173273], [116.3722881, 39.8173778], [116.3724319, 39.8175466], [116.3724812, 39.817706], [116.3726599, 39.8176981], [116.372738, 39.817982], [116.3728448, 39.8180988], [116.3731323, 39.818184], [116.3732679, 39.8182487], [116.3733809, 39.8183591], [116.3733215, 39.8183904], [116.3732761, 39.8184143], [116.3731796, 39.8183859], [116.3729906, 39.8184822], [116.3728756, 39.8184396], [116.3727482, 39.8183118], [116.3728098, 39.8182092], [116.3727955, 39.8181035], [116.3726846, 39.8180877], [116.3723929, 39.8180341], [116.372171, 39.818113], [116.3719574, 39.8178259], [116.3716432, 39.8174803], [116.3717294, 39.8171774], [116.3716534, 39.8170717], [116.3715528, 39.8168619], [116.371637, 39.8166442], [116.3715733, 39.8165353], [116.3716185, 39.8164359], [116.3714727, 39.8161409]]]]}}, {"type": "Feature", "properties": {"name": "", "natural": "water", "waterway": "", "water": "pond", "source": "osm"}, "geometry": {"type": "MultiPolygon", "coordinates": [[[[116.3720053, 39.8162958], [116.3721197, 39.8162106], [116.372329, 39.8162422], [116.372438, 39.8163919], [116.3724577, 39.8166213], [116.3725757, 39.8166762], [116.3727814, 39.8167504], [116.3728082, 39.8167998], [116.3726937, 39.8168506], [116.3724935, 39.8168506], [116.3725024, 39.8170374], [116.3723486, 39.8170567], [116.3721519, 39.8168822], [116.3721376, 39.8166845], [116.3721734, 39.8165691], [116.3721734, 39.8164345], [116.372025, 39.8164249], [116.3720053, 39.8162958]]]]}}, {"type": "Feature", "properties": {"name": "", "natural": "water", "waterway": "", "water": "pond", "source": "osm"}, "geometry": {"type": "MultiPolygon", "coordinates": [[[[116.3771855, 39.8115462], [116.3771931, 39.8115132], [116.3774202, 39.8114665], [116.3777778, 39.8114514], [116.3780568, 39.8115599], [116.3782946, 39.8116698], [116.378477, 39.8117288], [116.37884, 39.8117329], [116.3791887, 39.8116533], [116.3795105, 39.8114527], [116.3801167, 39.8116437], [116.3804636, 39.811825], [116.3804636, 39.8123758], [116.3803509, 39.8124225], [116.3796464, 39.8122329], [116.3795423, 39.8122742], [116.3794975, 39.8121593], [116.3793988, 39.812182], [116.3794435, 39.8122969], [116.37889, 39.8124637], [116.378688, 39.8124513], [116.3783858, 39.8123689], [116.3782624, 39.8122041], [116.3781623, 39.8120681], [116.3781694, 39.8119294], [116.3780442, 39.8118071], [116.3777868, 39.8116684], [116.377481, 39.8115681], [116.3772074, 39.8115915], [116.3771855, 39.8115462]]]]}}]}