{"type": "FeatureCollection", "features": [{"type": "Feature", "properties": {"highway": "trunk", "name": "东三环"}, "geometry": {"type": "LineString", "coordinates": [[116.4554936, 39.8971138], [116.4556208, 39.9013935], [116.4556238, 39.9043335], [116.4556653, 39.9053599], [116.4556592, 39.9058768], [116.4557456, 39.9080962], [116.455792, 39.9095611], [116.4557688, 39.9103947]]}}, {"type": "Feature", "properties": {"highway": "trunk", "name": "东二环"}, "geometry": {"type": "LineString", "coordinates": [[116.4379399, 39.8914215], [116.438038, 39.890792], [116.4388543, 39.8848681]]}}, {"type": "Feature", "properties": {"highway": "trunk", "name": "东二环"}, "geometry": {"type": "LineString", "coordinates": [[116.4380126, 39.8923581], [116.4379654, 39.8931084], [116.4379041, 39.8958469], [116.4378852, 39.8960175], [116.4378399, 39.8962324], [116.437757, 39.8964413], [116.4376373, 39.8966198]]}}, {"type": "Feature", "properties": {"railway": "rail", "name": "京哈线"}, "geometry": {"type": "LineString", "coordinates": [[116.4786488, 39.9011986], [116.4756445, 39.9010278], [116.4752955, 39.9010117], [116.4749717, 39.9009852], [116.4745101, 39.9009416], [116.4738549, 39.9008694]]}}, {"type": "Feature", "properties": {"highway": "trunk", "name": "东三环"}, "geometry": {"type": "LineString", "coordinates": [[116.4553323, 39.8971103], [116.455316, 39.8961879], [116.4553073, 39.8956958]]}}, {"type": "Feature", "properties": {"highway": "trunk", "name": "东三环"}, "geometry": {"type": "LineString", "coordinates": [[116.4553529, 39.8904282], [116.4554144, 39.8934623]]}}, {"type": "Feature", "properties": {"highway": "trunk", "name": "东三环"}, "geometry": {"type": "LineString", "coordinates": [[116.4554144, 39.8934623], [116.4554455, 39.8948952], [116.4554536, 39.8953164], [116.4554623, 39.8956723]]}}, {"type": "Feature", "properties": {"highway": "trunk", "name": "东三环"}, "geometry": {"type": "LineString", "coordinates": [[116.4552679, 39.893464], [116.4552584, 39.8930411], [116.4551992, 39.8904215]]}}, {"type": "Feature", "properties": {"highway": "trunk", "name": "东三环"}, "geometry": {"type": "LineString", "coordinates": [[116.4551992, 39.8904215], [116.4551632, 39.8893393], [116.4551201, 39.8879669], [116.4550611, 39.8852562]]}}, {"type": "Feature", "properties": {"highway": "trunk", "name": "东三环"}, "geometry": {"type": "LineString", "coordinates": [[116.4552244, 39.884001], [116.4552649, 39.8860256], [116.4553082, 39.8881945], [116.4553275, 39.8891614]]}}, {"type": "Feature", "properties": {"highway": "trunk", "name": "东三环"}, "geometry": {"type": "LineString", "coordinates": [[116.4550832, 39.8840079], [116.4550378, 39.8821634]]}}, {"type": "Feature", "properties": {"highway": "trunk", "name": "东三环"}, "geometry": {"type": "LineString", "coordinates": [[116.4550378, 39.8821634], [116.4549799, 39.8800479], [116.4549817, 39.8788399], [116.4549451, 39.8769928], [116.4549059, 39.8750095]]}}, {"type": "Feature", "properties": {"highway": "trunk", "name": "东三环"}, "geometry": {"type": "LineString", "coordinates": [[116.4551944, 39.882162], [116.4552244, 39.884001]]}}, {"type": "Feature", "properties": {"highway": "trunk", "name": "东三环"}, "geometry": {"type": "LineString", "coordinates": [[116.4548343, 39.8709229], [116.4547837, 39.8691012]]}}, {"type": "Feature", "properties": {"highway": "trunk", "name": "东三环"}, "geometry": {"type": "LineString", "coordinates": [[116.4549432, 39.8690922], [116.4549913, 39.8709211]]}}, {"type": "Feature", "properties": {"highway": "trunk", "name": "东三环"}, "geometry": {"type": "LineString", "coordinates": [[116.4549913, 39.8709211], [116.4550137, 39.8724406]]}}, {"type": "Feature", "properties": {"highway": "trunk", "name": "东二环"}, "geometry": {"type": "LineString", "coordinates": [[116.4368822, 39.8972661], [116.4365091, 39.8974284], [116.436211, 39.8975157], [116.4358855, 39.8975937], [116.434374, 39.8979148]]}}, {"type": "Feature", "properties": {"highway": "trunk", "name": "东二环"}, "geometry": {"type": "LineString", "coordinates": [[116.4376243, 39.896337], [116.4377019, 39.8961191], [116.4377538, 39.8958795], [116.4377676, 39.8956585], [116.437777, 39.8935634], [116.437769, 39.8933075], [116.4378171, 39.8923609]]}}, {"type": "Feature", "properties": {"highway": "trunk", "name": "东二环"}, "geometry": {"type": "LineString", "coordinates": [[116.439381, 39.8819835], [116.439238, 39.8832919], [116.4390946, 39.8844353]]}}, {"type": "Feature", "properties": {"highway": "trunk", "name": "东二环"}, "geometry": {"type": "LineString", "coordinates": [[116.4389597, 39.8853067], [116.4388829, 39.8860308], [116.4383843, 39.8898026], [116.4381246, 39.8912948], [116.4380273, 39.8922543], [116.4380126, 39.8923581]]}}, {"type": "Feature", "properties": {"railway": "rail", "name": "京沪京哈联络线"}, "geometry": {"type": "LineString", "coordinates": [[116.4385992, 39.8995433], [116.4379617, 39.8994659], [116.4377709, 39.8994464], [116.4375689, 39.899415], [116.4373434, 39.8993733], [116.4369888, 39.8992761], [116.436786, 39.899198], [116.4365165, 39.899084], [116.4363613, 39.8990071], [116.4361531, 39.8988828], [116.436006, 39.8987791], [116.4358721, 39.8986688], [116.4357563, 39.8985666], [116.4356548, 39.898468]]}}, {"type": "Feature", "properties": {"railway": "rail", "name": "京沪京哈联络线"}, "geometry": {"type": "LineString", "coordinates": [[116.4397906, 39.8997222], [116.4395887, 39.899693], [116.4393959, 39.8996637], [116.4390214, 39.8995988], [116.4388169, 39.8995701], [116.4385992, 39.8995433]]}}, {"type": "Feature", "properties": {"railway": "rail", "name": ""}, "geometry": {"type": "LineString", "coordinates": [[116.440967, 39.8998812], [116.4406941, 39.899844], [116.4402787, 39.8997803], [116.4400105, 39.8997452]]}}, {"type": "Feature", "properties": {"railway": "rail", "name": ""}, "geometry": {"type": "LineString", "coordinates": [[116.43308, 39.9004235], [116.4332999, 39.9004309], [116.4335083, 39.9004371], [116.4337115, 39.9004488], [116.4338935, 39.9004652], [116.4340998, 39.9004909], [116.4342695, 39.9005213], [116.4344268, 39.9005548], [116.4353293, 39.9007387], [116.4355036, 39.9007706], [116.4356712, 39.9007963], [116.4358402, 39.9008138], [116.4360333, 39.9008272], [116.4362725, 39.9008311], [116.4403223, 39.9008843], [116.4405231, 39.9008892], [116.4406642, 39.9008947], [116.4407752, 39.900897], [116.44092, 39.9008974], [116.4411638, 39.9008905]]}}, {"type": "Feature", "properties": {"railway": "rail", "name": ""}, "geometry": {"type": "LineString", "coordinates": [[116.4338814, 39.9003602], [116.4341202, 39.900368], [116.4343072, 39.9003727], [116.4345034, 39.9003704], [116.4346444, 39.9003645], [116.434764, 39.9003611], [116.4351177, 39.9003368], [116.4353888, 39.9003118], [116.4355614, 39.9002917], [116.4357636, 39.9002642], [116.4358968, 39.9002356], [116.435981, 39.9002181], [116.4360463, 39.9002034], [116.4362548, 39.9001579], [116.436471, 39.9001142], [116.4366013, 39.9000961], [116.4366969, 39.9000877], [116.4367983, 39.900081], [116.4370058, 39.9000789], [116.4372015, 39.9000857], [116.4376306, 39.9001025], [116.4379292, 39.9001126], [116.4392958, 39.9001555]]}}, {"type": "Feature", "properties": {"railway": "rail", "name": ""}, "geometry": {"type": "LineString", "coordinates": [[116.4340608, 39.900435], [116.4342, 39.9004584], [116.4343525, 39.9004912], [116.4347198, 39.9005669], [116.4350602, 39.9006343], [116.4353221, 39.9006886], [116.4355116, 39.9007253], [116.4357273, 39.9007584], [116.4359075, 39.9007784], [116.4360847, 39.9007903], [116.4362725, 39.9007933], [116.4404825, 39.9008383], [116.4410231, 39.9008439], [116.4411515, 39.90084], [116.4412786, 39.9008337], [116.441409, 39.9008193], [116.4415376, 39.9008042], [116.441725, 39.9007752], [116.4423633, 39.9006946]]}}, {"type": "Feature", "properties": {"railway": "rail", "name": ""}, "geometry": {"type": "LineString", "coordinates": [[116.4417272, 39.9006878], [116.4415149, 39.9007145], [116.4414136, 39.9007267], [116.4413015, 39.9007367], [116.4411968, 39.9007439], [116.4410276, 39.9007489], [116.4404982, 39.900747], [116.4362778, 39.900693], [116.4361291, 39.9006928], [116.4360019, 39.9006866], [116.4358384, 39.9006749], [116.4356756, 39.9006579], [116.435508, 39.9006328], [116.4353271, 39.9005997], [116.4349742, 39.9005226], [116.4349381, 39.9005147], [116.4347728, 39.9004788], [116.4346397, 39.900457], [116.4344974, 39.9004391], [116.4343652, 39.9004235], [116.4342545, 39.9004165], [116.4341142, 39.9004126], [116.4337783, 39.9004012]]}}, {"type": "Feature", "properties": {"railway": "rail", "name": ""}, "geometry": {"type": "LineString", "coordinates": [[116.4445949, 39.9003339], [116.4448168, 39.9003143], [116.4449243, 39.9003066], [116.4450208, 39.9003045], [116.4451179, 39.9003011], [116.4452627, 39.9002899], [116.4453915, 39.9002789], [116.4455717, 39.9002631], [116.445714, 39.9002522], [116.4458869, 39.9002413], [116.4468462, 39.9002233]]}}, {"type": "Feature", "properties": {"railway": "rail", "name": ""}, "geometry": {"type": "LineString", "coordinates": [[116.4335559, 39.9004706], [116.4337397, 39.9004913], [116.4339093, 39.9005096], [116.4340599, 39.9005284], [116.4342, 39.9005544], [116.4343518, 39.9005848], [116.4353337, 39.9007908], [116.4355217, 39.900824], [116.4356407, 39.9008428], [116.4357867, 39.9008589], [116.435942, 39.9008732], [116.4361019, 39.9008795], [116.4362689, 39.9008838], [116.4388038, 39.9009114], [116.4401901, 39.9009285], [116.4402965, 39.900927], [116.440411, 39.9009266], [116.4405485, 39.9009231], [116.4407411, 39.9009161], [116.4409198, 39.9009057], [116.4411638, 39.9008905], [116.4412655, 39.9008821], [116.4414112, 39.9008658]]}}, {"type": "Feature", "properties": {"railway": "rail", "name": ""}, "geometry": {"type": "LineString", "coordinates": [[116.434764, 39.9003611], [116.435362, 39.9003519], [116.4354135, 39.9003518], [116.4356361, 39.9003508], [116.4382867, 39.9003767], [116.4387288, 39.9003845]]}}, {"type": "Feature", "properties": {"railway": "rail", "name": ""}, "geometry": {"type": "LineString", "coordinates": [[116.4388038, 39.9009114], [116.4390924, 39.9009277], [116.4394657, 39.9009659], [116.4396809, 39.9009882], [116.4399923, 39.9010183], [116.4401911, 39.9010306], [116.4403631, 39.9010301], [116.4405688, 39.9010287], [116.4407614, 39.9010155], [116.440934, 39.9009985], [116.4412263, 39.9009546], [116.4414245, 39.9009266], [116.4416352, 39.9008963], [116.442096, 39.9008308], [116.4422576, 39.9008055], [116.4423924, 39.9007799], [116.4425057, 39.9007542], [116.4429384, 39.900659], [116.4429595, 39.9006543], [116.4431864, 39.9006013], [116.4434416, 39.9005443], [116.4437017, 39.9004843]]}}, {"type": "Feature", "properties": {"railway": "rail", "name": "京哈线"}, "geometry": {"type": "LineString", "coordinates": [[116.4550973, 39.9000328], [116.4558651, 39.9000219]]}}, {"type": "Feature", "properties": {"railway": "rail", "name": "京哈线"}, "geometry": {"type": "LineString", "coordinates": [[116.4558666, 39.8999667], [116.4550932, 39.8999738]]}}, {"type": "Feature", "properties": {"railway": "rail", "name": "京哈线"}, "geometry": {"type": "LineString", "coordinates": [[116.4314417, 39.9004673], [116.4315596, 39.9004556], [116.4318425, 39.900422], [116.4320987, 39.9003837], [116.4322745, 39.9003494], [116.4325153, 39.9002917], [116.4328807, 39.900205], [116.4338898, 39.8999581], [116.434231, 39.8998677], [116.434513, 39.8997968], [116.4349603, 39.8996999], [116.4353743, 39.89962], [116.4357953, 39.8995578], [116.4361879, 39.8995245], [116.4365222, 39.8995109], [116.4367757, 39.8995022], [116.4372704, 39.899517], [116.437653, 39.899543], [116.4382987, 39.8996029], [116.439544, 39.8997318], [116.440967, 39.8998812]]}}, {"type": "Feature", "properties": {"railway": "rail", "name": "京哈线"}, "geometry": {"type": "LineString", "coordinates": [[116.4397906, 39.8997222], [116.4383175, 39.8995643], [116.437756, 39.8995102], [116.437525, 39.899491], [116.4372284, 39.899471], [116.4368819, 39.8994614], [116.4364487, 39.8994656], [116.4361193, 39.8994823], [116.4358301, 39.8995098], [116.4355567, 39.899543], [116.4352364, 39.899594], [116.4349901, 39.8996372], [116.434502, 39.8997471], [116.4336758, 39.8999569], [116.4327854, 39.9001711], [116.4325728, 39.9002227], [116.4323233, 39.9002883], [116.4321039, 39.9003358], [116.4318857, 39.9003734], [116.4316573, 39.900402], [116.4314334, 39.9004207]]}}, {"type": "Feature", "properties": {"railway": "rail", "name": ""}, "geometry": {"type": "LineString", "coordinates": [[116.4595901, 39.9002736], [116.4598144, 39.9003451], [116.4600136, 39.9004174], [116.4601921, 39.9004748], [116.4603926, 39.9005306], [116.4605918, 39.9005755], [116.4607897, 39.9006021], [116.4609349, 39.9006179], [116.4611167, 39.9006328]]}}, {"type": "Feature", "properties": {"railway": "rail", "name": ""}, "geometry": {"type": "LineString", "coordinates": [[116.4550813, 39.9000935], [116.4558763, 39.9000743]]}}, {"type": "Feature", "properties": {"railway": "rail", "name": ""}, "geometry": {"type": "LineString", "coordinates": [[116.4604279, 39.9000772], [116.4609207, 39.900065], [116.4610554, 39.9000642], [116.4611722, 39.9000663]]}}, {"type": "Feature", "properties": {"railway": "rail", "name": ""}, "geometry": {"type": "LineString", "coordinates": [[116.4409759, 39.900212], [116.4407857, 39.9001992], [116.4406976, 39.9001922], [116.4402426, 39.9001397], [116.4399008, 39.9000941], [116.4396401, 39.9000607], [116.4393254, 39.9000221], [116.4390599, 39.8999909], [116.4388499, 39.8999714], [116.4386714, 39.8999623], [116.4361456, 39.8998819], [116.4359117, 39.8998735], [116.4355998, 39.8998871], [116.4352651, 39.899908]]}}, {"type": "Feature", "properties": {"railway": "rail", "name": ""}, "geometry": {"type": "LineString", "coordinates": [[116.4445586, 39.9004479], [116.4446983, 39.9004531], [116.4447743, 39.9004576], [116.4448507, 39.9004636], [116.4449504, 39.9004742], [116.4450973, 39.9004966], [116.4452389, 39.9005224], [116.4454284, 39.9005613], [116.4454711, 39.9005712], [116.445568, 39.9005936], [116.4457503, 39.900635], [116.4459688, 39.9006893], [116.4462558, 39.9007605]]}}, {"type": "Feature", "properties": {"railway": "rail", "name": ""}, "geometry": {"type": "LineString", "coordinates": [[116.4458254, 39.9000689], [116.4460869, 39.9000427], [116.4462031, 39.9000349], [116.4464705, 39.9000232], [116.4468012, 39.9000149], [116.4473271, 39.9000037], [116.4512402, 39.8999204]]}}, {"type": "Feature", "properties": {"railway": "rail", "name": ""}, "geometry": {"type": "LineString", "coordinates": [[116.4417584, 39.9008198], [116.4419716, 39.9007792], [116.4420856, 39.9007572], [116.4423633, 39.9006946], [116.4424488, 39.9006754], [116.4426563, 39.9006311], [116.4429404, 39.900569], [116.4432763, 39.9004894], [116.4435544, 39.9004356]]}}, {"type": "Feature", "properties": {"railway": "rail", "name": ""}, "geometry": {"type": "LineString", "coordinates": [[116.4399008, 39.9000941], [116.439616, 39.9000772], [116.4363469, 39.899949], [116.4360967, 39.8999311]]}}, {"type": "Feature", "properties": {"railway": "rail", "name": ""}, "geometry": {"type": "LineString", "coordinates": [[116.4372377, 39.8997942], [116.4385228, 39.8998358], [116.4386571, 39.8998367], [116.4387531, 39.8998357], [116.4388899, 39.8998277], [116.4390938, 39.8998171], [116.4393422, 39.8998118]]}}, {"type": "Feature", "properties": {"railway": "rail", "name": ""}, "geometry": {"type": "LineString", "coordinates": [[116.4456724, 39.9003977], [116.4455828, 39.9004006], [116.4454377, 39.9004028], [116.4453077, 39.9004077], [116.4451836, 39.9004163], [116.4450608, 39.9004269], [116.4449252, 39.9004359], [116.4448267, 39.9004379], [116.4445586, 39.9004479]]}}, {"type": "Feature", "properties": {"railway": "rail", "name": ""}, "geometry": {"type": "LineString", "coordinates": [[116.4423455, 39.900648], [116.4426563, 39.9006311], [116.4429534, 39.9006159], [116.4431864, 39.9006013], [116.4433767, 39.9005869], [116.4437069, 39.900552]]}}, {"type": "Feature", "properties": {"railway": "rail", "name": ""}, "geometry": {"type": "LineString", "coordinates": [[116.4347016, 39.8999068], [116.435031, 39.8998684], [116.4357283, 39.8998269], [116.4359565, 39.899821], [116.436165, 39.8998265], [116.4384649, 39.899895]]}}, {"type": "Feature", "properties": {"railway": "rail", "name": ""}, "geometry": {"type": "LineString", "coordinates": [[116.4621118, 39.8999556], [116.4638722, 39.9000493]]}}, {"type": "Feature", "properties": {"railway": "rail", "name": ""}, "geometry": {"type": "LineString", "coordinates": [[116.4349775, 39.8998144], [116.4353354, 39.8997482], [116.4355114, 39.89972], [116.435702, 39.899697], [116.4358992, 39.8996729], [116.4361512, 39.8996593], [116.4362311, 39.8996593]]}}, {"type": "Feature", "properties": {"railway": "rail", "name": ""}, "geometry": {"type": "LineString", "coordinates": [[116.4352651, 39.899908], [116.4356479, 39.899906], [116.4358677, 39.8999176], [116.4359542, 39.899923], [116.4360967, 39.8999311], [116.4366955, 39.9000047], [116.437222, 39.9000677], [116.4373707, 39.9000822], [116.4376306, 39.9001025]]}}, {"type": "Feature", "properties": {"railway": "rail", "name": ""}, "geometry": {"type": "LineString", "coordinates": [[116.4600062, 39.9001976], [116.4604094, 39.9002225], [116.460661, 39.9002373], [116.4611522, 39.9002694]]}}, {"type": "Feature", "properties": {"railway": "rail", "name": ""}, "geometry": {"type": "LineString", "coordinates": [[116.4600062, 39.9001976], [116.4601395, 39.9002016], [116.4602434, 39.9002021], [116.4604031, 39.900201], [116.460759, 39.9002005], [116.4609707, 39.9002056], [116.4611577, 39.9002143]]}}, {"type": "Feature", "properties": {"railway": "rail", "name": ""}, "geometry": {"type": "LineString", "coordinates": [[116.4595772, 39.9001387], [116.4597056, 39.900129], [116.4598223, 39.9001177], [116.460009, 39.9000957], [116.4601586, 39.9000858], [116.4602595, 39.9000807], [116.4603686, 39.9000776], [116.4604279, 39.9000772]]}}, {"type": "Feature", "properties": {"railway": "rail", "name": ""}, "geometry": {"type": "LineString", "coordinates": [[116.4605802, 39.9000348], [116.4607316, 39.9000261], [116.4608589, 39.9000223], [116.4612332, 39.9000071], [116.4616593, 39.9000117], [116.4621051, 39.9000241]]}}, {"type": "Feature", "properties": {"railway": "rail", "name": ""}, "geometry": {"type": "LineString", "coordinates": [[116.4595944, 39.9002421], [116.4599527, 39.9002932], [116.4602358, 39.9003344], [116.4604452, 39.9003551], [116.4608225, 39.9003823], [116.4611395, 39.9003987]]}}, {"type": "Feature", "properties": {"railway": "rail", "name": ""}, "geometry": {"type": "LineString", "coordinates": [[116.4600702, 39.9003431], [116.4603747, 39.900417], [116.4605213, 39.9004515], [116.4606623, 39.9004794], [116.4607987, 39.9005003], [116.4609431, 39.9005148], [116.4611273, 39.9005253]]}}, {"type": "Feature", "properties": {"railway": "rail", "name": ""}, "geometry": {"type": "LineString", "coordinates": [[116.4340279, 39.9000123], [116.434472, 39.8999415], [116.4347016, 39.8999068], [116.4353687, 39.8997998], [116.4356104, 39.8997624], [116.4357805, 39.8997396], [116.435922, 39.8997235], [116.4361406, 39.8997157], [116.436229, 39.8997184]]}}, {"type": "Feature", "properties": {"railway": "rail", "name": ""}, "geometry": {"type": "LineString", "coordinates": [[116.45817, 39.9000913], [116.4584456, 39.9001244], [116.458628, 39.9001481], [116.4587866, 39.9001743], [116.4589702, 39.9002144], [116.4591378, 39.9002534], [116.4593209, 39.9002991], [116.4594483, 39.9003332], [116.4595988, 39.9003718], [116.4597307, 39.9004127], [116.4598616, 39.9004572], [116.4600281, 39.9005183], [116.4602506, 39.9006086], [116.4604581, 39.9007054], [116.4605797, 39.9007678], [116.4606949, 39.9008306], [116.4608129, 39.9009035], [116.4609563, 39.9009963], [116.4610706, 39.9010723], [116.4611665, 39.9011363], [116.4612803, 39.9012214], [116.4615348, 39.9014405], [116.4621061, 39.9019183], [116.4622301, 39.9020231], [116.4623936, 39.9021518], [116.4625081, 39.9022359], [116.462623, 39.9023098], [116.4627325, 39.9023714], [116.4628567, 39.9024281], [116.4629548, 39.9024694], [116.463117, 39.902524], [116.4632487, 39.9025608], [116.4633664, 39.9025824], [116.46343, 39.9025971], [116.4635264, 39.9026133], [116.4636195, 39.9026237], [116.4636959, 39.9026313], [116.4637374, 39.9026344], [116.4638187, 39.9026383], [116.4639054, 39.9026386], [116.4640078, 39.902638], [116.4641092, 39.9026336], [116.4642598, 39.9026204], [116.4644223, 39.9025973], [116.46456, 39.9025659], [116.4647124, 39.9025245], [116.4648321, 39.9024892], [116.4649831, 39.9024309], [116.4651162, 39.9023736], [116.4652168, 39.9023202], [116.4653224, 39.9022556], [116.4654275, 39.9021817], [116.465535, 39.9021038], [116.4656058, 39.9020406], [116.4656653, 39.901986], [116.4657325, 39.9019201], [116.4657962, 39.9018476], [116.4658854, 39.9017343], [116.4659393, 39.9016454], [116.4659837, 39.9015783], [116.466023, 39.9014862], [116.4660674, 39.9013761], [116.4660969, 39.9012729], [116.466135, 39.9011352], [116.4661404, 39.9009643], [116.4661381, 39.90083], [116.4661245, 39.9006748], [116.4660974, 39.9005811], [116.4660533, 39.9004426], [116.4660005, 39.9003196], [116.4659234, 39.9001742], [116.4658406, 39.9000577], [116.4657558, 39.899957], [116.465672, 39.899869], [116.4655829, 39.8997881], [116.4654916, 39.8997102], [116.4653937, 39.8996388], [116.4652853, 39.8995755], [116.4651882, 39.8995171], [116.4650674, 39.8994584], [116.4649674, 39.8994132], [116.4648801, 39.8993806], [116.4647439, 39.8993329], [116.4645948, 39.8992912], [116.4644249, 39.8992613], [116.4641961, 39.8992308], [116.4640045, 39.8992143], [116.4636847, 39.8992005], [116.4634676, 39.8992009], [116.4632338, 39.899211], [116.4629466, 39.8992394], [116.4626153, 39.8992987], [116.462303, 39.8993638], [116.4619193, 39.899451], [116.4611663, 39.8996314], [116.4603341, 39.8998327], [116.4600455, 39.8998928], [116.4597224, 39.8999598], [116.4595209, 39.8999985], [116.459344, 39.9000245], [116.4592002, 39.900038], [116.4589641, 39.9000533], [116.4577726, 39.9000688]]}}, {"type": "Feature", "properties": {"railway": "rail", "name": ""}, "geometry": {"type": "LineString", "coordinates": [[116.434472, 39.8999415], [116.4349775, 39.8998144], [116.4352443, 39.89975], [116.4354085, 39.899711], [116.4356528, 39.8996634], [116.4358663, 39.8996352], [116.4361393, 39.8996155], [116.436233, 39.8996117]]}}, {"type": "Feature", "properties": {"railway": "rail", "name": ""}, "geometry": {"type": "LineString", "coordinates": [[116.4595901, 39.9002736], [116.4598488, 39.9003359], [116.4600924, 39.9003981], [116.4603067, 39.9004595], [116.4605402, 39.9005139], [116.4607685, 39.9005486], [116.460939, 39.9005655], [116.461122, 39.9005791]]}}, {"type": "Feature", "properties": {"railway": "rail", "name": ""}, "geometry": {"type": "LineString", "coordinates": [[116.4595944, 39.9002421], [116.4598367, 39.9002913], [116.4599071, 39.9003065], [116.4600702, 39.9003431], [116.4602561, 39.9003785], [116.4604863, 39.9004139], [116.4606799, 39.9004392], [116.4608584, 39.9004557], [116.4609474, 39.900461], [116.4610363, 39.9004662], [116.4611326, 39.9004716]]}}, {"type": "Feature", "properties": {"railway": "rail", "name": ""}, "geometry": {"type": "LineString", "coordinates": [[116.4595772, 39.9001387], [116.4601422, 39.9001235], [116.460383, 39.9001271], [116.4605687, 39.9001301], [116.4608459, 39.9001441], [116.4610174, 39.9001551], [116.4611625, 39.900165]]}}, {"type": "Feature", "properties": {"railway": "rail", "name": ""}, "geometry": {"type": "LineString", "coordinates": [[116.4595914, 39.9001726], [116.4597975, 39.9001985], [116.4599234, 39.9002174], [116.4600617, 39.9002391], [116.460244, 39.9002578], [116.4604233, 39.9002749], [116.4608058, 39.9002987], [116.4611471, 39.9003215]]}}, {"type": "Feature", "properties": {"railway": "rail", "name": ""}, "geometry": {"type": "LineString", "coordinates": [[116.4392958, 39.9001555], [116.4395111, 39.90017], [116.4399709, 39.9002137], [116.4401538, 39.9002288]]}}, {"type": "Feature", "properties": {"railway": "rail", "name": ""}, "geometry": {"type": "LineString", "coordinates": [[116.4418198, 39.9000211], [116.4424119, 39.9000392], [116.4426726, 39.9000441], [116.4428009, 39.9000466], [116.4428499, 39.9000485], [116.4430104, 39.9000557], [116.4431574, 39.9000589], [116.4432398, 39.9000591], [116.4433333, 39.9000566], [116.443425, 39.9000509], [116.4435338, 39.9000406], [116.4436884, 39.9000191], [116.4442589, 39.8999409], [116.4455416, 39.8997783]]}}, {"type": "Feature", "properties": {"railway": "rail", "name": ""}, "geometry": {"type": "LineString", "coordinates": [[116.4395541, 39.899868], [116.4398335, 39.8998884], [116.4400223, 39.8999102], [116.4419609, 39.9001422], [116.4421986, 39.9001748]]}}, {"type": "Feature", "properties": {"railway": "rail", "name": ""}, "geometry": {"type": "LineString", "coordinates": [[116.4414837, 39.9000339], [116.4418008, 39.9000699], [116.4419431, 39.9000811], [116.4420894, 39.9000856], [116.4425663, 39.9000967], [116.4429066, 39.9001048]]}}, {"type": "Feature", "properties": {"railway": "rail", "name": ""}, "geometry": {"type": "LineString", "coordinates": [[116.4366955, 39.9000047], [116.4369999, 39.9000304], [116.4393963, 39.900112], [116.4395613, 39.9001244], [116.4396882, 39.9001361], [116.4398054, 39.9001519], [116.4399393, 39.900167], [116.4400568, 39.9001749], [116.4403243, 39.9001923]]}}, {"type": "Feature", "properties": {"railway": "rail", "name": ""}, "geometry": {"type": "LineString", "coordinates": [[116.4388007, 39.8998873], [116.4390917, 39.8998861], [116.439296, 39.8998922], [116.4394841, 39.8999013], [116.439698, 39.8999164], [116.4422261, 39.9002257]]}}, {"type": "Feature", "properties": {"railway": "rail", "name": ""}, "geometry": {"type": "LineString", "coordinates": [[116.4402051, 39.9002298], [116.4403678, 39.9002355], [116.4404478, 39.9002363], [116.4407037, 39.9002487], [116.4411822, 39.9002609], [116.4421108, 39.900289], [116.4424641, 39.9003011], [116.4428128, 39.9003131]]}}, {"type": "Feature", "properties": {"railway": "rail", "name": ""}, "geometry": {"type": "LineString", "coordinates": [[116.4384649, 39.899895], [116.4387712, 39.899904], [116.438989, 39.8999166], [116.439201, 39.899938], [116.4395491, 39.899976], [116.441208, 39.9001714], [116.4414316, 39.9001849], [116.4416119, 39.9001925], [116.4417667, 39.9001974]]}}, {"type": "Feature", "properties": {"railway": "rail", "name": ""}, "geometry": {"type": "LineString", "coordinates": [[116.4398742, 39.89984], [116.4404153, 39.8999057], [116.4410554, 39.8999811], [116.4414837, 39.9000339], [116.4421986, 39.9001748], [116.442541, 39.9002492], [116.442803, 39.9002943]]}}, {"type": "Feature", "properties": {"railway": "rail", "name": ""}, "geometry": {"type": "LineString", "coordinates": [[116.4402051, 39.9002298], [116.4404382, 39.9002479], [116.4405939, 39.9002635], [116.4406967, 39.9002758], [116.4409334, 39.900301], [116.4411747, 39.9003191], [116.4414171, 39.9003238], [116.4420795, 39.9003382], [116.4422893, 39.9003333], [116.4428128, 39.9003131]]}}, {"type": "Feature", "properties": {"railway": "rail", "name": ""}, "geometry": {"type": "LineString", "coordinates": [[116.4360463, 39.9002034], [116.4364663, 39.9001508], [116.4366224, 39.9001359], [116.4367733, 39.9001244], [116.4369844, 39.9001232], [116.4371856, 39.9001254], [116.4388198, 39.9001813]]}}, {"type": "Feature", "properties": {"railway": "rail", "name": ""}, "geometry": {"type": "LineString", "coordinates": [[116.4435734, 39.8997167], [116.443794, 39.8996529], [116.4440703, 39.8995846], [116.444267, 39.899549], [116.4444317, 39.8995245], [116.4445958, 39.8994995], [116.4447898, 39.8994696], [116.4456664, 39.8993467], [116.4463218, 39.8992452]]}}, {"type": "Feature", "properties": {"railway": "rail", "name": ""}, "geometry": {"type": "LineString", "coordinates": [[116.4425025, 39.8999921], [116.4432625, 39.8998806], [116.44361, 39.8998324], [116.4439544, 39.8997846]]}}, {"type": "Feature", "properties": {"railway": "rail", "name": ""}, "geometry": {"type": "LineString", "coordinates": [[116.4440703, 39.8995846], [116.4442078, 39.89955], [116.444385, 39.8995091], [116.4445576, 39.8994698], [116.4448651, 39.8994058], [116.4451131, 39.8993594], [116.4456642, 39.8992826], [116.4463055, 39.8991892]]}}, {"type": "Feature", "properties": {"railway": "rail", "name": ""}, "geometry": {"type": "LineString", "coordinates": [[116.4426726, 39.9000441], [116.4428897, 39.9000381], [116.4429955, 39.9000321], [116.4430973, 39.9000233], [116.4432403, 39.9000094], [116.443432, 39.8999838], [116.4435842, 39.8999635], [116.4442568, 39.8998695], [116.4459368, 39.8996508]]}}, {"type": "Feature", "properties": {"railway": "rail", "name": ""}, "geometry": {"type": "LineString", "coordinates": [[116.4447898, 39.8994696], [116.4450827, 39.8994423], [116.4452944, 39.8994315], [116.4454717, 39.8994239], [116.4456287, 39.8994085], [116.4463411, 39.8993046]]}}, {"type": "Feature", "properties": {"railway": "rail", "name": ""}, "geometry": {"type": "LineString", "coordinates": [[116.4422425, 39.9000118], [116.4424926, 39.9000035], [116.4426915, 39.8999903], [116.4428398, 39.8999866], [116.4429396, 39.89998], [116.4431227, 39.899962], [116.4432925, 39.899944], [116.4435945, 39.899901], [116.4442302, 39.8998138], [116.4459368, 39.8995862]]}}, {"type": "Feature", "properties": {"railway": "rail", "name": ""}, "geometry": {"type": "LineString", "coordinates": [[116.4462676, 39.9007402], [116.4463961, 39.900756], [116.4465177, 39.9007666], [116.4466579, 39.9007759], [116.4468561, 39.9007775], [116.447095, 39.9007759], [116.4473686, 39.9007771], [116.447828, 39.9007673], [116.4529933, 39.900656]]}}, {"type": "Feature", "properties": {"railway": "rail", "name": ""}, "geometry": {"type": "LineString", "coordinates": [[116.4460075, 39.9006586], [116.4462509, 39.9006833], [116.4464167, 39.9006922], [116.4466135, 39.9006955], [116.4473668, 39.9006834], [116.4529966, 39.9005517]]}}, {"type": "Feature", "properties": {"railway": "rail", "name": ""}, "geometry": {"type": "LineString", "coordinates": [[116.4469613, 39.9009527], [116.4470866, 39.9009665], [116.4471587, 39.900972], [116.4472444, 39.900975], [116.4473255, 39.900978], [116.4474008, 39.9009814], [116.4474988, 39.9009879], [116.4476254, 39.9009954], [116.4477568, 39.9009959], [116.4479641, 39.9009931], [116.4529923, 39.9008717]]}}, {"type": "Feature", "properties": {"railway": "rail", "name": ""}, "geometry": {"type": "LineString", "coordinates": [[116.4462558, 39.9007605], [116.4464126, 39.9007914], [116.4465285, 39.9008111], [116.4467205, 39.9008362], [116.4468399, 39.9008511], [116.44697, 39.9008606], [116.4470735, 39.900862], [116.4473704, 39.9008598], [116.4478551, 39.9008527], [116.4484666, 39.9008404], [116.4523871, 39.900779]]}}, {"type": "Feature", "properties": {"railway": "rail", "name": ""}, "geometry": {"type": "LineString", "coordinates": [[116.4462676, 39.9007402], [116.4463374, 39.9007507], [116.4465338, 39.9007799], [116.4467169, 39.9008002], [116.4468143, 39.900809], [116.4469239, 39.9008156], [116.4470766, 39.9008165], [116.4473618, 39.9008163], [116.4529951, 39.900694]]}}, {"type": "Feature", "properties": {"railway": "rail", "name": ""}, "geometry": {"type": "LineString", "coordinates": [[116.4469613, 39.9009527], [116.4470316, 39.9009634], [116.4473211, 39.9010107], [116.4475155, 39.9010331], [116.4476766, 39.9010469], [116.4478068, 39.9010502], [116.4479593, 39.9010517], [116.453006, 39.9009475]]}}, {"type": "Feature", "properties": {"railway": "rail", "name": ""}, "geometry": {"type": "LineString", "coordinates": [[116.4452673, 39.900491], [116.4453832, 39.9005051], [116.4455621, 39.9005285], [116.4457379, 39.9005534], [116.4458985, 39.9005682], [116.4460499, 39.9005737], [116.4462055, 39.9005729], [116.4466283, 39.9005604], [116.4473749, 39.9005461], [116.4499631, 39.9004945], [116.4500601, 39.9004926]]}}, {"type": "Feature", "properties": {"railway": "rail", "name": ""}, "geometry": {"type": "LineString", "coordinates": [[116.4460075, 39.9006586], [116.4460384, 39.9006631], [116.4462915, 39.9006977], [116.4464953, 39.9007222], [116.4466191, 39.900732], [116.4467697, 39.9007374], [116.4469868, 39.9007347], [116.4473679, 39.9007289], [116.452995, 39.9006072]]}}, {"type": "Feature", "properties": {"railway": "rail", "name": ""}, "geometry": {"type": "LineString", "coordinates": [[116.4465766, 39.9009356], [116.4466643, 39.90096], [116.4467172, 39.9009733], [116.4468199, 39.9009976], [116.4469587, 39.9010285], [116.447069, 39.9010547], [116.447098, 39.9010616], [116.4474353, 39.9011469], [116.4475651, 39.9011807], [116.4477053, 39.9012026], [116.4478546, 39.9012146], [116.4480242, 39.9012234], [116.4483016, 39.901222], [116.4530104, 39.9011161]]}}, {"type": "Feature", "properties": {"railway": "rail", "name": ""}, "geometry": {"type": "LineString", "coordinates": [[116.4463661, 39.9009123], [116.4464725, 39.9009481], [116.4465855, 39.900985], [116.4467348, 39.9010358], [116.4469568, 39.9011135], [116.4472709, 39.9012151], [116.4474786, 39.9012748], [116.4476059, 39.9013017], [116.4477409, 39.9013206], [116.4477604, 39.9013224], [116.4478733, 39.9013326], [116.4480239, 39.9013375], [116.4482981, 39.9013332], [116.4484346, 39.9013302], [116.4530189, 39.9012317]]}}, {"type": "Feature", "properties": {"railway": "rail", "name": ""}, "geometry": {"type": "LineString", "coordinates": [[116.4437069, 39.900552], [116.4439121, 39.9005236], [116.4440705, 39.9005091], [116.444199, 39.9005025], [116.4443472, 39.9004978], [116.444519, 39.9004959], [116.4446756, 39.9004988], [116.4447971, 39.9005034], [116.444909, 39.9005125], [116.4450462, 39.900532], [116.4451968, 39.9005565], [116.4453317, 39.9005834], [116.4454293, 39.9006068], [116.4454991, 39.9006238], [116.4460899, 39.9007677], [116.4465128, 39.9008707], [116.4465569, 39.9008818]]}}, {"type": "Feature", "properties": {"railway": "rail", "name": ""}, "geometry": {"type": "LineString", "coordinates": [[116.4463661, 39.9009123], [116.4464671, 39.9009494], [116.4465393, 39.9009813], [116.4466352, 39.9010273], [116.4467573, 39.9010826], [116.4468616, 39.9011309], [116.4470023, 39.9011867], [116.4471292, 39.9012335], [116.4472405, 39.9012728], [116.4473694, 39.9013067], [116.4475121, 39.9013351], [116.4476405, 39.9013574], [116.4477672, 39.9013723], [116.4479054, 39.9013806], [116.4480543, 39.9013822], [116.4482984, 39.9013817], [116.4530225, 39.9012794]]}}, {"type": "Feature", "properties": {"railway": "rail", "name": ""}, "geometry": {"type": "LineString", "coordinates": [[116.4465766, 39.9009356], [116.4468586, 39.9010314], [116.4471624, 39.901135], [116.4473312, 39.9011888], [116.4474701, 39.9012236], [116.4476025, 39.9012505], [116.4477245, 39.9012675], [116.4478738, 39.9012794], [116.4480153, 39.9012834], [116.4482979, 39.9012797], [116.4530164, 39.9011836]]}}, {"type": "Feature", "properties": {"railway": "rail", "name": ""}, "geometry": {"type": "LineString", "coordinates": [[116.4459199, 39.8999326], [116.4460752, 39.8999014], [116.4462013, 39.8998801], [116.4465494, 39.8998321], [116.4467195, 39.8998098], [116.4468562, 39.899797], [116.4469817, 39.8997892], [116.4473371, 39.8997795], [116.4509626, 39.8996984]]}}, {"type": "Feature", "properties": {"railway": "rail", "name": ""}, "geometry": {"type": "LineString", "coordinates": [[116.4450012, 39.9002806], [116.4450978, 39.9002624], [116.445202, 39.9002452], [116.4453136, 39.90022], [116.4454362, 39.9001913], [116.445539, 39.9001668], [116.445668, 39.9001411], [116.445756, 39.900131], [116.4458795, 39.9001187], [116.445992, 39.9001124], [116.4460735, 39.9001102], [116.446842, 39.9000969]]}}, {"type": "Feature", "properties": {"railway": "rail", "name": ""}, "geometry": {"type": "LineString", "coordinates": [[116.4458254, 39.9000689], [116.4459985, 39.9000445], [116.4461753, 39.9000195], [116.446311, 39.9000024], [116.4464154, 39.8999918], [116.446509, 39.8999838], [116.4466144, 39.899979], [116.4468067, 39.8999724], [116.4520726, 39.8998405]]}}, {"type": "Feature", "properties": {"railway": "rail", "name": ""}, "geometry": {"type": "LineString", "coordinates": [[116.4450012, 39.9002806], [116.4452423, 39.900248], [116.4453619, 39.900231], [116.4454991, 39.9002096], [116.4456417, 39.900192], [116.445812, 39.900177], [116.4459737, 39.900171], [116.4461351, 39.9001682], [116.446844, 39.9001559]]}}, {"type": "Feature", "properties": {"railway": "rail", "name": ""}, "geometry": {"type": "LineString", "coordinates": [[116.4453539, 39.9001476], [116.4460207, 39.9000002], [116.4461934, 39.899969], [116.4463479, 39.8999503], [116.4465024, 39.8999378], [116.4466356, 39.8999324], [116.446806, 39.8999297], [116.4470477, 39.8999235], [116.4520705, 39.8997985]]}}, {"type": "Feature", "properties": {"railway": "rail", "name": ""}, "geometry": {"type": "LineString", "coordinates": [[116.4459199, 39.8999326], [116.4462103, 39.8998671], [116.4463429, 39.8998376], [116.4464604, 39.8998112], [116.4465829, 39.8997925], [116.4467945, 39.8997661], [116.4469281, 39.8997521], [116.4470992, 39.8997436], [116.4472572, 39.8997367], [116.447463, 39.8997316], [116.4509577, 39.8996488], [116.4512409, 39.8996438], [116.4514665, 39.8996509], [116.4516561, 39.8996607]]}}, {"type": "Feature", "properties": {"railway": "rail", "name": ""}, "geometry": {"type": "LineString", "coordinates": [[116.4463186, 39.8997987], [116.4465171, 39.8997622], [116.4466487, 39.8997428], [116.4468026, 39.8997234], [116.4469332, 39.8997086], [116.447083, 39.8997001], [116.4472555, 39.8996932], [116.4507801, 39.8996108], [116.4509408, 39.8996143], [116.4510943, 39.8996174]]}}, {"type": "Feature", "properties": {"railway": "rail", "name": ""}, "geometry": {"type": "LineString", "coordinates": [[116.4459186, 39.8999021], [116.4462295, 39.8998012], [116.4463601, 39.8997577], [116.4465221, 39.8997087], [116.4467357, 39.8996629], [116.4469028, 39.8996411], [116.4470982, 39.8996241], [116.4472617, 39.8996131], [116.4507167, 39.8995339], [116.4509596, 39.8995394], [116.4511257, 39.8995525], [116.4513029, 39.8995743], [116.4514811, 39.8996022], [116.4517921, 39.8996504], [116.4521064, 39.8996996], [116.4525219, 39.8997647]]}}, {"type": "Feature", "properties": {"railway": "rail", "name": ""}, "geometry": {"type": "LineString", "coordinates": [[116.4459186, 39.8999021], [116.4461013, 39.8998506], [116.4462066, 39.8998249], [116.4463186, 39.8997987], [116.4465114, 39.8997535], [116.4466714, 39.899717], [116.4468222, 39.8996906], [116.4469832, 39.8996719], [116.4471311, 39.899661], [116.4472606, 39.8996568], [116.4507054, 39.899579], [116.450955, 39.8995752], [116.4511292, 39.8995777]]}}, {"type": "Feature", "properties": {"highway": "trunk", "name": "东三环"}, "geometry": {"type": "LineString", "coordinates": [[116.4555853, 39.9104507], [116.4555784, 39.909522], [116.4555573, 39.9080947], [116.4555039, 39.9060103], [116.4554635, 39.9043552], [116.4554566, 39.9031215], [116.4554575, 39.901396], [116.4553323, 39.8971103]]}}, {"type": "Feature", "properties": {"highway": "trunk", "name": "东三环南路"}, "geometry": {"type": "LineString", "coordinates": [[116.4550466, 39.8747156], [116.4550527, 39.8750113]]}}, {"type": "Feature", "properties": {"highway": "trunk", "name": "东三环南路"}, "geometry": {"type": "LineString", "coordinates": [[116.4549059, 39.8750095], [116.4549, 39.8747123]]}}, {"type": "Feature", "properties": {"highway": "trunk", "name": "东三环"}, "geometry": {"type": "LineString", "coordinates": [[116.4548074, 39.8728196], [116.4548041, 39.8726038]]}}, {"type": "Feature", "properties": {"highway": "trunk", "name": "东三环"}, "geometry": {"type": "LineString", "coordinates": [[116.4550527, 39.8750113], [116.4551017, 39.8772958], [116.4551206, 39.8782973], [116.4551302, 39.8790601]]}}, {"type": "Feature", "properties": {"railway": "rail", "name": "京哈线"}, "geometry": {"type": "LineString", "coordinates": [[116.4742588, 39.9009581], [116.4751666, 39.9010519], [116.4756385, 39.9010771], [116.4786425, 39.9012458]]}}, {"type": "Feature", "properties": {"railway": "rail", "name": "京哈线"}, "geometry": {"type": "LineString", "coordinates": [[116.4696897, 39.9003934], [116.4690365, 39.9003216], [116.4684213, 39.9002334], [116.4679574, 39.9001294], [116.4673201, 39.8999524], [116.4666384, 39.8997273], [116.4657674, 39.899433], [116.4654506, 39.8993359], [116.4651498, 39.8992544], [116.4647603, 39.8991708], [116.4644618, 39.8991286], [116.4641609, 39.8991029], [116.4639417, 39.8990948], [116.4636906, 39.899094], [116.4634302, 39.8991029], [116.46314, 39.8991288], [116.4628922, 39.8991577], [116.4626336, 39.8992027], [116.4623226, 39.8992613], [116.4602714, 39.8997406], [116.4600066, 39.8997867], [116.4597132, 39.8998252], [116.4594854, 39.8998515], [116.4591868, 39.8998721], [116.4589636, 39.8998881], [116.4558666, 39.8999667]]}}, {"type": "Feature", "properties": {"railway": "rail", "name": "京哈线"}, "geometry": {"type": "LineString", "coordinates": [[116.4558651, 39.9000219], [116.458762, 39.8999364], [116.4590383, 39.899925], [116.4592625, 39.8999124], [116.4595499, 39.8998857], [116.4598427, 39.8998493], [116.4601437, 39.8998023], [116.4604439, 39.8997427], [116.4622498, 39.8993265], [116.4624882, 39.8992719], [116.4627301, 39.8992299], [116.4630618, 39.8991805], [116.463319, 39.8991531], [116.4635359, 39.8991424], [116.4638517, 39.8991429], [116.4640438, 39.8991506], [116.4642767, 39.899164], [116.4645254, 39.8991879], [116.4647261, 39.8992158], [116.4650168, 39.8992689], [116.4652118, 39.8993126], [116.4654328, 39.8993729], [116.4657466, 39.8994694], [116.4666088, 39.8997637], [116.4672996, 39.8999948], [116.4679355, 39.9001807], [116.4684047, 39.9002851], [116.4690258, 39.9003765], [116.4696911, 39.9004543]]}}, {"type": "Feature", "properties": {"railway": "rail", "name": ""}, "geometry": {"type": "LineString", "coordinates": [[116.4738549, 39.9008694], [116.4742113, 39.9008997], [116.4744046, 39.9009075], [116.4745707, 39.9009119], [116.4747971, 39.9009232], [116.475006, 39.9009362], [116.4751973, 39.9009533], [116.4755523, 39.9009812], [116.4757712, 39.9009975], [116.4786517, 39.9011472], [116.4805818, 39.9012547], [116.4809666, 39.9012729], [116.4813817, 39.9012835], [116.4817639, 39.9012753], [116.4823619, 39.9012533], [116.4827319, 39.9012334], [116.4835008, 39.9011692]]}}, {"type": "Feature", "properties": {"railway": "rail", "name": "百东线"}, "geometry": {"type": "LineString", "coordinates": [[116.4735614, 39.9007228], [116.4756586, 39.9008141], [116.4803813, 39.9010754], [116.48065, 39.9010863], [116.4808903, 39.9010917], [116.481139, 39.901094], [116.4814046, 39.9010857], [116.4831522, 39.9010124], [116.4834897, 39.9009983]]}}, {"type": "Feature", "properties": {"railway": "rail", "name": ""}, "geometry": {"type": "LineString", "coordinates": [[116.4744363, 39.9007155], [116.4747503, 39.9007252], [116.475664, 39.9007719], [116.4803883, 39.9010285], [116.4805493, 39.9010357], [116.4806555, 39.9010404], [116.4808995, 39.9010404], [116.4811496, 39.9010439], [116.4814137, 39.9010333], [116.4834122, 39.9009528], [116.4834969, 39.9009494]]}}, {"type": "Feature", "properties": {"railway": "rail", "name": ""}, "geometry": {"type": "LineString", "coordinates": [[116.4645802, 39.8990835], [116.4648674, 39.8991381], [116.4652667, 39.8992307], [116.4657207, 39.899367], [116.4673594, 39.8999033], [116.4679786, 39.9000746], [116.4684308, 39.9001751], [116.468761, 39.9002328], [116.4691023, 39.900279]]}}, {"type": "Feature", "properties": {"railway": "rail", "name": "东星线"}, "geometry": {"type": "LineString", "coordinates": [[116.4742588, 39.9009581], [116.4746413, 39.9010241], [116.4748746, 39.9010623], [116.4751521, 39.9010964], [116.4753953, 39.9011129], [116.4756368, 39.9011256], [116.4786384, 39.9012921], [116.4805629, 39.9014055], [116.480966, 39.9014245], [116.4812934, 39.9014328], [116.4815852, 39.9014316], [116.4819696, 39.9014182], [116.4823147, 39.9014031], [116.4826707, 39.9013796], [116.4835034, 39.9013121]]}}, {"type": "Feature", "properties": {"railway": "rail", "name": ""}, "geometry": {"type": "LineString", "coordinates": [[116.4738593, 39.9009143], [116.4734867, 39.9008558], [116.4731349, 39.9007944], [116.472835, 39.9007548]]}}, {"type": "Feature", "properties": {"railway": "rail", "name": ""}, "geometry": {"type": "LineString", "coordinates": [[116.4713336, 39.9005739], [116.4714099, 39.9005862], [116.4715702, 39.900612]]}}, {"type": "Feature", "properties": {"railway": "rail", "name": "京哈线"}, "geometry": {"type": "LineString", "coordinates": [[116.4713381, 39.9006351], [116.4719308, 39.9007001]]}}, {"type": "Feature", "properties": {"railway": "rail", "name": ""}, "geometry": {"type": "LineString", "coordinates": [[116.4744363, 39.9007155], [116.4740818, 39.9007086], [116.4737977, 39.9007138], [116.4735614, 39.9007228]]}}, {"type": "Feature", "properties": {"railway": "rail", "name": ""}, "geometry": {"type": "LineString", "coordinates": [[116.4705867, 39.9004588], [116.4708703, 39.9004989], [116.4713336, 39.9005739]]}}, {"type": "Feature", "properties": {"railway": "rail", "name": ""}, "geometry": {"type": "LineString", "coordinates": [[116.4713383, 39.9006239], [116.4719236, 39.9006559]]}}, {"type": "Feature", "properties": {"railway": "rail", "name": "百东线"}, "geometry": {"type": "LineString", "coordinates": [[116.4713438, 39.900537], [116.4718665, 39.9005995]]}}, {"type": "Feature", "properties": {"railway": "rail", "name": "京哈线"}, "geometry": {"type": "LineString", "coordinates": [[116.4719245, 39.9006472], [116.4715702, 39.900612], [116.4713423, 39.9005911]]}}, {"type": "Feature", "properties": {"railway": "rail", "name": ""}, "geometry": {"type": "LineString", "coordinates": [[116.4735506, 39.900769], [116.475659, 39.9008634], [116.4803832, 39.9011257], [116.4806347, 39.9011357], [116.4808684, 39.9011449], [116.4811498, 39.9011523], [116.4814306, 39.9011535], [116.4818193, 39.9011493], [116.4822766, 39.9011385], [116.4826055, 39.9011157], [116.4829258, 39.9010923], [116.4835047, 39.9010369]]}}, {"type": "Feature", "properties": {"highway": "trunk", "name": "东二环"}, "geometry": {"type": "LineString", "coordinates": [[116.4376373, 39.8966198], [116.4374621, 39.8968311], [116.4372135, 39.8970462], [116.4368822, 39.8972661]]}}, {"type": "Feature", "properties": {"highway": "trunk", "name": "东二环"}, "geometry": {"type": "LineString", "coordinates": [[116.4368575, 39.8971312], [116.4371339, 39.8969333], [116.4373384, 39.8967543], [116.4374824, 39.8965727], [116.4376243, 39.896337]]}}, {"type": "Feature", "properties": {"highway": "trunk", "name": "东二环"}, "geometry": {"type": "LineString", "coordinates": [[116.4356112, 39.8691515], [116.4358694, 39.8692068], [116.4362151, 39.8693174], [116.4364843, 39.8694072], [116.4367743, 39.8695458], [116.4370216, 39.8696881], [116.4372383, 39.8698429], [116.4374357, 39.8700351], [116.4376137, 39.8702264], [116.4377771, 39.8704862], [116.4379059, 39.8707586], [116.4379833, 39.8709567], [116.4380442, 39.8711839], [116.4381528, 39.871725], [116.4382394, 39.8721475], [116.4383229, 39.8725744], [116.4384199, 39.8729679], [116.4385114, 39.8733169], [116.4386094, 39.8736375], [116.438711, 39.8739254], [116.4388215, 39.8742171], [116.4389434, 39.8744707], [116.4390392, 39.8747066], [116.439146, 39.8749614], [116.439592, 39.8758481], [116.4398537, 39.876326], [116.4399918, 39.8766191], [116.4400857, 39.8769072], [116.4401514, 39.877161], [116.4401826, 39.8774343], [116.4401743, 39.8776573], [116.440142, 39.8779471], [116.4400703, 39.8783754], [116.4397989, 39.8797782]]}}, {"type": "Feature", "properties": {"highway": "trunk", "name": "东二环"}, "geometry": {"type": "LineString", "coordinates": [[116.4392057, 39.8821343], [116.4393225, 39.8814261], [116.4395126, 39.8802737], [116.4396367, 39.8797598], [116.4399079, 39.8783581], [116.439979, 39.8779337], [116.4400106, 39.8776502], [116.4400185, 39.877438], [116.4399889, 39.8771788], [116.4399257, 39.8769347], [116.4398348, 39.8766558], [116.4397005, 39.8763708], [116.4395109, 39.876007], [116.4389917, 39.8750039], [116.438883, 39.8747447], [116.4387882, 39.8745112], [116.4386658, 39.8742565], [116.438608, 39.8741051], [116.4385532, 39.8739594], [116.4384504, 39.8736683], [116.4383512, 39.8733437], [116.438259, 39.8729921], [116.4381612, 39.8725954], [116.4380774, 39.8721666], [116.4379908, 39.8717443], [116.4378829, 39.8712062], [116.4378242, 39.8709875], [116.4377799, 39.870827], [116.4376258, 39.8705351], [116.4374722, 39.8702907], [116.4373046, 39.8701106], [116.4371174, 39.8699284], [116.4369163, 39.8697847], [116.4368657, 39.8697556], [116.4366816, 39.8696497], [116.4364079, 39.8695189], [116.4361509, 39.8694331], [116.4358157, 39.8693259]]}}, {"type": "Feature", "properties": {"highway": "trunk", "name": "东二环"}, "geometry": {"type": "LineString", "coordinates": [[116.438935, 39.8842674], [116.4391022, 39.8830242], [116.4392057, 39.8821343]]}}, {"type": "Feature", "properties": {"highway": "trunk", "name": "东二环"}, "geometry": {"type": "LineString", "coordinates": [[116.430276, 39.8991422], [116.43053, 39.8988969], [116.4307492, 39.8987386], [116.4310479, 39.8985767], [116.4315294, 39.8984085], [116.4317986, 39.8983455], [116.4358515, 39.8974707], [116.436179, 39.8973995], [116.4364918, 39.8972946], [116.4368575, 39.8971312]]}}, {"type": "Feature", "properties": {"highway": "trunk", "name": "东三环"}, "geometry": {"type": "LineString", "coordinates": [[116.4550137, 39.8724406], [116.4550077, 39.8728332], [116.4550466, 39.8747156]]}}, {"type": "Feature", "properties": {"highway": "trunk", "name": "东三环"}, "geometry": {"type": "LineString", "coordinates": [[116.4554623, 39.8956723], [116.4554936, 39.8971138]]}}, {"type": "Feature", "properties": {"highway": "trunk", "name": "东三环"}, "geometry": {"type": "LineString", "coordinates": [[116.4553275, 39.8891614], [116.4553529, 39.8904282]]}}, {"type": "Feature", "properties": {"highway": "trunk", "name": "东三环"}, "geometry": {"type": "LineString", "coordinates": [[116.4553073, 39.8956958], [116.4552927, 39.8951971], [116.4552933, 39.8949027], [116.4552563, 39.8944779]]}}, {"type": "Feature", "properties": {"railway": "rail", "name": ""}, "geometry": {"type": "LineString", "coordinates": [[116.4611167, 39.9006328], [116.4612452, 39.9006398], [116.4660249, 39.9009265]]}}, {"type": "Feature", "properties": {"railway": "rail", "name": ""}, "geometry": {"type": "LineString", "coordinates": [[116.461122, 39.9005791], [116.4660304, 39.9008728]]}}, {"type": "Feature", "properties": {"railway": "rail", "name": ""}, "geometry": {"type": "LineString", "coordinates": [[116.4611273, 39.9005253], [116.4660358, 39.900819]]}}, {"type": "Feature", "properties": {"railway": "rail", "name": ""}, "geometry": {"type": "LineString", "coordinates": [[116.4611326, 39.9004716], [116.4612344, 39.9004777], [116.4650957, 39.9007087], [116.4660413, 39.9007653]]}}, {"type": "Feature", "properties": {"railway": "rail", "name": ""}, "geometry": {"type": "LineString", "coordinates": [[116.4450369, 39.9001767], [116.4454336, 39.900085], [116.4457734, 39.9000079], [116.4460786, 39.8999402], [116.4462096, 39.8999178], [116.4463432, 39.8998981], [116.4464847, 39.8998893], [116.4466237, 39.8998846], [116.4468136, 39.8998803], [116.4519055, 39.8997589]]}}, {"type": "Feature", "properties": {"railway": "rail", "name": ""}, "geometry": {"type": "LineString", "coordinates": [[116.4611722, 39.9000663], [116.4651384, 39.9003058]]}}, {"type": "Feature", "properties": {"railway": "rail", "name": ""}, "geometry": {"type": "LineString", "coordinates": [[116.4611678, 39.900111], [116.4651336, 39.9003506]]}}, {"type": "Feature", "properties": {"railway": "rail", "name": ""}, "geometry": {"type": "LineString", "coordinates": [[116.4611625, 39.900165], [116.4651279, 39.9004043]]}}, {"type": "Feature", "properties": {"railway": "rail", "name": ""}, "geometry": {"type": "LineString", "coordinates": [[116.4611577, 39.9002143], [116.4651227, 39.9004535]]}}, {"type": "Feature", "properties": {"railway": "rail", "name": ""}, "geometry": {"type": "LineString", "coordinates": [[116.4611522, 39.9002694], [116.465117, 39.9005073]]}}, {"type": "Feature", "properties": {"railway": "rail", "name": ""}, "geometry": {"type": "LineString", "coordinates": [[116.4611471, 39.9003215], [116.4651123, 39.900552]]}}, {"type": "Feature", "properties": {"railway": "rail", "name": ""}, "geometry": {"type": "LineString", "coordinates": [[116.4611395, 39.9003987], [116.4651033, 39.9006371]]}}, {"type": "Feature", "properties": {"railway": "rail", "name": "京津城际线"}, "geometry": {"type": "LineString", "coordinates": [[116.426261, 39.8703598], [116.4309851, 39.8700801], [116.4321747, 39.8699613], [116.4339644, 39.8697617], [116.4352278, 39.8695631], [116.4368531, 39.8692067], [116.437508, 39.8690479], [116.4384403, 39.868813], [116.4392954, 39.8685568], [116.4399373, 39.8683453], [116.4407059, 39.8680865], [116.4412126, 39.8679012], [116.4422874, 39.8674566], [116.4430289, 39.867126], [116.4439527, 39.8666959], [116.4460811, 39.8655782], [116.4480373, 39.8643575], [116.4531047, 39.8607849]]}}, {"type": "Feature", "properties": {"railway": "rail", "name": "京津城际线"}, "geometry": {"type": "LineString", "coordinates": [[116.4530537, 39.8607426], [116.4485823, 39.863883], [116.4462202, 39.8654276], [116.4439197, 39.8666483], [116.4429807, 39.8670816], [116.4422449, 39.8674083], [116.441175, 39.8678537], [116.4406672, 39.8680319], [116.4398849, 39.868296], [116.4392629, 39.8685023], [116.4384135, 39.8687507], [116.4375072, 39.8689903], [116.4368331, 39.8691524], [116.4351479, 39.8695106], [116.4339832, 39.8696869], [116.4326029, 39.8698538], [116.4310207, 39.8700083], [116.4262561, 39.8702891]]}}, {"type": "Feature", "properties": {"railway": "rail", "name": ""}, "geometry": {"type": "LineString", "coordinates": [[116.4735614, 39.9007228], [116.4732951, 39.900732], [116.4731234, 39.9007371], [116.4729317, 39.9007357]]}}, {"type": "Feature", "properties": {"railway": "rail", "name": "京哈线"}, "geometry": {"type": "LineString", "coordinates": [[116.4430598, 39.8997541], [116.444176, 39.8994345], [116.4444384, 39.8993612], [116.4447126, 39.899292], [116.44486, 39.8992607], [116.4450685, 39.8992262], [116.4452935, 39.8991883], [116.445534, 39.8991602], [116.4457435, 39.899138], [116.4459619, 39.8991203], [116.4462672, 39.8991131], [116.4465602, 39.8991147], [116.446792, 39.8991265], [116.4470876, 39.8991492], [116.4473628, 39.8991804], [116.4476391, 39.8992158], [116.4481024, 39.8992818], [116.4484448, 39.8993338], [116.4486877, 39.8993656], [116.448904, 39.8993889], [116.4491882, 39.8994109], [116.4495103, 39.8994244], [116.4498894, 39.8994318], [116.4503035, 39.8994391], [116.4505299, 39.8994466], [116.4508751, 39.8994714], [116.4511335, 39.8994967], [116.4514698, 39.8995389], [116.4519514, 39.8996122], [116.4534305, 39.8998454], [116.4539839, 39.8999347], [116.454398, 39.8999931], [116.4547481, 39.9000154], [116.4550973, 39.9000328]]}}, {"type": "Feature", "properties": {"railway": "rail", "name": "京哈线"}, "geometry": {"type": "LineString", "coordinates": [[116.4550932, 39.8999738], [116.4547817, 39.8999692], [116.4543944, 39.8999314], [116.4540482, 39.8998947], [116.4534078, 39.8997897], [116.4519564, 39.8995667], [116.4515135, 39.8994989], [116.4513005, 39.8994666], [116.4510658, 39.8994381], [116.4508634, 39.8994191], [116.4505843, 39.8994049], [116.450359, 39.8993969], [116.4495902, 39.8993762], [116.4493799, 39.8993672], [116.4490921, 39.8993564], [116.4488961, 39.8993401], [116.4486499, 39.8993152], [116.4483882, 39.8992821], [116.4481068, 39.8992422], [116.447785, 39.8991932], [116.4474964, 39.8991576], [116.4472605, 39.8991268], [116.4469722, 39.8990964], [116.4467602, 39.8990799], [116.446513, 39.8990715], [116.446316, 39.8990689], [116.4460385, 39.8990733], [116.4458022, 39.89909], [116.4455359, 39.8991112], [116.4451789, 39.8991567], [116.4449374, 39.8991975], [116.4447801, 39.8992321], [116.4445778, 39.8992797], [116.4444058, 39.8993214], [116.4441864, 39.8993831], [116.4434116, 39.8996135], [116.4430445, 39.8997227]]}}, {"type": "Feature", "properties": {"railway": "rail", "name": ""}, "geometry": {"type": "LineString", "coordinates": [[116.4723776, 39.9006999], [116.4729317, 39.9007357], [116.4735506, 39.900769]]}}, {"type": "Feature", "properties": {"railway": "rail", "name": "百东线"}, "geometry": {"type": "LineString", "coordinates": [[116.4718665, 39.9005995], [116.4719608, 39.9006099], [116.4722049, 39.9006406], [116.4724469, 39.9006656], [116.4726718, 39.9006801], [116.4729384, 39.9006938], [116.4735614, 39.9007228]]}}, {"type": "Feature", "properties": {"railway": "rail", "name": "百东线"}, "geometry": {"type": "LineString", "coordinates": [[116.4697385, 39.9003537], [116.4705867, 39.9004588], [116.4713438, 39.900537]]}}, {"type": "Feature", "properties": {"railway": "rail", "name": ""}, "geometry": {"type": "LineString", "coordinates": [[116.4735506, 39.900769], [116.473767, 39.9007953], [116.4739454, 39.9008196], [116.4741217, 39.9008359], [116.4742837, 39.9008456], [116.4752403, 39.9008871]]}}, {"type": "Feature", "properties": {"railway": "rail", "name": "京哈线"}, "geometry": {"type": "LineString", "coordinates": [[116.4713423, 39.9005911], [116.4709157, 39.9005457], [116.4696897, 39.9003934]]}}, {"type": "Feature", "properties": {"railway": "rail", "name": "京哈线"}, "geometry": {"type": "LineString", "coordinates": [[116.4696911, 39.9004543], [116.469968, 39.9004847], [116.4710802, 39.9006068], [116.4713381, 39.9006351]]}}, {"type": "Feature", "properties": {"railway": "rail", "name": ""}, "geometry": {"type": "LineString", "coordinates": [[116.4385992, 39.8995433], [116.4399711, 39.8996927]]}}, {"type": "Feature", "properties": {"railway": "rail", "name": ""}, "geometry": {"type": "LineString", "coordinates": [[116.4719236, 39.9006559], [116.4721461, 39.9006754]]}}, {"type": "Feature", "properties": {"railway": "rail", "name": ""}, "geometry": {"type": "LineString", "coordinates": [[116.4713383, 39.9006239], [116.4710802, 39.9006068]]}}, {"type": "Feature", "properties": {"railway": "rail", "name": ""}, "geometry": {"type": "LineString", "coordinates": [[116.4437069, 39.900552], [116.4429595, 39.9006543], [116.4423227, 39.9007415], [116.4417584, 39.9008198], [116.4414112, 39.9008658], [116.4410411, 39.9009195], [116.440896, 39.9009375], [116.4407673, 39.9009531], [116.440655, 39.9009624], [116.4405219, 39.9009719], [116.4403942, 39.9009741], [116.4402227, 39.9009741], [116.4394657, 39.9009659], [116.439102, 39.9009638], [116.4362632, 39.9009301], [116.4361093, 39.9009256], [116.4359446, 39.9009194], [116.4357891, 39.9009054], [116.4356387, 39.9008859], [116.435471, 39.9008609], [116.435285, 39.9008266], [116.4338633, 39.9005285], [116.4337254, 39.9004996], [116.4335559, 39.9004706]]}}, {"type": "Feature", "properties": {"railway": "rail", "name": ""}, "geometry": {"type": "LineString", "coordinates": [[116.4439621, 39.9004695], [116.4443647, 39.9004131], [116.4445357, 39.9003897], [116.4446818, 39.900377], [116.4448413, 39.9003679], [116.4450458, 39.900363], [116.44567, 39.9003415]]}}, {"type": "Feature", "properties": {"railway": "rail", "name": ""}, "geometry": {"type": "LineString", "coordinates": [[116.4340608, 39.900435], [116.4342441, 39.9004604], [116.4343651, 39.900475], [116.4345017, 39.9004902], [116.4346488, 39.9005099], [116.4347492, 39.9005261], [116.4353096, 39.9006371], [116.435535, 39.900681], [116.4356797, 39.9007043], [116.4358035, 39.9007195], [116.4359669, 39.9007365], [116.4361246, 39.9007446], [116.4362747, 39.9007458], [116.4405009, 39.9007956], [116.4410116, 39.9007982], [116.4411359, 39.9007959], [116.4412555, 39.9007901], [116.4414098, 39.9007739], [116.4417012, 39.9007352], [116.4423455, 39.900648]]}}, {"type": "Feature", "properties": {"railway": "rail", "name": ""}, "geometry": {"type": "LineString", "coordinates": [[116.4417272, 39.9006878], [116.4419522, 39.9006669], [116.4420669, 39.9006592], [116.4423455, 39.900648]]}}, {"type": "Feature", "properties": {"railway": "rail", "name": ""}, "geometry": {"type": "LineString", "coordinates": [[116.4442067, 39.9003262], [116.4439233, 39.9003785], [116.4435544, 39.9004356], [116.4417272, 39.9006878]]}}, {"type": "Feature", "properties": {"railway": "rail", "name": ""}, "geometry": {"type": "LineString", "coordinates": [[116.4458918, 39.9007485], [116.4460015, 39.9007941], [116.4461222, 39.900846], [116.4462376, 39.9009003], [116.4464359, 39.9010124], [116.4465004, 39.901048], [116.4466612, 39.9011369], [116.4468078, 39.9012207], [116.4469052, 39.9012682], [116.4470065, 39.9013135], [116.4471246, 39.9013611], [116.4472485, 39.9014056], [116.4473981, 39.9014516], [116.4475112, 39.9014833], [116.447645, 39.901512], [116.4478044, 39.9015369], [116.4479343, 39.9015558], [116.4480457, 39.9015623], [116.4481708, 39.9015669], [116.44831, 39.9015675], [116.4484828, 39.9015621]]}}, {"type": "Feature", "properties": {"railway": "rail", "name": ""}, "geometry": {"type": "LineString", "coordinates": [[116.4452673, 39.900491], [116.4454636, 39.9005073], [116.445578, 39.9005127], [116.4457496, 39.9005162], [116.4460146, 39.9005136], [116.4462476, 39.9005121], [116.4467484, 39.9005012], [116.447372, 39.9004853], [116.4486767, 39.9004659]]}}, {"type": "Feature", "properties": {"railway": "rail", "name": ""}, "geometry": {"type": "LineString", "coordinates": [[116.4454991, 39.9006238], [116.4456435, 39.900664], [116.4457677, 39.9007074], [116.4458918, 39.9007485]]}}, {"type": "Feature", "properties": {"railway": "rail", "name": ""}, "geometry": {"type": "LineString", "coordinates": [[116.4439621, 39.9004695], [116.4437017, 39.9004843], [116.443511, 39.9004958], [116.4433019, 39.9005153]]}}, {"type": "Feature", "properties": {"railway": "rail", "name": ""}, "geometry": {"type": "LineString", "coordinates": [[116.4423633, 39.9006946], [116.4429534, 39.9006159], [116.4434416, 39.9005443], [116.4439621, 39.9004695]]}}, {"type": "Feature", "properties": {"railway": "rail", "name": ""}, "geometry": {"type": "LineString", "coordinates": [[116.4445586, 39.9004479], [116.4443702, 39.9004524], [116.4442029, 39.9004575], [116.4439621, 39.9004695]]}}, {"type": "Feature", "properties": {"railway": "rail", "name": ""}, "geometry": {"type": "LineString", "coordinates": [[116.4449298, 39.9001562], [116.4445833, 39.9002476], [116.4443887, 39.9002903], [116.4442067, 39.9003262]]}}, {"type": "Feature", "properties": {"railway": "rail", "name": ""}, "geometry": {"type": "LineString", "coordinates": [[116.4423455, 39.900648], [116.4429404, 39.900569], [116.4433019, 39.9005153], [116.4439539, 39.9004275]]}}, {"type": "Feature", "properties": {"railway": "rail", "name": ""}, "geometry": {"type": "LineString", "coordinates": [[116.4437017, 39.9004843], [116.4439539, 39.9004275]]}}, {"type": "Feature", "properties": {"railway": "rail", "name": ""}, "geometry": {"type": "LineString", "coordinates": [[116.4525219, 39.8997647], [116.4539491, 39.8999805], [116.454274, 39.9000297], [116.454551, 39.9000616], [116.4548424, 39.9000847], [116.4550813, 39.9000935]]}}, {"type": "Feature", "properties": {"railway": "rail", "name": ""}, "geometry": {"type": "LineString", "coordinates": [[116.4509626, 39.8996984], [116.451302, 39.8996908], [116.4517804, 39.8997107], [116.4521559, 39.8997314], [116.4522914, 39.8997405], [116.4525219, 39.8997647]]}}, {"type": "Feature", "properties": {"highway": "trunk", "name": "东二环"}, "geometry": {"type": "LineString", "coordinates": [[116.4390946, 39.8844353], [116.4389597, 39.8853067]]}}, {"type": "Feature", "properties": {"railway": "rail", "name": ""}, "geometry": {"type": "LineString", "coordinates": [[116.4388198, 39.9001813], [116.4386042, 39.9001659], [116.4381663, 39.9001269], [116.4379292, 39.9001126]]}}, {"type": "Feature", "properties": {"railway": "rail", "name": ""}, "geometry": {"type": "LineString", "coordinates": [[116.4435734, 39.8997167], [116.4442011, 39.899508], [116.4444377, 39.8994292], [116.4444755, 39.8994181], [116.4445754, 39.8993918], [116.4448826, 39.8993242]]}}, {"type": "Feature", "properties": {"railway": "rail", "name": ""}, "geometry": {"type": "LineString", "coordinates": [[116.4410554, 39.8999811], [116.4413436, 39.9000039], [116.4415201, 39.9000127], [116.4417082, 39.9000167], [116.4418198, 39.9000211], [116.4422425, 39.9000118], [116.4425025, 39.8999921], [116.4427336, 39.8999515], [116.4429085, 39.8999122], [116.4430578, 39.8998733], [116.4435734, 39.8997167]]}}, {"type": "Feature", "properties": {"railway": "rail", "name": ""}, "geometry": {"type": "LineString", "coordinates": [[116.4404478, 39.9002363], [116.4407146, 39.9002401], [116.4408591, 39.9002362], [116.4409787, 39.9002307], [116.4413422, 39.9002126], [116.4415275, 39.9002027], [116.4417667, 39.9001974]]}}, {"type": "Feature", "properties": {"railway": "rail", "name": ""}, "geometry": {"type": "LineString", "coordinates": [[116.4392958, 39.9001555], [116.4403243, 39.9001923], [116.440701, 39.9002058], [116.4409759, 39.900212], [116.4413422, 39.9002126]]}}, {"type": "Feature", "properties": {"railway": "rail", "name": ""}, "geometry": {"type": "LineString", "coordinates": [[116.4388198, 39.9001813], [116.4390989, 39.9001888], [116.4395533, 39.9002069], [116.4401538, 39.9002288]]}}, {"type": "Feature", "properties": {"railway": "rail", "name": ""}, "geometry": {"type": "LineString", "coordinates": [[116.4401538, 39.9002288], [116.4401827, 39.9002294], [116.4402051, 39.9002298]]}}, {"type": "Feature", "properties": {"railway": "rail", "name": ""}, "geometry": {"type": "LineString", "coordinates": [[116.4428128, 39.9003131], [116.4429194, 39.9003142], [116.4429969, 39.9003174], [116.4431436, 39.9003267]]}}, {"type": "Feature", "properties": {"railway": "rail", "name": ""}, "geometry": {"type": "LineString", "coordinates": [[116.4422261, 39.9002257], [116.4423762, 39.9002434], [116.442803, 39.9002943], [116.4431436, 39.9003267], [116.4433503, 39.9003515], [116.4434067, 39.9003564], [116.4435038, 39.9003648], [116.443627, 39.9003701], [116.4437103, 39.9003707], [116.4438258, 39.9003666], [116.4439328, 39.9003579], [116.4442067, 39.9003262]]}}, {"type": "Feature", "properties": {"railway": "rail", "name": ""}, "geometry": {"type": "LineString", "coordinates": [[116.4417667, 39.9001974], [116.4419859, 39.9002086], [116.4422261, 39.9002257]]}}, {"type": "Feature", "properties": {"railway": "rail", "name": ""}, "geometry": {"type": "LineString", "coordinates": [[116.4384649, 39.899895], [116.4387431, 39.8998886], [116.4388007, 39.8998873], [116.4390249, 39.8998725], [116.4390538, 39.8998706], [116.4392428, 39.8998617], [116.4393763, 39.899862], [116.4395541, 39.899868], [116.4399536, 39.8998793], [116.4401788, 39.899887], [116.4404153, 39.8999057]]}}, {"type": "Feature", "properties": {"railway": "rail", "name": ""}, "geometry": {"type": "LineString", "coordinates": [[116.4387288, 39.9003845], [116.4392715, 39.9003959], [116.4404195, 39.9004133]]}}, {"type": "Feature", "properties": {"railway": "rail", "name": ""}, "geometry": {"type": "LineString", "coordinates": [[116.4691023, 39.900279], [116.4697385, 39.9003537]]}}, {"type": "Feature", "properties": {"highway": "trunk", "name": "东二环"}, "geometry": {"type": "LineString", "coordinates": [[116.4388543, 39.8848681], [116.438935, 39.8842674]]}}, {"type": "Feature", "properties": {"highway": "trunk", "name": "东二环"}, "geometry": {"type": "LineString", "coordinates": [[116.4397989, 39.8797782], [116.4395645, 39.880913]]}}, {"type": "Feature", "properties": {"highway": "trunk", "name": "东二环"}, "geometry": {"type": "LineString", "coordinates": [[116.4378171, 39.8923609], [116.4378262, 39.8922481], [116.4379399, 39.8914215]]}}, {"type": "Feature", "properties": {"railway": "rail", "name": "京哈线"}, "geometry": {"type": "LineString", "coordinates": [[116.440967, 39.8998812], [116.4411734, 39.8999041], [116.4413883, 39.8999221], [116.4416425, 39.8999385], [116.441886, 39.8999416], [116.4421342, 39.8999324], [116.4424022, 39.899907], [116.4426013, 39.8998746], [116.4427583, 39.8998355], [116.4430598, 39.8997541]]}}, {"type": "Feature", "properties": {"railway": "rail", "name": "京哈线"}, "geometry": {"type": "LineString", "coordinates": [[116.4400105, 39.8997452], [116.4397906, 39.8997222]]}}, {"type": "Feature", "properties": {"railway": "rail", "name": "京哈线"}, "geometry": {"type": "LineString", "coordinates": [[116.4430445, 39.8997227], [116.4427507, 39.8997915], [116.442569, 39.8998354], [116.4423836, 39.8998668], [116.4421962, 39.8998886], [116.4420094, 39.8998987], [116.4417764, 39.8998992], [116.4416113, 39.8998933], [116.4413966, 39.8998809], [116.4408707, 39.8998313], [116.4400105, 39.8997452]]}}, {"type": "Feature", "properties": {"railway": "rail", "name": ""}, "geometry": {"type": "LineString", "coordinates": [[116.4429066, 39.9001048], [116.443687, 39.9001294]]}}, {"type": "Feature", "properties": {"railway": "rail", "name": ""}, "geometry": {"type": "LineString", "coordinates": [[116.4558763, 39.9000743], [116.4564943, 39.9000555], [116.4570447, 39.9000438], [116.4573005, 39.9000461], [116.4575632, 39.9000565], [116.4577726, 39.9000688]]}}, {"type": "Feature", "properties": {"railway": "rail", "name": ""}, "geometry": {"type": "LineString", "coordinates": [[116.4621051, 39.9000241], [116.4638672, 39.9001252]]}}, {"type": "Feature", "properties": {"railway": "rail", "name": ""}, "geometry": {"type": "LineString", "coordinates": [[116.4605802, 39.9000348], [116.4608731, 39.9000027], [116.4612228, 39.8999641], [116.4615802, 39.8999462], [116.4617775, 39.8999469], [116.4621118, 39.8999556]]}}, {"type": "Feature", "properties": {"railway": "rail", "name": ""}, "geometry": {"type": "LineString", "coordinates": [[116.4577726, 39.9000688], [116.45817, 39.9000913]]}}, {"type": "Feature", "properties": {"railway": "rail", "name": ""}, "geometry": {"type": "LineString", "coordinates": [[116.4586749, 39.9001216], [116.4591969, 39.9001468], [116.4593784, 39.9001568], [116.4595914, 39.9001726]]}}, {"type": "Feature", "properties": {"railway": "rail", "name": ""}, "geometry": {"type": "LineString", "coordinates": [[116.4592087, 39.9001833], [116.4595944, 39.9002421]]}}, {"type": "Feature", "properties": {"railway": "rail", "name": ""}, "geometry": {"type": "LineString", "coordinates": [[116.45817, 39.9000913], [116.4584597, 39.9001094], [116.4586749, 39.9001216], [116.4592087, 39.9001833], [116.4595901, 39.9002736]]}}, {"type": "Feature", "properties": {"railway": "rail", "name": ""}, "geometry": {"type": "LineString", "coordinates": [[116.4591969, 39.9001468], [116.4593723, 39.9001475], [116.4595772, 39.9001387]]}}, {"type": "Feature", "properties": {"railway": "rail", "name": ""}, "geometry": {"type": "LineString", "coordinates": [[116.4604279, 39.9000772], [116.4606605, 39.9000812], [116.4608759, 39.9000921], [116.4610308, 39.9001037], [116.4611678, 39.900111]]}}, {"type": "Feature", "properties": {"railway": "rail", "name": ""}, "geometry": {"type": "LineString", "coordinates": [[116.4595914, 39.9001726], [116.4600062, 39.9001976]]}}, {"type": "Feature", "properties": {"railway": "rail", "name": ""}, "geometry": {"type": "LineString", "coordinates": [[116.460009, 39.9000957], [116.4603638, 39.9000571], [116.4605802, 39.9000348]]}}, {"type": "Feature", "properties": {"highway": "trunk", "name": "东二环"}, "geometry": {"type": "LineString", "coordinates": [[116.4395645, 39.880913], [116.439381, 39.8819835]]}}, {"type": "Feature", "properties": {"highway": "trunk", "name": "东三环"}, "geometry": {"type": "LineString", "coordinates": [[116.4550611, 39.8852562], [116.4550832, 39.8840079]]}}, {"type": "Feature", "properties": {"railway": "rail", "name": ""}, "geometry": {"type": "LineString", "coordinates": [[116.4719608, 39.9006099], [116.4721916, 39.9006238], [116.4723522, 39.9006279], [116.4725464, 39.9006321], [116.4727601, 39.9006344], [116.4733075, 39.9006558], [116.4744363, 39.9007155]]}}, {"type": "Feature", "properties": {"railway": "rail", "name": "京哈线"}, "geometry": {"type": "LineString", "coordinates": [[116.4719308, 39.9007001], [116.4727937, 39.9007948], [116.4738593, 39.9009143]]}}, {"type": "Feature", "properties": {"railway": "rail", "name": "京哈线"}, "geometry": {"type": "LineString", "coordinates": [[116.4738549, 39.9008694], [116.472835, 39.9007548], [116.4723776, 39.9006999], [116.4721461, 39.9006754], [116.4719245, 39.9006472]]}}, {"type": "Feature", "properties": {"railway": "rail", "name": ""}, "geometry": {"type": "LineString", "coordinates": [[116.4729384, 39.9006938], [116.4731146, 39.9007108], [116.4732951, 39.900732], [116.4735506, 39.900769]]}}, {"type": "Feature", "properties": {"railway": "rail", "name": ""}, "geometry": {"type": "LineString", "coordinates": [[116.4393422, 39.8998118], [116.4394695, 39.8998153], [116.4396145, 39.8998212], [116.4398742, 39.89984]]}}, {"type": "Feature", "properties": {"railway": "rail", "name": ""}, "geometry": {"type": "LineString", "coordinates": [[116.4388285, 39.8997413], [116.4390184, 39.8997509], [116.4391816, 39.8997629], [116.4394324, 39.8997886], [116.4398742, 39.89984]]}}, {"type": "Feature", "properties": {"railway": "rail", "name": ""}, "geometry": {"type": "LineString", "coordinates": [[116.4450369, 39.9001767], [116.4451711, 39.9001417], [116.4453005, 39.9001042], [116.4454762, 39.9000466], [116.4459186, 39.8999021]]}}, {"type": "Feature", "properties": {"railway": "rail", "name": ""}, "geometry": {"type": "LineString", "coordinates": [[116.4454762, 39.9000466], [116.4456091, 39.9000064], [116.4457191, 39.8999779], [116.4459199, 39.8999326]]}}, {"type": "Feature", "properties": {"railway": "rail", "name": ""}, "geometry": {"type": "LineString", "coordinates": [[116.4439539, 39.9004275], [116.4441206, 39.9003854], [116.444273, 39.9003518], [116.4443752, 39.9003295], [116.4444338, 39.9003167], [116.4444362, 39.9003162], [116.4444824, 39.9003055], [116.4450124, 39.9001824], [116.4450369, 39.9001767]]}}, {"type": "Feature", "properties": {"railway": "rail", "name": ""}, "geometry": {"type": "LineString", "coordinates": [[116.4444824, 39.9003055], [116.4445905, 39.9002851], [116.4446602, 39.9002738], [116.4447776, 39.9002583], [116.4448813, 39.9002466], [116.4449657, 39.9002341], [116.445051, 39.9002162], [116.4453539, 39.9001476]]}}, {"type": "Feature", "properties": {"railway": "rail", "name": ""}, "geometry": {"type": "LineString", "coordinates": [[116.4453539, 39.9001476], [116.4455662, 39.9001079], [116.4457054, 39.9000866], [116.4458254, 39.9000689]]}}, {"type": "Feature", "properties": {"railway": "rail", "name": ""}, "geometry": {"type": "LineString", "coordinates": [[116.4447743, 39.9004576], [116.444917, 39.9004665], [116.4450102, 39.9004723], [116.4451535, 39.900484], [116.4452673, 39.900491]]}}, {"type": "Feature", "properties": {"railway": "rail", "name": ""}, "geometry": {"type": "LineString", "coordinates": [[116.4454711, 39.9005712], [116.445604, 39.9005958], [116.445718, 39.9006161], [116.4460075, 39.9006586]]}}, {"type": "Feature", "properties": {"railway": "rail", "name": ""}, "geometry": {"type": "LineString", "coordinates": [[116.4459688, 39.9006893], [116.4461055, 39.9007149], [116.4461931, 39.9007289], [116.4462676, 39.9007402]]}}, {"type": "Feature", "properties": {"railway": "rail", "name": ""}, "geometry": {"type": "LineString", "coordinates": [[116.4462558, 39.9007605], [116.4463714, 39.9007891], [116.4465492, 39.900836], [116.4466581, 39.900857], [116.4467793, 39.9008814], [116.4469111, 39.900895], [116.4470412, 39.9009038], [116.447187, 39.9009088], [116.4473641, 39.9009062], [116.4529921, 39.9007953]]}}, {"type": "Feature", "properties": {"railway": "rail", "name": ""}, "geometry": {"type": "LineString", "coordinates": [[116.4465569, 39.9008818], [116.4466869, 39.9009104], [116.4467601, 39.9009227], [116.4469066, 39.9009444], [116.4469613, 39.9009527]]}}, {"type": "Feature", "properties": {"railway": "rail", "name": ""}, "geometry": {"type": "LineString", "coordinates": [[116.4465569, 39.9008818], [116.4472005, 39.9010432], [116.4474085, 39.9010772], [116.4476244, 39.9011092], [116.4478459, 39.9011205], [116.4480505, 39.9011223], [116.4482957, 39.9011192], [116.4487335, 39.9011124], [116.452978, 39.9009955]]}}, {"type": "Feature", "properties": {"railway": "rail", "name": ""}, "geometry": {"type": "LineString", "coordinates": [[116.4460899, 39.9007677], [116.4461891, 39.9007985], [116.4462747, 39.9008276], [116.4464951, 39.9009079], [116.4465766, 39.9009356]]}}, {"type": "Feature", "properties": {"railway": "rail", "name": ""}, "geometry": {"type": "LineString", "coordinates": [[116.4458918, 39.9007485], [116.4460418, 39.9007996], [116.446149, 39.9008366], [116.4462552, 39.9008728], [116.4463661, 39.9009123]]}}, {"type": "Feature", "properties": {"railway": "rail", "name": ""}, "geometry": {"type": "LineString", "coordinates": [[116.4468462, 39.9002233], [116.4493244, 39.9001769]]}}, {"type": "Feature", "properties": {"railway": "rail", "name": ""}, "geometry": {"type": "LineString", "coordinates": [[116.446844, 39.9001559], [116.4493223, 39.9001131]]}}, {"type": "Feature", "properties": {"railway": "rail", "name": ""}, "geometry": {"type": "LineString", "coordinates": [[116.446842, 39.9000969], [116.4493203, 39.9000539]]}}, {"type": "Feature", "properties": {"railway": "rail", "name": ""}, "geometry": {"type": "LineString", "coordinates": [[116.44567, 39.9003415], [116.4464615, 39.9003143]]}}, {"type": "Feature", "properties": {"railway": "rail", "name": ""}, "geometry": {"type": "LineString", "coordinates": [[116.4464641, 39.900372], [116.4456724, 39.9003977]]}}, {"type": "Feature", "properties": {"railway": "rail", "name": ""}, "geometry": {"type": "LineString", "coordinates": [[116.436233, 39.8996117], [116.4364036, 39.8996103], [116.4372436, 39.8996309]]}}, {"type": "Feature", "properties": {"railway": "rail", "name": ""}, "geometry": {"type": "LineString", "coordinates": [[116.4372422, 39.8996817], [116.4388285, 39.8997413]]}}, {"type": "Feature", "properties": {"railway": "rail", "name": ""}, "geometry": {"type": "LineString", "coordinates": [[116.4372402, 39.8997431], [116.4376738, 39.8997551], [116.4393422, 39.8998118]]}}, {"type": "Feature", "properties": {"railway": "rail", "name": ""}, "geometry": {"type": "LineString", "coordinates": [[116.4362274, 39.8997636], [116.4372377, 39.8997942]]}}, {"type": "Feature", "properties": {"railway": "rail", "name": ""}, "geometry": {"type": "LineString", "coordinates": [[116.4353687, 39.8997998], [116.4356481, 39.8997719], [116.4358595, 39.8997613], [116.4361673, 39.8997616], [116.4362274, 39.8997636]]}}, {"type": "Feature", "properties": {"railway": "rail", "name": ""}, "geometry": {"type": "LineString", "coordinates": [[116.436229, 39.8997184], [116.436524, 39.8997274], [116.4372402, 39.8997431]]}}, {"type": "Feature", "properties": {"railway": "rail", "name": ""}, "geometry": {"type": "LineString", "coordinates": [[116.4362311, 39.8996593], [116.4362919, 39.8996588], [116.4364106, 39.8996609], [116.4372422, 39.8996817]]}}, {"type": "Feature", "properties": {"railway": "rail", "name": ""}, "geometry": {"type": "LineString", "coordinates": [[116.4372436, 39.8996309], [116.4379097, 39.899649], [116.4382708, 39.8996819], [116.4384563, 39.8997045], [116.4386392, 39.8997234], [116.4388285, 39.8997413]]}}, {"type": "Feature", "properties": {"railway": "rail", "name": "京哈线"}, "geometry": {"type": "LineString", "coordinates": [[116.4738593, 39.9009143], [116.4742588, 39.9009581]]}}, {"type": "Feature", "properties": {"railway": "rail", "name": ""}, "geometry": {"type": "LineString", "coordinates": [[116.4500601, 39.9004926], [116.4507284, 39.9004792]]}}, {"type": "Feature", "properties": {"railway": "rail", "name": ""}, "geometry": {"type": "LineString", "coordinates": [[116.4507284, 39.9004792], [116.4507899, 39.900478]]}}, {"type": "Feature", "properties": {"railway": "rail", "name": ""}, "geometry": {"type": "LineString", "coordinates": [[116.4507899, 39.900478], [116.4531672, 39.9004306]]}}, {"type": "Feature", "properties": {"highway": "trunk", "name": "东三环"}, "geometry": {"type": "LineString", "coordinates": [[116.4551302, 39.8790601], [116.4551944, 39.882162]]}}, {"type": "Feature", "properties": {"highway": "trunk", "name": "东三环"}, "geometry": {"type": "LineString", "coordinates": [[116.4552563, 39.8944779], [116.4552679, 39.893464]]}}, {"type": "Feature", "properties": {"highway": "trunk", "name": "东三环"}, "geometry": {"type": "LineString", "coordinates": [[116.4547837, 39.8691012], [116.4547276, 39.8679907], [116.4546701, 39.8676437], [116.4545859, 39.8672407]]}}, {"type": "Feature", "properties": {"highway": "trunk", "name": "东三环"}, "geometry": {"type": "LineString", "coordinates": [[116.4549, 39.8747123], [116.4548074, 39.8728196]]}}, {"type": "Feature", "properties": {"highway": "trunk", "name": "东三环"}, "geometry": {"type": "LineString", "coordinates": [[116.4548041, 39.8726038], [116.4548343, 39.8709229]]}}, {"type": "Feature", "properties": {"highway": "trunk", "name": "东三环"}, "geometry": {"type": "LineString", "coordinates": [[116.4548765, 39.8678047], [116.4548871, 39.8679786], [116.4549432, 39.8690922]]}}, {"type": "Feature", "properties": {"railway": "rail", "name": ""}, "geometry": {"type": "LineString", "coordinates": [[116.4439539, 39.9004275], [116.444289, 39.9003783], [116.4445639, 39.900338], [116.4445949, 39.9003339], [116.44494, 39.900289], [116.4450012, 39.9002806]]}}]}