{"type": "FeatureCollection", "features": [{"type": "Feature", "properties": {"name": "", "natural": "water", "waterway": "", "water": "moat", "source": "osm"}, "geometry": {"type": "MultiPolygon", "coordinates": [[[[116.4305202, 39.9002353], [116.4305554, 39.8996315], [116.4311576, 39.8991233], [116.4315768, 39.8988705], [116.4319893, 39.8987393], [116.4331267, 39.898522], [116.4343672, 39.8982712], [116.4345532, 39.8982704], [116.4359275, 39.8979504], [116.4362451, 39.8978384], [116.4367858, 39.8974763], [116.4370046, 39.8971404], [116.4370604, 39.895909], [116.4371607, 39.892928], [116.4371721, 39.8925903], [116.4372236, 39.891385], [116.4378501, 39.8869594], [116.4382546, 39.8839902], [116.4386624, 39.8839789], [116.4384934, 39.8852892], [116.4377815, 39.8906474], [116.4376098, 39.8917604], [116.4374982, 39.8959288], [116.4374252, 39.8971074], [116.4372751, 39.8974828], [116.4369661, 39.8978384], [116.4367377, 39.8980229], [116.4364335, 39.8981924], [116.4360336, 39.8983111], [116.4356804, 39.8983511], [116.4353412, 39.8984425], [116.4349104, 39.8985269], [116.4347082, 39.898523], [116.4343359, 39.8985855], [116.434139, 39.8986795], [116.4321577, 39.8990702], [116.431683, 39.8992104], [116.4312723, 39.8995087], [116.431018, 39.8999455], [116.4309579, 39.9002945], [116.4310781, 39.9006896], [116.4313356, 39.9009135], [116.431636, 39.9009925], [116.4312069, 39.9013085], [116.4311475, 39.9012778], [116.4309923, 39.9011966], [116.4307885, 39.9010464], [116.430649, 39.9008674], [116.4305202, 39.9002353]]]]}}, {"type": "Feature", "properties": {"name": "", "natural": "water", "waterway": "", "water": "moat", "source": "osm"}, "geometry": {"type": "MultiPolygon", "coordinates": [[[[116.4125878, 39.8715565], [116.4126001, 39.8713933], [116.4126273, 39.8712241], [116.4146454, 39.8712451], [116.4148461, 39.8712482], [116.4149514, 39.8712488], [116.4156072, 39.871225], [116.4179761, 39.8712052], [116.4193837, 39.8711855], [116.4224994, 39.8709944], [116.4288337, 39.870586], [116.4337003, 39.8703884], [116.4365434, 39.8703069], [116.4368428, 39.870367], [116.4371721, 39.8705152], [116.4373846, 39.8707021], [116.4375627, 39.8709615], [116.4378631, 39.8724964], [116.4381463, 39.8739521], [116.438421, 39.874624], [116.4394338, 39.8764157], [116.4396312, 39.8771139], [116.4396569, 39.877542], [116.4395969, 39.8783456], [116.4391373, 39.8803836], [116.4386624, 39.8839789], [116.4382546, 39.8839902], [116.438801, 39.8803257], [116.4391849, 39.8783193], [116.4392707, 39.8776606], [116.4392192, 39.8770875], [116.439099, 39.8766264], [116.4379489, 39.8745384], [116.4377429, 39.8740114], [116.4374425, 39.8725622], [116.4371335, 39.8710471], [116.4369876, 39.8708166], [116.4367645, 39.8706782], [116.4364469, 39.870619], [116.4340608, 39.8707046], [116.4285505, 39.8709417], [116.422529, 39.8713184], [116.4199284, 39.8714815], [116.4187743, 39.8715346], [116.4181029, 39.87155], [116.4164312, 39.8715412], [116.415382, 39.8715645], [116.4125878, 39.8715565]]]]}}, {"type": "Feature", "properties": {"name": "", "natural": "water", "waterway": "", "water": "lake", "source": "osm"}, "geometry": {"type": "MultiPolygon", "coordinates": [[[[116.4311692, 39.8776375], [116.4312547, 39.8775194], [116.4312547, 39.8772636], [116.4314427, 39.8771062], [116.4316735, 39.8770209], [116.4319384, 39.876975], [116.4324342, 39.876916], [116.432682, 39.8767979], [116.4328188, 39.8766011], [116.432776, 39.876306], [116.4327675, 39.8760305], [116.4329128, 39.8758337], [116.4331863, 39.8757222], [116.4336136, 39.8757353], [116.4338359, 39.8753943], [116.4341179, 39.8752959], [116.434588, 39.8752893], [116.4348529, 39.8753287], [116.4351863, 39.8750532], [116.4352803, 39.8748761], [116.4354427, 39.8747711], [116.4358102, 39.8746793], [116.436135, 39.8747711], [116.4363828, 39.8747711], [116.4364597, 39.8746137], [116.4364512, 39.8743579], [116.4362974, 39.8741218], [116.436135, 39.8738659], [116.4362204, 39.8736823], [116.4365538, 39.8736364], [116.4367247, 39.873761], [116.4367674, 39.8739447], [116.4369982, 39.8740234], [116.4369298, 39.8743382], [116.4372461, 39.8745678], [116.4373999, 39.874863], [116.437269, 39.8752319], [116.4373545, 39.8755845], [116.4377712, 39.8760518], [116.4378887, 39.87647], [116.4377391, 39.8765274], [116.437472, 39.8764208], [116.4372904, 39.8762486], [116.4370874, 39.8762486], [116.4369592, 39.8764044], [116.4370233, 39.8765602], [116.437269, 39.8765929], [116.4375575, 39.8767077], [116.4377498, 39.8766995], [116.4379741, 39.8767323], [116.4381024, 39.8769865], [116.4382519, 39.8771095], [116.4381024, 39.8774046], [116.4381558, 39.8776178], [116.4384656, 39.877872], [116.4385195, 39.878031], [116.438417, 39.8782999], [116.4384512, 39.8785492], [116.4385537, 39.8786869], [116.4385025, 39.8787394], [116.4381349, 39.8787591], [116.4379065, 39.8788058], [116.4376905, 39.8789755], [116.4374939, 39.878923], [116.4372119, 39.8790214], [116.4369469, 39.8791985], [116.4366563, 39.8792903], [116.4363828, 39.8792247], [116.4360837, 39.8792707], [116.4359213, 39.8793887], [116.4355623, 39.8793953], [116.4351093, 39.8796248], [116.4347162, 39.879638], [116.4344512, 39.8795265], [116.4342034, 39.8795265], [116.4340837, 39.879638], [116.4335538, 39.8796314], [116.4333829, 39.8795068], [116.4332632, 39.8793887], [116.432853, 39.8793559], [116.4326991, 39.8792313], [116.4325709, 39.879251], [116.4326393, 39.879415], [116.4326478, 39.8795986], [116.4322974, 39.8796183], [116.4321179, 39.8794674], [116.4321692, 39.8792575], [116.4322718, 39.8791329], [116.4324683, 39.8790804], [116.4324256, 39.8789296], [116.4322547, 39.8788443], [116.4321778, 39.8786672], [116.4321778, 39.8783852], [116.4319555, 39.878195], [116.4312376, 39.877913], [116.4311692, 39.8776375]], [[116.4324854, 39.8782671], [116.4325025, 39.878582], [116.4328273, 39.8788312], [116.4329384, 39.879087], [116.4333487, 39.8791657], [116.4336307, 39.8790477], [116.4341094, 39.8788181], [116.4345196, 39.8786213], [116.4346649, 39.8784508], [116.4346222, 39.8782737], [116.4345111, 39.8781753], [116.4342461, 39.8780835], [116.4339897, 39.8780835], [116.4335794, 39.8779654], [116.4332376, 39.8778408], [116.432947, 39.8778408], [116.4328701, 39.8779589], [116.4325538, 39.8780245], [116.4324854, 39.8782671]], [[116.4349128, 39.877034], [116.4350922, 39.8771324], [116.4350666, 39.8773489], [116.4352974, 39.8775325], [116.4352461, 39.8776703], [116.4351435, 39.8778736], [116.4353401, 39.8779654], [116.4356222, 39.8780769], [116.4356905, 39.8781688], [116.4355623, 39.8782671], [116.4350324, 39.8783459], [116.4351093, 39.8785361], [116.4351179, 39.8786541], [116.4353743, 39.8786213], [116.4356563, 39.8786279], [116.4357076, 39.8787787], [116.4355623, 39.878923], [116.4353316, 39.8790345], [116.435323, 39.8791067], [116.4355623, 39.8791657], [116.4359384, 39.8792051], [116.4362632, 39.8791788], [116.436776, 39.879146], [116.4371093, 39.8789624], [116.4376563, 39.8787525], [116.4379127, 39.8786082], [116.4381178, 39.8783918], [116.4382631, 39.8781688], [116.4382546, 39.8778998], [116.4379896, 39.8776768], [116.4378785, 39.8775194], [116.4377589, 39.8773751], [116.437152, 39.8772374], [116.4366734, 39.8772505], [116.4362546, 39.8768701], [116.4359213, 39.8767127], [116.4354512, 39.8766602], [116.4351863, 39.8767258], [116.4349213, 39.8768635], [116.4349128, 39.877034]]]]}}, {"type": "Feature", "properties": {"name": "月亮湖", "natural": "water", "waterway": "", "water": "pond", "source": "osm"}, "geometry": {"type": "MultiPolygon", "coordinates": [[[[116.4793037, 39.8725526], [116.4793374, 39.8725941], [116.4793736, 39.8726075], [116.479416, 39.8726212], [116.4794488, 39.8726248], [116.4794889, 39.8726199], [116.4795291, 39.8726013], [116.4795613, 39.8725807], [116.4795881, 39.8725488], [116.4795949, 39.8725128], [116.4795895, 39.8724716], [116.4795707, 39.8724356], [116.4795345, 39.8724099], [116.4794782, 39.8723924], [116.4794326, 39.8723852], [116.4793803, 39.8723965], [116.479324, 39.8724184], [116.479332, 39.87238], [116.4793588, 39.872345], [116.4794211, 39.8723046], [116.4795074, 39.8722695], [116.4796033, 39.8722554], [116.4797004, 39.8722637], [116.47979, 39.8722936], [116.4798641, 39.8723424], [116.4799162, 39.8724058], [116.4799417, 39.8724782], [116.4799382, 39.8725531], [116.479906, 39.8726239], [116.4798482, 39.8726843], [116.4797697, 39.8727289], [116.4796775, 39.8727538], [116.4795799, 39.8727567], [116.4794855, 39.8727374], [116.4794027, 39.8726976], [116.4793389, 39.8726409], [116.4793119, 39.8725982], [116.4793037, 39.8725526]]]]}}]}